{"type": "FeatureCollection", "features": [{"type": "Feature", "id": "formation_vegetale.1103351", "geometry": {"type": "MultiPolygon", "coordinates": [[[[3.03618163, 50.64639999], [3.03625922, 50.64635061], [3.03632273, 50.64634341], [3.036358, 50.64633263], [3.03632689, 50.64624469], [3.03630146, 50.6462115], [3.03634094, 50.64615495], [3.03641147, 50.64610108], [3.03638601, 50.64602302], [3.03638761, 50.64602042], [3.0361276, 50.64591744], [3.03612482, 50.64591989], [3.03608249, 50.64592888], [3.03599075, 50.64593339], [3.03600206, 50.64595762], [3.03600488, 50.64596031], [3.03596683, 50.64602942], [3.03593438, 50.64605007], [3.03590333, 50.64605636], [3.03587087, 50.64605009], [3.03583274, 50.64602048], [3.03579321, 50.64601152], [3.03575793, 50.6460232], [3.03572265, 50.64602949], [3.03568736, 50.64602322], [3.03567325, 50.64601874], [3.03563795, 50.6460008], [3.035621, 50.64598465], [3.03562379, 50.64593529], [3.03560259, 50.64590209], [3.03562092, 50.64587247], [3.0357366, 50.64580065], [3.03569847, 50.64576476], [3.0356801, 50.64573605], [3.03570546, 50.64566604], [3.03572238, 50.64563912], [3.03571247, 50.64560771], [3.03570824, 50.64560592], [3.03572656, 50.6455763], [3.03576465, 50.64554039], [3.0357477, 50.64552245], [3.03573639, 50.64550001], [3.03576459, 50.64545513], [3.03577859, 50.64530706], [3.0357687, 50.6452936], [3.03574326, 50.64524425], [3.03576159, 50.64521283], [3.03578271, 50.64514552], [3.03586314, 50.64512127], [3.03595908, 50.64506919], [3.03597316, 50.64501983], [3.03600307, 50.64499263], [3.03563258, 50.64495609], [3.03566545, 50.64497774], [3.03569368, 50.64497953], [3.03572896, 50.64497503], [3.03577837, 50.64498668], [3.03579672, 50.64500193], [3.03580662, 50.64502437], [3.0357545, 50.64516797], [3.03568679, 50.64521106], [3.03562752, 50.64522185], [3.03551742, 50.64520662], [3.03548212, 50.64518868], [3.03539462, 50.64519499], [3.03534804, 50.64518872], [3.03532404, 50.64517706], [3.0353099, 50.64515014], [3.03524921, 50.64514119], [3.03524215, 50.64514388], [3.03521817, 50.64515915], [3.03516177, 50.64523993], [3.03512932, 50.64525609], [3.03507287, 50.64526059], [3.03504185, 50.64530278], [3.03501645, 50.64531894], [3.03498824, 50.64533241], [3.03491768, 50.64535038], [3.0348937, 50.64536564], [3.03476958, 50.64548952], [3.03466374, 50.64551198], [3.03462565, 50.64553622], [3.03460732, 50.64555866], [3.03462572, 50.64563494], [3.03460738, 50.6456511], [3.03455094, 50.64566458], [3.03455801, 50.6456915], [3.03454815, 50.64571124], [3.03450864, 50.64573638], [3.03446634, 50.64579203], [3.03448047, 50.64581895], [3.03446356, 50.64585036], [3.03445227, 50.64585755], [3.03440711, 50.64586833], [3.03433935, 50.64584412], [3.03432524, 50.64584412], [3.0343535, 50.64589796], [3.03434367, 50.64597603], [3.03436768, 50.64599218], [3.03450884, 50.64601906], [3.0345272, 50.64603432], [3.03454134, 50.64607469], [3.03456533, 50.64606841], [3.03459355, 50.64606391], [3.03461893, 50.6460298], [3.03464997, 50.64601005], [3.03469654, 50.64599837], [3.0347276, 50.64600554], [3.03475301, 50.6460163], [3.03476997, 50.64604591], [3.0347601, 50.64606566], [3.03473471, 50.64609259], [3.03476722, 50.6461554], [3.03479122, 50.64617155], [3.03493658, 50.64614638], [3.03496764, 50.64615355], [3.03501424, 50.64618674], [3.03503121, 50.6462343], [3.03510884, 50.64624056], [3.03515825, 50.64625221], [3.03517661, 50.64626746], [3.03519074, 50.64629886], [3.03524014, 50.64629436], [3.03527825, 50.64630153], [3.03532767, 50.64633293], [3.03544061, 50.64636879], [3.03554364, 50.6463571], [3.03558881, 50.64636875], [3.03561706, 50.64640464], [3.03564255, 50.64651411], [3.03567785, 50.64653654], [3.03569481, 50.64656794], [3.03567789, 50.64659936], [3.03562429, 50.64664424], [3.03563136, 50.64666219], [3.03562432, 50.64668283], [3.03573019, 50.64670075], [3.03574431, 50.64670523], [3.03582196, 50.64674111], [3.03585445, 50.6467743], [3.03590666, 50.64676352], [3.03597721, 50.64673658], [3.03599131, 50.64671144], [3.03596021, 50.64663966], [3.03604769, 50.64661092], [3.0361154, 50.64655885], [3.0361718, 50.64646909], [3.0361788, 50.64640178], [3.03618163, 50.64639999]]]]}, "geometry_name": "geom", "properties": {"id": "FORESTIE0000000005902095", "code_tfv": "FF1-00", "tfv": "For\u00eat ferm\u00e9e de feuillus purs en \u00eelots", "tfv_g11": "For\u00eat ferm\u00e9e feuillus", "essence": "Feuillus"}}, {"type": "Feature", "id": "formation_vegetale.1103855", "geometry": {"type": "MultiPolygon", "coordinates": [[[[3.03590019, 50.64166352], [3.03591707, 50.64158724], [3.0359029, 50.64151096], [3.0358789, 50.64149302], [3.03586053, 50.64146161], [3.03587885, 50.6414302], [3.03591694, 50.64140596], [3.03598467, 50.64138979], [3.03604392, 50.64135208], [3.03604105, 50.64128208], [3.03602688, 50.64121029], [3.03601275, 50.64118337], [3.03597322, 50.64116813], [3.03595628, 50.64115198], [3.03582911, 50.64094561], [3.03580366, 50.64087203], [3.0357331, 50.64087205], [3.03546923, 50.64092328], [3.03545513, 50.6409502], [3.0354368, 50.64096188], [3.03538035, 50.64097266], [3.03533801, 50.64097088], [3.03527171, 50.64101308], [3.03525057, 50.64104898], [3.03522518, 50.64106065], [3.0351899, 50.64106694], [3.03504169, 50.64103378], [3.03491888, 50.64098177], [3.03490757, 50.64096203], [3.03492589, 50.64092343], [3.03499641, 50.64086059], [3.03499923, 50.64085162], [3.03497803, 50.64080675], [3.03498928, 50.6407529], [3.03500337, 50.640717], [3.0350527, 50.64063622], [3.0350668, 50.64061827], [3.03509784, 50.64059403], [3.03511194, 50.64058954], [3.03516839, 50.64058055], [3.03522195, 50.6404881], [3.03529245, 50.64040283], [3.03528817, 50.64032655], [3.03529944, 50.64030411], [3.03532342, 50.64028436], [3.03537703, 50.64025921], [3.03538407, 50.64024126], [3.03540804, 50.64020536], [3.03539814, 50.64017844], [3.03539387, 50.64012729], [3.03535153, 50.64011833], [3.03525269, 50.64004387], [3.03516805, 50.64010043], [3.03511867, 50.64011121], [3.03491401, 50.64007358], [3.03482932, 50.64004399], [3.03479404, 50.64005567], [3.0346741, 50.64007365], [3.03467835, 50.64009788], [3.03468824, 50.64012031], [3.03467133, 50.64015172], [3.03464594, 50.6401634], [3.03456127, 50.64017688], [3.03438205, 50.64017873], [3.03436795, 50.64020565], [3.03436797, 50.64023258], [3.03441314, 50.64025051], [3.03450488, 50.64025766], [3.03452323, 50.64027292], [3.03455433, 50.64033842], [3.03453742, 50.64037163], [3.03449509, 50.64039408], [3.03450502, 50.64046407], [3.03448811, 50.64049728], [3.03441758, 50.64054666], [3.03439414, 50.64055743], [3.03442649, 50.64075101], [3.0344276, 50.64075127], [3.03445301, 50.64076203], [3.03446714, 50.64078895], [3.03446996, 50.64079164], [3.03441354, 50.64083652], [3.03437831, 50.64091012], [3.03441079, 50.64094152], [3.03447715, 50.64098458], [3.03451949, 50.64098906], [3.03456184, 50.64099802], [3.03460137, 50.64102673], [3.03461833, 50.64105634], [3.03460846, 50.64107608], [3.03459013, 50.64109224], [3.03447724, 50.64111471], [3.03446737, 50.64112099], [3.03447021, 50.64114791], [3.03446035, 50.64117484], [3.0344251, 50.64121972], [3.03437855, 50.64125832], [3.03436444, 50.64126281], [3.03428401, 50.64127809], [3.03424449, 50.64127182], [3.03423037, 50.64126734], [3.03420212, 50.64123145], [3.03420633, 50.64119286], [3.03408921, 50.64121532], [3.034084, 50.64121367], [3.03406382, 50.64123507], [3.03402855, 50.64125393], [3.03400265, 50.64124882], [3.0339453, 50.64126472], [3.03382815, 50.64124501], [3.0334682, 50.64113921], [3.03337651, 50.64119577], [3.03330596, 50.64121374], [3.03331022, 50.64125592], [3.0333695, 50.64127385], [3.03344713, 50.64128101], [3.03347961, 50.64131869], [3.03350361, 50.64133484], [3.03356007, 50.6413438], [3.03364477, 50.64137967], [3.03366313, 50.64139492], [3.03367726, 50.64142633], [3.03375772, 50.64145144], [3.0337902, 50.64148014], [3.03384242, 50.64147833], [3.03388192, 50.64146217], [3.03391718, 50.64142626], [3.03394116, 50.64141549], [3.0340329, 50.64142623], [3.03411052, 50.64141544], [3.03420928, 50.64137952], [3.03427981, 50.64133463], [3.03432638, 50.64132744], [3.03437155, 50.6413346], [3.03440402, 50.64135434], [3.03443511, 50.64141715], [3.03442525, 50.64144856], [3.0344182, 50.64145754], [3.03439281, 50.64146921], [3.03436459, 50.6414737], [3.03436179, 50.64151588], [3.03433642, 50.64156076], [3.03435479, 50.64159665], [3.03436468, 50.64160383], [3.03440701, 50.64160382], [3.0344564, 50.64159214], [3.03449912, 50.64160221], [3.0345058, 50.64160379], [3.03453828, 50.6416325], [3.03463283, 50.64161901], [3.03467517, 50.64162618], [3.03470341, 50.64163963], [3.0347881, 50.64165756], [3.03480645, 50.64166832], [3.03484459, 50.64171139], [3.03492221, 50.64171585], [3.03497161, 50.6417293], [3.03510566, 50.64169785], [3.03516917, 50.64170232], [3.03517328, 50.6417053], [3.03524341, 50.64167425], [3.03523265, 50.64165743], [3.03524393, 50.64163679], [3.03524751, 50.64163356], [3.03526085, 50.64162153], [3.03530741, 50.64160985], [3.03543727, 50.64163942], [3.03550078, 50.64164389], [3.0355149, 50.64164838], [3.0355502, 50.64167529], [3.03563488, 50.64167975], [3.03569134, 50.64168871], [3.03580147, 50.64175778], [3.03582266, 50.6417847], [3.03593835, 50.641738], [3.03601314, 50.6417308], [3.03598772, 50.64170657], [3.03590019, 50.64166352]]]]}, "geometry_name": "geom", "properties": {"id": "FORESTIE0000000005902599", "code_tfv": "FF1-00", "tfv": "For\u00eat ferm\u00e9e de feuillus purs en \u00eelots", "tfv_g11": "For\u00eat ferm\u00e9e feuillus", "essence": "Feuillus"}}, {"type": "Feature", "id": "formation_vegetale.1103856", "geometry": {"type": "MultiPolygon", "coordinates": [[[[3.03828972, 50.645155], [3.03816784, 50.64513145], [3.0378501, 50.64517941], [3.03768297, 50.64533898], [3.03771649, 50.64543999], [3.03781442, 50.6454493], [3.03782521, 50.64545273], [3.03786475, 50.64547246], [3.03788595, 50.64551732], [3.03789584, 50.6455245], [3.03791418, 50.6455218], [3.03795935, 50.64553346], [3.0380229, 50.64557831], [3.03818245, 50.64566082], [3.03820653, 50.64577748], [3.03824892, 50.64583849], [3.03827716, 50.64584745], [3.03830539, 50.64584924], [3.03833361, 50.64584743], [3.03839711, 50.64583126], [3.0384324, 50.64583843], [3.03845782, 50.64584919], [3.03847195, 50.64586713], [3.03847902, 50.64588508], [3.03864415, 50.64588323], [3.03865543, 50.64587605], [3.03867235, 50.64584284], [3.03864128, 50.6458267], [3.03862291, 50.6457935], [3.03863418, 50.64576837], [3.03865111, 50.64575311], [3.03869344, 50.64574412], [3.03869767, 50.64574143], [3.0387005, 50.64574412], [3.03878237, 50.64575935], [3.03879929, 50.64574409], [3.03885574, 50.64573061], [3.03886703, 50.64572343], [3.03890932, 50.64566059], [3.03896857, 50.64562288], [3.03902501, 50.64560492], [3.0390744, 50.64559772], [3.0391591, 50.64561564], [3.03918026, 50.64560487], [3.0392226, 50.64559588], [3.03924796, 50.64553934], [3.0392731, 50.64551089], [3.03926581, 50.64550867], [3.03936394, 50.64545012], [3.03936393, 50.64544308], [3.03937772, 50.6454343], [3.03942429, 50.64542262], [3.03946946, 50.64543427], [3.03950902, 50.64548092], [3.03954714, 50.64549706], [3.03967417, 50.64549882], [3.03971368, 50.64548983], [3.03971364, 50.64544496], [3.03970235, 50.64543868], [3.03963882, 50.64542524], [3.03944116, 50.64534005], [3.03929289, 50.64524138], [3.03922654, 50.64522076], [3.03921241, 50.64520282], [3.03920534, 50.64518487], [3.03914464, 50.64517412], [3.03911358, 50.64515349], [3.03909944, 50.64513106], [3.0390952, 50.64511311], [3.03905286, 50.64511582], [3.03904298, 50.64512211], [3.03905292, 50.64519659], [3.03903601, 50.64522531], [3.03901061, 50.64523698], [3.03896827, 50.64524328], [3.03838953, 50.64514295], [3.03829497, 50.64514029], [3.03828972, 50.645155]]]]}, "geometry_name": "geom", "properties": {"id": "FORESTIE0000000005902600", "code_tfv": "FF1-00", "tfv": "For\u00eat ferm\u00e9e de feuillus purs en \u00eelots", "tfv_g11": "For\u00eat ferm\u00e9e feuillus", "essence": "Feuillus"}}, {"type": "Feature", "id": "formation_vegetale.1107592", "geometry": {"type": "MultiPolygon", "coordinates": [[[[3.05066838, 50.64499047], [3.05074598, 50.64496531], [3.05078127, 50.64497248], [3.05086957, 50.64497244], [3.05091322, 50.64493625], [3.05091954, 50.64492935], [3.05094067, 50.64487998], [3.05099287, 50.6448647], [3.05102102, 50.64484678], [3.05103217, 50.64483752], [3.05102808, 50.64479469], [3.05103935, 50.64476776], [3.05104639, 50.64475879], [3.05110281, 50.64472287], [3.05109855, 50.64469415], [3.05111687, 50.64466453], [3.05112674, 50.64465824], [3.0511733, 50.64464656], [3.05123259, 50.64465999], [3.05124671, 50.64465819], [3.05125009, 50.64465652], [3.05156902, 50.64439161], [3.05159642, 50.6443637], [3.05162302, 50.64434676], [3.05167461, 50.64430391], [3.05167464, 50.64430389], [3.05167565, 50.64430306], [3.05169514, 50.64428744], [3.05169513, 50.64428289], [3.05165557, 50.64423624], [3.05166683, 50.64421111], [3.05167388, 50.64420213], [3.05173314, 50.64418416], [3.05181592, 50.6441906], [3.05182227, 50.6441855], [3.05179659, 50.64412849], [3.05181491, 50.64409887], [3.05183889, 50.64408809], [3.05187417, 50.6440809], [3.05193064, 50.64409433], [3.05193769, 50.64409254], [3.05195084, 50.64408242], [3.05200676, 50.64403759], [3.05203636, 50.64397583], [3.05208823, 50.64397229], [3.05219272, 50.64388861], [3.05267872, 50.64348604], [3.05267801, 50.64347929], [3.05268926, 50.64344788], [3.05273861, 50.64340299], [3.05278374, 50.64337156], [3.05276254, 50.64333567], [3.0527738, 50.64331323], [3.05282315, 50.64326834], [3.05289368, 50.64323241], [3.05288943, 50.64321446], [3.05292181, 50.64314266], [3.05292886, 50.64313368], [3.05296412, 50.64311572], [3.05296409, 50.64307982], [3.05293582, 50.64304394], [3.052861, 50.64302422], [3.05278757, 50.64298567], [3.05276919, 50.64295696], [3.05278751, 50.64292733], [3.05291731, 50.64288959], [3.0529921, 50.64287789], [3.05310789, 50.64293438], [3.05315023, 50.64293436], [3.05316246, 50.64293046], [3.0531824, 50.64287607], [3.05318317, 50.64287411], [3.05318504, 50.64287018], [3.05318589, 50.64286865], [3.05320254, 50.64283986], [3.05321085, 50.64280953], [3.053211, 50.64280898], [3.05322085, 50.64277488], [3.05322111, 50.642774], [3.05322199, 50.64277146], [3.05323216, 50.64274469], [3.05324256, 50.64269904], [3.05324915, 50.64266362], [3.05328531, 50.64233954], [3.0532878, 50.64231469], [3.05327657, 50.64229714], [3.05329207, 50.64227206], [3.0533174, 50.64201942], [3.05331741, 50.64201937], [3.05331741, 50.6420193], [3.05337602, 50.64142826], [3.05340248, 50.64111891], [3.05340249, 50.64111881], [3.05344432, 50.64064406], [3.05344434, 50.64064389], [3.05344698, 50.64061532], [3.05344413, 50.64061441], [3.05343425, 50.64060724], [3.05341587, 50.64057853], [3.0534201, 50.64057583], [3.05344826, 50.64051749], [3.0534565, 50.64051224], [3.05346806, 50.64038722], [3.05346807, 50.64038714], [3.05347221, 50.6403432], [3.05342267, 50.64033622], [3.05339867, 50.64032457], [3.0533916, 50.64031559], [3.0533732, 50.64026894], [3.05339427, 50.64017649], [3.05345486, 50.64008224], [3.05345479, 50.64001942], [3.05342651, 50.63996559], [3.05339824, 50.63992073], [3.0533587, 50.63989651], [3.05331635, 50.63989205], [3.0531752, 50.63986698], [3.05313287, 50.639867], [3.05306655, 50.639876], [3.05305247, 50.63990293], [3.05302002, 50.63991909], [3.05297769, 50.63992539], [3.05288313, 50.63991197], [3.0528789, 50.63991467], [3.05286903, 50.63992993], [3.05285113, 50.64034724], [3.05282304, 50.64047737], [3.05282729, 50.64049532], [3.05285132, 50.64053121], [3.05282737, 50.64056711], [3.05278093, 50.64069277], [3.05280216, 50.64075109], [3.0528023, 50.64089019], [3.0527714, 50.64102482], [3.05276731, 50.64116661], [3.05279554, 50.64117109], [3.05283507, 50.64118633], [3.05284214, 50.6411953], [3.05285205, 50.6412267], [3.05283519, 50.64129402], [3.0528211, 50.64132095], [3.05280982, 50.64132813], [3.05274351, 50.6413479], [3.05273652, 50.64141072], [3.0527013, 50.64146458], [3.05270135, 50.64151843], [3.05273245, 50.64156777], [3.05272964, 50.64158124], [3.05269726, 50.64165753], [3.05271142, 50.64169791], [3.05266939, 50.64198959], [3.05268072, 50.64202996], [3.05268361, 50.64209099], [3.05271184, 50.64209546], [3.05274007, 50.64210443], [3.05275137, 50.6421107], [3.05276834, 50.64214031], [3.05275848, 50.64216006], [3.05274015, 50.64217622], [3.05269076, 50.64218701], [3.05266959, 50.64218522], [3.05266679, 50.64220048], [3.05264568, 50.64226331], [3.05266272, 50.64235753], [3.05263886, 50.64248766], [3.0525755, 50.64263128], [3.05254319, 50.64277039], [3.05260396, 50.64285113], [3.05260401, 50.642896], [3.05255468, 50.64296333], [3.05251943, 50.64299475], [3.05245594, 50.64301273], [3.05240231, 50.64301096], [3.05235016, 50.64307559], [3.05194825, 50.64338537], [3.05186644, 50.64343297], [3.05185233, 50.64343746], [3.05182129, 50.64344376], [3.05177471, 50.64343301], [3.05176478, 50.64342355], [3.05175775, 50.64341686], [3.05174644, 50.64339263], [3.05176475, 50.64335852], [3.05177179, 50.64334057], [3.05179293, 50.64331364], [3.05186628, 50.64327323], [3.05175047, 50.64320148], [3.05174341, 50.64319251], [3.0517321, 50.64317277], [3.05174074, 50.6431577], [3.05149312, 50.6433752], [3.05150368, 50.64338107], [3.05152064, 50.64341068], [3.05150374, 50.6434394], [3.0514713, 50.64346634], [3.05148968, 50.64349325], [3.05152075, 50.64351119], [3.05156729, 50.64348424], [3.05162652, 50.64343755], [3.05164063, 50.64343306], [3.0517013, 50.64342137], [3.05173236, 50.64342854], [3.05174971, 50.64343588], [3.05175778, 50.64343929], [3.05176484, 50.64344827], [3.05177475, 50.64347518], [3.05171555, 50.643547], [3.05169443, 50.64359637], [3.05165493, 50.64361254], [3.05157454, 50.6436727], [3.05154638, 50.64373553], [3.05150409, 50.64378042], [3.05142932, 50.64381904], [3.0513489, 50.6438433], [3.05132776, 50.64387023], [3.0510908, 50.64401661], [3.05108094, 50.64403187], [3.05104576, 50.6441306], [3.05101331, 50.64414676], [3.05094981, 50.64416025], [3.05090471, 50.64421591], [3.050837, 50.64425453], [3.05080878, 50.64426351], [3.05075234, 50.644277], [3.05062967, 50.64439102], [3.05057331, 50.64448078], [3.05051691, 50.64453465], [3.05044637, 50.64457057], [3.0504323, 50.64460648], [3.05039003, 50.64467829], [3.05034348, 50.64470792], [3.05030115, 50.64471691], [3.05033364, 50.64474113], [3.05034777, 50.64475907], [3.05040704, 50.64475007], [3.05046774, 50.644768], [3.05048896, 50.64481286], [3.05050309, 50.6448308], [3.05055533, 50.64484693], [3.05057369, 50.64486218], [3.0505836, 50.64488731], [3.05057376, 50.64492949], [3.05060202, 50.64496537], [3.05064015, 50.64499049], [3.05066838, 50.64499047]]]]}, "geometry_name": "geom", "properties": {"id": "FORESTIE0000000005906336", "code_tfv": "FF1-49-49", "tfv": "For\u00eat ferm\u00e9e d\u0092un autre feuillu pur", "tfv_g11": "For\u00eat ferm\u00e9e feuillus", "essence": "Feuillus"}}, {"type": "Feature", "id": "formation_vegetale.1110024", "geometry": {"type": "MultiPolygon", "coordinates": [[[[3.04693094, 50.6478816], [3.0471285, 50.64783666], [3.04715388, 50.64781152], [3.04720316, 50.64767689], [3.0472596, 50.64765892], [3.0472865, 50.64766513], [3.04728499, 50.64764814], [3.04728362, 50.64763914], [3.04728357, 50.64763917], [3.04723842, 50.64764995], [3.04719183, 50.6476392], [3.04717488, 50.64762306], [3.04716073, 50.64758717], [3.04714227, 50.64746602], [3.04714646, 50.64742564], [3.04716755, 50.6473314], [3.04719575, 50.64729998], [3.04720562, 50.6472937], [3.04721973, 50.6472892], [3.04726207, 50.64728201], [3.04727593, 50.64728582], [3.04728854, 50.64728929], [3.04757327, 50.6471839], [3.04757951, 50.64714728], [3.04757662, 50.647071], [3.0476147, 50.64704227], [3.04766229, 50.64702928], [3.04766293, 50.64702768], [3.04764713, 50.64701264], [3.04762873, 50.64694983], [3.04764699, 50.64686008], [3.04767801, 50.64682417], [3.04766104, 50.64678828], [3.0476568, 50.6467838], [3.04767512, 50.64675238], [3.04773151, 50.64668954], [3.0477343, 50.64664915], [3.0477272, 50.64660249], [3.04767779, 50.64659802], [3.04764673, 50.64658188], [3.04763405, 50.64656022], [3.04762835, 50.64655048], [3.04763962, 50.64652804], [3.04765654, 50.64651278], [3.04768983, 50.64650442], [3.04772098, 50.64647158], [3.04771014, 50.64647417], [3.04766355, 50.64646342], [3.04765366, 50.64645624], [3.0476466, 50.64644727], [3.04763245, 50.64641138], [3.04760704, 50.64640959], [3.04756892, 50.64639346], [3.04756185, 50.64638448], [3.04752931, 50.64630193], [3.04754058, 50.64627232], [3.0475575, 50.64625705], [3.04764641, 50.64624984], [3.047725, 50.6462235], [3.0478074, 50.64597578], [3.04771952, 50.64595187], [3.04768841, 50.64589086], [3.04766298, 50.64586664], [3.04761359, 50.64586845], [3.04755429, 50.64585053], [3.04753307, 50.64580118], [3.04749071, 50.64577427], [3.04747939, 50.64575184], [3.0474805, 50.64574874], [3.04707718, 50.64582657], [3.04706736, 50.64585071], [3.04704902, 50.64586687], [3.04703491, 50.64587137], [3.04691495, 50.6458759], [3.04683028, 50.64589388], [3.04679221, 50.64593607], [3.04677108, 50.64598095], [3.04674569, 50.64599263], [3.04671041, 50.64599892], [3.04660454, 50.64597922], [3.04656218, 50.64596577], [3.04640693, 50.64596583], [3.04633637, 50.64597483], [3.04622778, 50.64607089], [3.0461855, 50.6461427], [3.04616011, 50.64615438], [3.04612906, 50.64616067], [3.04608247, 50.64614992], [3.04606552, 50.64613377], [3.0460372, 50.64603507], [3.04600471, 50.6459947], [3.04603712, 50.64594533], [3.0460512, 50.64590045], [3.04603278, 50.64582867], [3.04605108, 50.64577481], [3.046068, 50.64575955], [3.04613571, 50.64572094], [3.0461498, 50.64569401], [3.04615261, 50.64568055], [3.04613847, 50.64565184], [3.04607491, 50.64559981], [3.04609323, 50.64556839], [3.04615248, 50.64553517], [3.04620187, 50.64552348], [3.04631903, 50.64554139], [3.04632607, 50.64552344], [3.04635004, 50.6454992], [3.04637826, 50.64549021], [3.04643471, 50.64548301], [3.04643511, 50.64548312], [3.04656211, 50.64528729], [3.04655873, 50.64528554], [3.04651918, 50.64524786], [3.04644859, 50.64522994], [3.04632154, 50.64520755], [3.04629046, 50.64517346], [3.0462128, 50.64513311], [3.04620149, 50.64511337], [3.04620566, 50.64504785], [3.04616612, 50.64502364], [3.04601507, 50.64498062], [3.046008, 50.64497165], [3.04599669, 50.64494922], [3.04606437, 50.6448774], [3.04606717, 50.64485047], [3.04606432, 50.64482355], [3.04605017, 50.64477869], [3.04600778, 50.64472486], [3.04597952, 50.64469795], [3.04595411, 50.6446827], [3.04582001, 50.64467108], [3.04575651, 50.6446738], [3.04568596, 50.64469806], [3.04553068, 50.6446694], [3.04546433, 50.64464429], [3.04545023, 50.64466225], [3.04539662, 50.64469188], [3.04535147, 50.64469818], [3.04529077, 50.64468743], [3.04527382, 50.64467128], [3.0452625, 50.64463808], [3.0453189, 50.64457973], [3.04531605, 50.6445546], [3.04529768, 50.6445232], [3.04530187, 50.64448282], [3.04526657, 50.64446488], [3.0452482, 50.64443348], [3.04531584, 50.64432128], [3.04534396, 50.6442046], [3.04541446, 50.64412381], [3.04547083, 50.64403405], [3.04558649, 50.64396042], [3.04586863, 50.64381673], [3.04595329, 50.64379606], [3.04600975, 50.64379873], [3.04601398, 50.64379603], [3.04604924, 50.64377359], [3.04605624, 50.64371076], [3.0460844, 50.64363447], [3.04613661, 50.6436192], [3.04619021, 50.64359405], [3.04619301, 50.64356713], [3.04619016, 50.64354021], [3.04608713, 50.64353576], [3.04603773, 50.64352501], [3.04600662, 50.64345951], [3.04591057, 50.64337249], [3.04590351, 50.6433698], [3.04581885, 50.64339676], [3.04578356, 50.64339049], [3.04575956, 50.64337883], [3.04574542, 50.64335191], [3.04574119, 50.64335012], [3.04575951, 50.6433205], [3.04580181, 50.6432801], [3.04583284, 50.64326483], [3.04591046, 50.64326032], [3.04592175, 50.64325313], [3.04593866, 50.6432289], [3.04591043, 50.64321993], [3.04583982, 50.64317509], [3.04576219, 50.64316614], [3.04573112, 50.64315], [3.04571699, 50.64312308], [3.04571275, 50.64312129], [3.04572402, 50.64310065], [3.04574095, 50.64308538], [3.04582985, 50.64307368], [3.04590324, 50.64308084], [3.04603736, 50.64312566], [3.04629146, 50.64318838], [3.04644672, 50.64320627], [3.04664434, 50.64324658], [3.04667682, 50.64326631], [3.04668675, 50.64332285], [3.0467432, 50.64332282], [3.04682503, 50.64328869], [3.0469549, 50.64332274], [3.0470537, 50.64332719], [3.04706782, 50.64333168], [3.04708618, 50.64334693], [3.04709325, 50.64336487], [3.04709613, 50.64342141], [3.04710037, 50.6434232], [3.04718082, 50.64343214], [3.04726549, 50.64342134], [3.04727677, 50.64341416], [3.04727672, 50.64336031], [3.04725834, 50.64332442], [3.0472724, 50.64326429], [3.04729071, 50.64323018], [3.04730764, 50.64321941], [3.04737819, 50.64320143], [3.04753343, 50.64319689], [3.04756165, 50.6431879], [3.04754466, 50.64313586], [3.04751924, 50.64312061], [3.04744865, 50.64309372], [3.04733574, 50.64308479], [3.04730041, 50.64304172], [3.04730462, 50.64301031], [3.04725098, 50.64300405], [3.04713521, 50.64296102], [3.04711667, 50.64275462], [3.04713778, 50.64269179], [3.04713493, 50.64266038], [3.04710949, 50.64261822], [3.0471278, 50.64258411], [3.04717293, 50.64255089], [3.04740577, 50.64252387], [3.04758638, 50.64248073], [3.04761454, 50.64240893], [3.04762159, 50.64239995], [3.04763146, 50.64239366], [3.04769918, 50.642373], [3.04772738, 50.64234606], [3.04774428, 50.64230567], [3.04771604, 50.64228594], [3.04767792, 50.6422698], [3.04767085, 50.64226083], [3.04765245, 50.64220699], [3.04769896, 50.64213967], [3.04771589, 50.64212889], [3.04776527, 50.64211721], [3.04781468, 50.64212885], [3.04784717, 50.64216653], [3.04788248, 50.64218896], [3.04792487, 50.64224727], [3.04798429, 50.64239801], [3.04804074, 50.64239799], [3.04815362, 50.64237103], [3.0481649, 50.64236384], [3.04819308, 50.64230999], [3.04821, 50.64229921], [3.04827067, 50.64228303], [3.04831585, 50.64229468], [3.04835116, 50.64232608], [3.04842595, 50.64231887], [3.04847112, 50.64233052], [3.04848949, 50.64234577], [3.04849939, 50.6423682], [3.04848953, 50.64239064], [3.0484712, 50.6424068], [3.04832305, 50.64245173], [3.0482144, 50.64247151], [3.04819328, 50.64251639], [3.04816473, 50.64252808], [3.04822144, 50.64273183], [3.04822171, 50.64273176], [3.04825277, 50.64273893], [3.04827818, 50.64274969], [3.04828524, 50.64275866], [3.04829939, 50.64279455], [3.04843629, 50.64279719], [3.04847864, 50.64280615], [3.04851116, 50.64286626], [3.04854931, 50.64291112], [3.04852535, 50.64294702], [3.04852115, 50.64298113], [3.04852538, 50.64298292], [3.04859171, 50.6429811], [3.04865941, 50.64292902], [3.0487045, 50.6428599], [3.04945238, 50.64273397], [3.04967534, 50.64271324], [3.04969931, 50.642689], [3.04974587, 50.64267731], [3.04980516, 50.64268626], [3.04983338, 50.64268446], [3.04991804, 50.64266199], [3.0503696, 50.64260347], [3.05048246, 50.64256305], [3.05066589, 50.64252259], [3.0506348, 50.64247952], [3.05060938, 50.64246428], [3.05058539, 50.6424616], [3.05047534, 50.64249754], [3.05036948, 50.64248232], [3.05034124, 50.64247336], [3.05033136, 50.64246619], [3.05031298, 50.64243748], [3.05031721, 50.64243478], [3.0503313, 50.64240785], [3.05036939, 50.64239258], [3.05042583, 50.6423791], [3.05043711, 50.64237191], [3.05043709, 50.64235397], [3.05042579, 50.64234769], [3.0502917, 50.64232979], [3.05027475, 50.64231814], [3.05025637, 50.64228494], [3.05021403, 50.64227598], [3.0501194, 50.64221051], [3.05009819, 50.64216565], [3.05008689, 50.64215937], [3.05000222, 50.6421594], [3.04996694, 50.6421657], [3.04990342, 50.64215496], [3.0498653, 50.64213882], [3.04984692, 50.64210742], [3.04985817, 50.64206703], [3.04982569, 50.64204909], [3.04975229, 50.64203566], [3.04973392, 50.64200695], [3.049748, 50.64197105], [3.04971977, 50.64196657], [3.04968164, 50.64195043], [3.04961806, 50.64186969], [3.04956861, 50.64181587], [3.0495474, 50.64177998], [3.04953324, 50.64172614], [3.04942733, 50.64166336], [3.04927901, 50.64152881], [3.04926488, 50.64151087], [3.04925357, 50.64148843], [3.04925372, 50.64148819], [3.04899969, 50.64140577], [3.04899946, 50.64140597], [3.04892891, 50.64142395], [3.04889082, 50.64143025], [3.04885129, 50.64142398], [3.04882729, 50.64141232], [3.04879902, 50.64136746], [3.0486747, 50.64123559], [3.04864647, 50.64122663], [3.04862952, 50.64121497], [3.0485942, 50.64117011], [3.04858993, 50.6411414], [3.04855464, 50.64113244], [3.04853769, 50.64111629], [3.04852638, 50.64109386], [3.0485447, 50.64106244], [3.04856868, 50.64105166], [3.04860395, 50.64104447], [3.04861179, 50.64104663], [3.04882123, 50.64087499], [3.04881971, 50.64087388], [3.04880839, 50.64084696], [3.04881955, 50.64071234], [3.04881989, 50.64071206], [3.04868154, 50.64055527], [3.0486811, 50.64055535], [3.04864581, 50.64054908], [3.04862181, 50.64053742], [3.04860767, 50.64051499], [3.04858929, 50.64047282], [3.04860055, 50.64044769], [3.0486076, 50.64043871], [3.0486598, 50.64042343], [3.04868801, 50.64040996], [3.04867388, 50.64038304], [3.04868514, 50.64035791], [3.04871334, 50.64033547], [3.04875842, 50.64024571], [3.04872028, 50.64020982], [3.04868493, 50.64013805], [3.04820782, 50.64002875], [3.04815135, 50.64000633], [3.04809913, 50.64000366], [3.04805965, 50.64003778], [3.0480145, 50.64004856], [3.04801027, 50.64004677], [3.04795381, 50.64003782], [3.04788719, 50.6400209], [3.04788323, 50.6400199], [3.04785923, 50.64000824], [3.04785216, 50.63999927], [3.04783801, 50.63995889], [3.04769969, 50.63993471], [3.04764321, 50.63990781], [3.047488, 50.63992582], [3.04747812, 50.63993211], [3.04745983, 50.63999045], [3.04746408, 50.64000391], [3.04747396, 50.64001108], [3.04752761, 50.64002632], [3.04754882, 50.64007567], [3.0476152, 50.64012769], [3.04773232, 50.64011598], [3.04777749, 50.64012763], [3.04779585, 50.64014288], [3.04779969, 50.64015181], [3.04781707, 50.64019223], [3.04784107, 50.64020837], [3.04790884, 50.64023706], [3.04794415, 50.64026397], [3.04796818, 50.64030704], [3.04801758, 50.64031151], [3.04805992, 50.64032046], [3.04807122, 50.64032674], [3.04808818, 50.64035635], [3.04807128, 50.64038507], [3.04805294, 50.64039675], [3.04801768, 50.64041471], [3.04796829, 50.6404255], [3.04791889, 50.64041475], [3.04784829, 50.6403717], [3.04777069, 50.64039686], [3.04758726, 50.64042834], [3.04755905, 50.6404463], [3.04750685, 50.64046157], [3.04748854, 50.64049748], [3.04749278, 50.64050645], [3.04752102, 50.64052439], [3.04753515, 50.64054233], [3.04758737, 50.64054949], [3.04761279, 50.64056025], [3.04781056, 50.64077106], [3.04783178, 50.64082041], [3.0479165, 50.64086525], [3.04795465, 50.64091729], [3.04799701, 50.64093522], [3.04801818, 50.64093701], [3.04803934, 50.6409352], [3.04810706, 50.64091454], [3.04814517, 50.6409217], [3.04817059, 50.64093246], [3.04818473, 50.64095938], [3.04818755, 50.64096207], [3.04817064, 50.64099079], [3.04810999, 50.64102043], [3.04810721, 50.64106261], [3.04809594, 50.64108954], [3.0481242, 50.64112363], [3.04819198, 50.64117027], [3.04818077, 50.64124655], [3.04819914, 50.64127796], [3.04825565, 50.64133178], [3.04827967, 50.64136587], [3.04835025, 50.6413793], [3.04836861, 50.64139455], [3.04836448, 50.64150673], [3.04837862, 50.64152737], [3.04844213, 50.64153632], [3.04850567, 50.64156321], [3.04854521, 50.64158743], [3.04856217, 50.64161883], [3.04853821, 50.64165474], [3.04853399, 50.6416682], [3.04854819, 50.64175794], [3.0485694, 50.64179383], [3.04855954, 50.64181626], [3.0485243, 50.64186115], [3.04853423, 50.64190871], [3.04852437, 50.64192846], [3.04848208, 50.6419868], [3.04842144, 50.6420299], [3.04829868, 50.64205867], [3.04822815, 50.64209459], [3.04818157, 50.64208384], [3.04815331, 50.64204796], [3.04815343, 50.64204776], [3.04815225, 50.64204461], [3.04815096, 50.64204033], [3.04814612, 50.64202991], [3.04813973, 50.64201984], [3.04813183, 50.64201021], [3.04812251, 50.64200111], [3.04811185, 50.64199263], [3.04809994, 50.64198484], [3.04808691, 50.64197782], [3.04807287, 50.64197163], [3.04807106, 50.64197099], [3.04805796, 50.64196634], [3.04804231, 50.64196198], [3.04802607, 50.64195862], [3.04800939, 50.64195626], [3.04799244, 50.64195494], [3.04797536, 50.64195467], [3.04795833, 50.64195546], [3.04794149, 50.64195728], [3.04792501, 50.64196013], [3.04790343, 50.64196459], [3.04786391, 50.64195833], [3.04783991, 50.64194667], [3.04782153, 50.64191796], [3.04783277, 50.64185693], [3.04784969, 50.64184167], [3.04791318, 50.6418237], [3.0479174, 50.64180754], [3.04792726, 50.64179228], [3.04785376, 50.64167295], [3.04758532, 50.64135896], [3.04751471, 50.64131412], [3.04750058, 50.64129617], [3.04746107, 50.64129888], [3.04736657, 50.64135904], [3.04736235, 50.64136802], [3.04738073, 50.64140391], [3.04740475, 50.6414398], [3.04738785, 50.64147121], [3.04736669, 50.64148468], [3.04736249, 50.64152058], [3.04736676, 50.64155647], [3.04739076, 50.64156813], [3.04741618, 50.64158787], [3.04743315, 50.64162376], [3.04742329, 50.64164619], [3.04740496, 50.64166236], [3.04737674, 50.64167134], [3.04733441, 50.64167764], [3.04729207, 50.64167586], [3.04725402, 50.64172703], [3.04722158, 50.64174768], [3.04720747, 50.64175217], [3.04716513, 50.64175847], [3.04700988, 50.64174327], [3.04695341, 50.64172983], [3.04687291, 50.64165987], [3.04683757, 50.64160155], [3.04676981, 50.64157734], [3.04672461, 50.64153877], [3.0466822, 50.64145802], [3.0466709, 50.64145174], [3.04662855, 50.64144278], [3.04650153, 50.64143386], [3.04647333, 50.64146258], [3.04646349, 50.64150297], [3.04643105, 50.64152362], [3.04634357, 50.6415434], [3.0463111, 50.64153713], [3.0462871, 50.64152547], [3.04626873, 50.64149676], [3.04627293, 50.64145817], [3.04619107, 50.64146089], [3.04615297, 50.64146719], [3.04613888, 50.64148514], [3.0461389, 50.64150309], [3.04621937, 50.64153268], [3.04623773, 50.64154793], [3.04624762, 50.64156856], [3.04623071, 50.64159729], [3.04614888, 50.64162244], [3.04589495, 50.64173023], [3.04586393, 50.64176344], [3.0458456, 50.64177512], [3.04578211, 50.64179309], [3.04571155, 50.64180209], [3.04568757, 50.64181735], [3.04568334, 50.64182184], [3.0457017, 50.6418353], [3.04571867, 50.6418667], [3.04570881, 50.64188914], [3.04569047, 50.6419053], [3.04564814, 50.64191429], [3.04564532, 50.64191609], [3.04558179, 50.64188919], [3.04554651, 50.6418892], [3.04553242, 50.64192061], [3.04551409, 50.64193677], [3.04543648, 50.64194309], [3.04537016, 50.64196106], [3.0453377, 50.64195479], [3.04528123, 50.64193417], [3.04518954, 50.64198176], [3.04516132, 50.64199075], [3.04513735, 50.64201499], [3.04500618, 50.64210747], [3.0449568, 50.64211826], [3.04487916, 50.64210751], [3.04465345, 50.64221529], [3.04462825, 50.64223311], [3.04463893, 50.64239011], [3.0446395, 50.64239029], [3.044672, 50.64243694], [3.0447073, 50.64246385], [3.04479213, 50.64263433], [3.04481337, 50.64270611], [3.04484161, 50.64272405], [3.04485574, 50.642742], [3.04488678, 50.6427375], [3.04493619, 50.64274915], [3.04495455, 50.6427644], [3.04496445, 50.64279131], [3.0449546, 50.64281824], [3.04492921, 50.64283889], [3.04486995, 50.64284968], [3.04480926, 50.64284342], [3.04478105, 50.64286138], [3.0447105, 50.64287935], [3.04465831, 50.64291258], [3.04463998, 50.64293502], [3.04471059, 50.64298256], [3.04474587, 50.64298434], [3.04478115, 50.64298253], [3.04488413, 50.64292596], [3.0449293, 50.64293761], [3.04494766, 50.64295286], [3.04494776, 50.64295377], [3.04515503, 50.64304275], [3.04515762, 50.64304248], [3.04517431, 50.64303969], [3.04519048, 50.64303587], [3.045206, 50.64303107], [3.0452207, 50.64302532], [3.04523445, 50.64301869], [3.04524711, 50.64301124], [3.04525857, 50.64300304], [3.04532448, 50.64295092], [3.04537387, 50.64293924], [3.04541622, 50.64295089], [3.04542752, 50.64295717], [3.04548687, 50.64304509], [3.04547701, 50.64306484], [3.04545868, 50.643081], [3.04541635, 50.64308999], [3.04535989, 50.6430918], [3.04527521, 50.64308555], [3.04527406, 50.64308519], [3.04503522, 50.64318397], [3.04503537, 50.64318436], [3.04501142, 50.64322654], [3.04489435, 50.64331184], [3.04494377, 50.64333246], [3.04496213, 50.64334771], [3.04497203, 50.64336835], [3.04495512, 50.64339707], [3.04492268, 50.64341773], [3.04480981, 50.64346264], [3.04477172, 50.64348688], [3.0447506, 50.64353625], [3.04463068, 50.64358565], [3.04460529, 50.6436063], [3.04454886, 50.64362426], [3.04441198, 50.64364854], [3.0443654, 50.64364228], [3.04435128, 50.6436378], [3.04433433, 50.64362165], [3.04432302, 50.64359473], [3.04433709, 50.64356715], [3.04434133, 50.64355883], [3.04434412, 50.64352293], [3.04434127, 50.64348703], [3.04432289, 50.64345563], [3.04433416, 50.64343319], [3.04435109, 50.64341793], [3.0443652, 50.64341344], [3.0444287, 50.64340444], [3.04442864, 50.64334342], [3.04438341, 50.64326267], [3.04434391, 50.64328332], [3.04430158, 50.64329231], [3.04429456, 50.64333898], [3.04426637, 50.64337758], [3.04422404, 50.64338657], [3.04422122, 50.64338836], [3.04413229, 50.64337314], [3.04411817, 50.64336866], [3.04410122, 50.64335251], [3.04406164, 50.64327445], [3.04395997, 50.64321795], [3.04373683, 50.64304123], [3.04369448, 50.64303228], [3.04367837, 50.64303174], [3.04361403, 50.64302961], [3.04359994, 50.64304756], [3.04356749, 50.64306373], [3.04353645, 50.64307002], [3.04348986, 50.64305927], [3.04336699, 50.6429579], [3.04326811, 50.64285025], [3.04317212, 50.64282605], [3.04307332, 50.64281711], [3.04302813, 50.64278751], [3.04300694, 50.6427606], [3.04299562, 50.64273368], [3.04299981, 50.64267983], [3.04288265, 50.64265564], [3.04284453, 50.64263502], [3.04282333, 50.64259913], [3.04281623, 50.64255426], [3.04273857, 50.64250941], [3.04266373, 50.64245829], [3.04239549, 50.64235069], [3.04233197, 50.64233725], [3.04229382, 50.64228521], [3.0421413, 50.64216232], [3.04205661, 50.6421444], [3.04202132, 50.64214172], [3.04198604, 50.64214442], [3.04192678, 50.6421597], [3.04185903, 50.64214895], [3.04177433, 50.64212385], [3.04170378, 50.64213734], [3.04166143, 50.64213107], [3.0416332, 50.64211762], [3.04154851, 50.64210419], [3.0414779, 50.64205485], [3.04144967, 50.64204589], [3.04113914, 50.64198766], [3.04107278, 50.64196255], [3.04105866, 50.64194461], [3.04104735, 50.64192487], [3.04104784, 50.64192408], [3.04104877, 50.64192165], [3.041052, 50.64191099], [3.0410536, 50.64190017], [3.04105355, 50.64188931], [3.04105184, 50.6418785], [3.0410485, 50.64186785], [3.04104356, 50.64185746], [3.04103705, 50.64184741], [3.04102905, 50.64183782], [3.04101963, 50.64182876], [3.04100887, 50.64182032], [3.04099891, 50.64181389], [3.04099688, 50.64181258], [3.04098377, 50.64180562], [3.04096967, 50.6417995], [3.0409547, 50.64179427], [3.040939, 50.64178999], [3.04092272, 50.64178669], [3.04090602, 50.64178441], [3.04088905, 50.64178317], [3.04087198, 50.64178297], [3.04086324, 50.64178341], [3.04085495, 50.64178383], [3.04083813, 50.64178573], [3.04082168, 50.64178866], [3.04081564, 50.64178994], [3.04081438, 50.64179033], [3.0407791, 50.64179663], [3.0407297, 50.64178588], [3.04068733, 50.64174999], [3.04061677, 50.64175002], [3.04056738, 50.6417608], [3.04053209, 50.64175453], [3.04048269, 50.64174109], [3.04045443, 50.6417052], [3.04044023, 50.64159931], [3.04048672, 50.64149609], [3.04051492, 50.64146018], [3.04056005, 50.64142696], [3.04059532, 50.64141349], [3.0406306, 50.6414063], [3.04069836, 50.64142423], [3.04072653, 50.64136589], [3.04073358, 50.64135691], [3.04078577, 50.64132369], [3.04083939, 50.64130752], [3.04089578, 50.6412357], [3.04103963, 50.64111451], [3.04100151, 50.64109208], [3.04098314, 50.64106337], [3.04099441, 50.64104273], [3.04101556, 50.64102028], [3.04103955, 50.64100951], [3.04107482, 50.64100232], [3.04114539, 50.64101127], [3.04118067, 50.64100946], [3.04123003, 50.64096906], [3.04123385, 50.64096816], [3.04134303, 50.64086162], [3.04134285, 50.64086133], [3.04136117, 50.64083171], [3.04137809, 50.64081825], [3.04136112, 50.64076889], [3.04134274, 50.64073749], [3.0413568, 50.64067467], [3.0414343, 50.64052208], [3.04141308, 50.64046375], [3.04142009, 50.6404126], [3.04133541, 50.64040096], [3.0413213, 50.64040366], [3.04127907, 50.64053111], [3.04121283, 50.6406433], [3.04118744, 50.64065498], [3.04115216, 50.64066127], [3.04105333, 50.64061015], [3.04102511, 50.64061016], [3.04096869, 50.64064608], [3.04088403, 50.64067303], [3.04086005, 50.64068829], [3.04083468, 50.6407224], [3.04078247, 50.64073319], [3.04066251, 50.64073323], [3.04063435, 50.640814], [3.04060616, 50.64084991], [3.04061608, 50.64090824], [3.04060622, 50.64093068], [3.04054556, 50.64096031], [3.04048916, 50.64101866], [3.04046094, 50.64102765], [3.04043272, 50.64103214], [3.04045108, 50.64105188], [3.04046098, 50.64107252], [3.04045816, 50.64107431], [3.04044407, 50.64110124], [3.04041867, 50.64111291], [3.0403834, 50.64111921], [3.04029165, 50.64110129], [3.04027754, 50.64110399], [3.04023946, 50.6411372], [3.04019017, 50.64127183], [3.04011539, 50.6412898], [3.04003777, 50.64128355], [3.0399884, 50.64131497], [3.03998558, 50.64131677], [3.03997151, 50.64137062], [3.03995317, 50.64138678], [3.03991084, 50.64139577], [3.03985439, 50.64140027], [3.03984454, 50.64143348], [3.03978112, 50.64154119], [3.03967107, 50.64157981], [3.03958644, 50.64163368], [3.03944962, 50.64173873], [3.03937913, 50.64182849], [3.03939329, 50.64188233], [3.0394526, 50.64193885], [3.03944978, 50.64194064], [3.03943569, 50.64196757], [3.0394103, 50.64197925], [3.03937925, 50.64198554], [3.03930444, 50.64196582], [3.03918446, 50.64194342], [3.03911807, 50.64186896], [3.03910676, 50.64183576], [3.03912506, 50.6417837], [3.03916735, 50.64171189], [3.03920542, 50.64167419], [3.03947065, 50.64155026], [3.03951295, 50.64150538], [3.03955805, 50.64143626], [3.03964272, 50.64142277], [3.03965401, 50.64141559], [3.03966384, 50.64135726], [3.03969203, 50.64131955], [3.03976964, 50.64130607], [3.03985148, 50.64128091], [3.03986558, 50.64126296], [3.03986553, 50.64120014], [3.03984434, 50.64117323], [3.03983303, 50.64115349], [3.03985135, 50.64112387], [3.03992188, 50.64108346], [3.03992468, 50.64105205], [3.03991759, 50.64101167], [3.03992886, 50.64098474], [3.03996411, 50.64093986], [3.03998103, 50.64092909], [3.04003042, 50.6409174], [3.0401292, 50.64091288], [3.04020683, 50.64092004], [3.04026326, 50.64089758], [3.04029148, 50.64089309], [3.04038737, 50.64079614], [3.0404085, 50.64074228], [3.04054249, 50.64064352], [3.0406271, 50.64056273], [3.04067214, 50.64042362], [3.04065801, 50.64040388], [3.04065519, 50.64040119], [3.04056628, 50.64039493], [3.04055216, 50.64039045], [3.04049992, 50.64035637], [3.04044342, 50.64030254], [3.04038973, 50.64021551], [3.04023447, 50.64018863], [3.04021047, 50.64017698], [3.0402034, 50.640168], [3.04019209, 50.64013929], [3.04021746, 50.64009621], [3.04023858, 50.64004235], [3.04029783, 50.64000913], [3.04034721, 50.63999745], [3.04039662, 50.6400091], [3.04044603, 50.640036], [3.04063388, 50.64022171], [3.04082735, 50.64038318], [3.04084146, 50.64038138], [3.040912, 50.64035444], [3.04090914, 50.64031136], [3.04093028, 50.64027546], [3.04098247, 50.64024672], [3.04101069, 50.64023774], [3.04100785, 50.64022159], [3.04096124, 50.64017224], [3.04096821, 50.64006006], [3.04096113, 50.64002866], [3.0409724, 50.64000622], [3.04098932, 50.63999096], [3.04103588, 50.63997927], [3.04111633, 50.63999091], [3.04120809, 50.64002229], [3.04123349, 50.64002408], [3.04137456, 50.63996121], [3.04140559, 50.63993248], [3.04145497, 50.6399208], [3.04151143, 50.63993424], [3.04168779, 50.63987855], [3.04171318, 50.63986238], [3.04172727, 50.63984443], [3.04176954, 50.63976365], [3.04179353, 50.63975287], [3.04188524, 50.63973489], [3.04189927, 50.63963797], [3.04187804, 50.63955721], [3.04191045, 50.63950335], [3.04192725, 50.6393463], [3.04191028, 50.63930592], [3.0418538, 50.63926107], [3.04184248, 50.63922966], [3.04185656, 50.63918927], [3.04183255, 50.63916236], [3.04182124, 50.63913992], [3.0418353, 50.6390771], [3.04186772, 50.63902773], [3.0419199, 50.63899002], [3.04198056, 50.63896487], [3.04198054, 50.63893795], [3.0419551, 50.63890027], [3.04200859, 50.63873154], [3.04202263, 50.63864628], [3.04206071, 50.63861755], [3.04207482, 50.63861305], [3.04228365, 50.63858785], [3.04233305, 50.63859681], [3.04234715, 50.63857886], [3.04235702, 50.63857257], [3.04237113, 50.63856808], [3.04248401, 50.6385474], [3.04252635, 50.63855905], [3.04253765, 50.63856533], [3.04254757, 50.63861469], [3.04256594, 50.6386416], [3.04259699, 50.63865057], [3.04271693, 50.63863078], [3.04276354, 50.63868641], [3.0428299, 50.63872049], [3.04285812, 50.63872048], [3.04296112, 50.63869531], [3.04305995, 50.63874912], [3.04318699, 50.63878498], [3.04321802, 50.6387742], [3.04325753, 50.638767], [3.04333798, 50.63878313], [3.04354968, 50.6388028], [3.04360612, 50.63879201], [3.04366679, 50.63877583], [3.04366961, 50.63877853], [3.04371196, 50.63878748], [3.04373031, 50.63880273], [3.04374022, 50.63882965], [3.04372333, 50.6388835], [3.04371912, 50.63890863], [3.0438038, 50.63891758], [3.04382921, 50.63892834], [3.04383208, 50.63898936], [3.04385749, 50.63899563], [3.04393789, 50.63894445], [3.04398445, 50.63893277], [3.04402255, 50.63893724], [3.04416791, 50.63893719], [3.04418903, 50.63889231], [3.04419608, 50.63888334], [3.04422712, 50.63886807], [3.04431178, 50.63886355], [3.04432307, 50.63885637], [3.04434419, 50.63880252], [3.04436817, 50.63879174], [3.04440062, 50.63878455], [3.04446697, 50.63880965], [3.04450931, 50.63881861], [3.04453757, 50.6388545], [3.0445658, 50.63886346], [3.04474928, 50.63889032], [3.04492569, 50.63889923], [3.04495395, 50.63893512], [3.04495113, 50.63894589], [3.04498926, 50.638971], [3.04507395, 50.63898892], [3.04510642, 50.63900865], [3.04512056, 50.63903557], [3.04514172, 50.63902658], [3.04517693, 50.6389458], [3.04520091, 50.63893503], [3.04523618, 50.63892783], [3.04532792, 50.63894395], [3.04535616, 50.63895292], [3.04538863, 50.63897265], [3.04541264, 50.63899777], [3.04548321, 50.63900223], [3.04552555, 50.6390085], [3.04553966, 50.6390067], [3.04561018, 50.63896629], [3.04568074, 50.63896357], [3.04573436, 50.63895457], [3.04590656, 50.63898861], [3.04597712, 50.63898859], [3.04600533, 50.6389796], [3.04606177, 50.63897061], [3.04606597, 50.63892753], [3.046097, 50.63890777], [3.04627058, 50.6389095], [3.04633692, 50.63892743], [3.04638346, 50.63890049], [3.04644973, 50.63883585], [3.04654145, 50.63882235], [3.0465485, 50.63881966], [3.04661202, 50.63883579], [3.04665153, 50.63883757], [3.04665856, 50.63880616], [3.04667265, 50.63877923], [3.04672485, 50.63876395], [3.04673613, 50.63875677], [3.04675023, 50.63873881], [3.04677839, 50.63867598], [3.04680237, 50.63866521], [3.0468447, 50.63865801], [3.04690116, 50.63866966], [3.04693646, 50.63869208], [3.04700702, 50.63868487], [3.04707759, 50.638701], [3.0471242, 50.63873867], [3.0472654, 50.63882836], [3.04732897, 50.63890013], [3.04735019, 50.63895397], [3.04741372, 50.63897638], [3.04743068, 50.63900599], [3.04740249, 50.6390419], [3.04735734, 50.63905268], [3.04730087, 50.63903475], [3.04728674, 50.63900784], [3.04727355, 50.63900784], [3.04724722, 50.63900785], [3.04719784, 50.63901685], [3.04716255, 50.63901058], [3.04709198, 50.63899266], [3.04700444, 50.63894513], [3.04692253, 50.63888503], [3.0468308, 50.63888237], [3.04673907, 50.6388851], [3.04670101, 50.63892729], [3.04668692, 50.63895422], [3.04654165, 50.63904222], [3.04651344, 50.63905121], [3.04613247, 50.63911417], [3.04568092, 50.63916369], [3.04565696, 50.63919691], [3.04563863, 50.63920858], [3.04561041, 50.63921756], [3.04557937, 50.63922386], [3.04542693, 50.63919071], [3.04527169, 50.63918179], [3.04524769, 50.63917013], [3.0452152, 50.63913694], [3.04501481, 50.63913881], [3.04498235, 50.63913254], [3.04495129, 50.6391164], [3.04494214, 50.63910637], [3.04490467, 50.63906526], [3.04480586, 50.63903837], [3.04477479, 50.63900877], [3.04472116, 50.63901148], [3.04469012, 50.63901777], [3.04465766, 50.6390115], [3.04462237, 50.63899985], [3.04455182, 50.63901154], [3.04449538, 50.63902682], [3.04443892, 50.63901158], [3.04433026, 50.63900893], [3.04433027, 50.63902688], [3.04434724, 50.63906097], [3.04433371, 50.63908754], [3.04433033, 50.63909418], [3.04430494, 50.63910586], [3.04426684, 50.63911215], [3.04414265, 50.63910592], [3.04405796, 50.63908351], [3.04386459, 50.63904948], [3.04383639, 50.63907192], [3.04380401, 50.63915539], [3.04366996, 50.63917967], [3.04359234, 50.63917342], [3.04356837, 50.63919766], [3.04354723, 50.63923356], [3.04352184, 50.63924524], [3.0434908, 50.63925153], [3.04343716, 50.63923629], [3.04340894, 50.6392363], [3.04335675, 50.63926952], [3.04331023, 50.63932608], [3.04322556, 50.63933508], [3.04317618, 50.63934587], [3.04311266, 50.63933243], [3.04309855, 50.63933513], [3.04308166, 50.63937731], [3.04302807, 50.63942669], [3.04303514, 50.63944015], [3.04301122, 50.63952092], [3.04301046, 50.63952159], [3.04310141, 50.63968354], [3.04312708, 50.6396896], [3.04314544, 50.63970036], [3.04315957, 50.63972728], [3.0431765, 50.63972278], [3.04333599, 50.63974516], [3.04335009, 50.63972721], [3.04338112, 50.63971194], [3.0434164, 50.63970475], [3.04347709, 50.63971819], [3.04349822, 50.6396778], [3.04352221, 50.63966702], [3.04360404, 50.63964635], [3.04363509, 50.63965352], [3.0436605, 50.63966428], [3.04367464, 50.6396912], [3.04367474, 50.63980786], [3.04366349, 50.63985274], [3.04367762, 50.63986889], [3.0437129, 50.63987067], [3.04379051, 50.63985987], [3.04388926, 50.63982125], [3.04412917, 50.63982565], [3.04436906, 50.63980582], [3.04450308, 50.63974744], [3.04470483, 50.63969083], [3.04475, 50.639698], [3.04476412, 50.63970248], [3.04478248, 50.63971773], [3.04479663, 50.63976259], [3.04486299, 50.63980565], [3.04493358, 50.63983254], [3.04501826, 50.63983431], [3.04510293, 50.63983248], [3.04517348, 50.63982348], [3.04528635, 50.63979383], [3.04546985, 50.63983235], [3.0456251, 50.63984575], [3.04566744, 50.6398592], [3.04571686, 50.63987892], [3.04580855, 50.6398412], [3.04585511, 50.63982951], [3.04590028, 50.63984116], [3.04591864, 50.63985641], [3.04594981, 50.63998922], [3.04593999, 50.64004935], [3.04595411, 50.64005832], [3.04601061, 50.64012112], [3.04601769, 50.64013906], [3.04602481, 50.64021085], [3.04606293, 50.64022699], [3.04608129, 50.64024224], [3.04611665, 50.64032748], [3.04613791, 50.64042619], [3.04615203, 50.64044413], [3.04619015, 50.64046207], [3.04626069, 50.64043781], [3.04629597, 50.64043062], [3.04633126, 50.64043779], [3.04634537, 50.64044227], [3.04636373, 50.64045752], [3.04640616, 50.64055173], [3.04645836, 50.64054094], [3.04655007, 50.64051129], [3.04661357, 50.64050678], [3.04681115, 50.64051389], [3.04684642, 50.64049593], [3.04693108, 50.64047974], [3.04698754, 50.64048869], [3.04699727, 50.64048786], [3.04711028, 50.64046903], [3.04712619, 50.64046586], [3.04714157, 50.64046175], [3.04715626, 50.64045673], [3.04717014, 50.64045086], [3.04718309, 50.64044417], [3.04719499, 50.64043674], [3.04720573, 50.64042863], [3.04721522, 50.64041991], [3.04722337, 50.64041065], [3.04723011, 50.64040095], [3.04723153, 50.64039824], [3.04723538, 50.64039089], [3.04723913, 50.64038056], [3.04724133, 50.64037004], [3.04724196, 50.64035944], [3.04724101, 50.64034886], [3.04723849, 50.64033837], [3.04723443, 50.64032809], [3.04723138, 50.64032261], [3.04723152, 50.64032258], [3.0471957, 50.64025816], [3.04718912, 50.64024631], [3.04717778, 50.64019247], [3.04719183, 50.64013413], [3.0471818, 50.63996812], [3.04720046, 50.63993959], [3.04725226, 50.6398604], [3.04729034, 50.63983346], [3.04723385, 50.6397913], [3.04720403, 50.63977664], [3.04714631, 50.63974826], [3.04714902, 50.63962262], [3.04712782, 50.63958943], [3.04714613, 50.6395598], [3.04719128, 50.63954453], [3.04717427, 50.63946556], [3.04716295, 50.63943416], [3.04717421, 50.63940274], [3.04718117, 50.63929954], [3.04719526, 50.63927261], [3.0472446, 50.63922323], [3.04725448, 50.63921695], [3.04727462, 50.63921189], [3.04730103, 50.63920526], [3.04733209, 50.63921243], [3.0473575, 50.63922319], [3.04736456, 50.63923216], [3.04737447, 50.63925729], [3.04736461, 50.63928152], [3.04734628, 50.63930217], [3.04737451, 50.63930664], [3.04739993, 50.6393174], [3.04742113, 50.63935778], [3.04744516, 50.63939367], [3.0474353, 50.63941611], [3.04741697, 50.63943855], [3.04743535, 50.63947444], [3.04743818, 50.63947713], [3.04742127, 50.63950585], [3.04737473, 50.63953279], [3.04739309, 50.63955074], [3.04740725, 50.63960009], [3.04748772, 50.63963416], [3.04756962, 50.63968079], [3.04759073, 50.63962694], [3.04760765, 50.63961168], [3.04765421, 50.63959999], [3.04769938, 50.63961164], [3.04772766, 50.63966279], [3.04771784, 50.63972561], [3.04775596, 50.63975072], [3.04779831, 50.63975968], [3.04782371, 50.63976146], [3.04789424, 50.63973003], [3.04798175, 50.63973448], [3.04812446, 50.63972717], [3.04816518, 50.63970928], [3.0482188, 50.63969939], [3.04829359, 50.63969667], [3.04829501, 50.63969664], [3.04831334, 50.63969397], [3.04832397, 50.63969609], [3.04838955, 50.63969484], [3.04847987, 50.63969839], [3.04852221, 50.63970196], [3.04852988, 50.6397025], [3.04853208, 50.63968491], [3.04852923, 50.63966247], [3.04850097, 50.63962659], [3.04848968, 50.63962031], [3.04827092, 50.63959796], [3.04820454, 50.63955042], [3.04820407, 50.63954969], [3.04799624, 50.63949018], [3.04799562, 50.63949038], [3.04795329, 50.63949668], [3.04788978, 50.63948593], [3.04786578, 50.63947427], [3.04784457, 50.63942941], [3.04782616, 50.63936211], [3.04783742, 50.63933967], [3.04785434, 50.63932441], [3.04788256, 50.63931542], [3.04792489, 50.63930823], [3.04792618, 50.63930858], [3.04814311, 50.63923631], [3.048183, 50.63916005], [3.04818346, 50.63915971], [3.04804231, 50.63899848], [3.04804172, 50.63899857], [3.0480022, 50.63899231], [3.0479782, 50.63898065], [3.04794995, 50.63894925], [3.04793864, 50.63892951], [3.04794991, 50.63890887], [3.04796683, 50.6388936], [3.04796742, 50.63889346], [3.0480109, 50.63875775], [3.04800621, 50.6387518], [3.04799489, 50.63872308], [3.04799911, 50.63871142], [3.0480132, 50.63868449], [3.04803718, 50.63866922], [3.04799906, 50.63865308], [3.04798068, 50.63862437], [3.047999, 50.63859475], [3.04802298, 50.63858397], [3.04802716, 50.63852295], [3.04805109, 50.63846012], [3.04803693, 50.63841077], [3.04804807, 50.63825371], [3.04798451, 50.63819989], [3.0479096, 50.63807697], [3.04793497, 50.63803837], [3.04798009, 50.63800515], [3.04800831, 50.63799617], [3.04808308, 50.63797999], [3.04811414, 50.63798715], [3.04813955, 50.63799791], [3.04815651, 50.63802752], [3.04815372, 50.63805624], [3.04821019, 50.63807865], [3.04822715, 50.63811275], [3.04821733, 50.63817288], [3.04820607, 50.63819801], [3.0482343, 50.63820697], [3.04830489, 50.63823836], [3.04831618, 50.63824463], [3.0483515, 50.638285], [3.0483614, 50.63830564], [3.04834449, 50.63833436], [3.0483191, 50.63834604], [3.04823868, 50.63836133], [3.04823446, 50.6383703], [3.04823878, 50.63846004], [3.04829803, 50.63844477], [3.04835871, 50.63844205], [3.04837279, 50.63841063], [3.04840098, 50.63837921], [3.04841791, 50.63836844], [3.04848562, 50.63834328], [3.04850675, 50.6382984], [3.04853071, 50.63827417], [3.04858715, 50.63826068], [3.04869298, 50.63825795], [3.04875651, 50.63827856], [3.04881295, 50.63827854], [3.04884116, 50.63826058], [3.0488595, 50.6382534], [3.04885525, 50.63823994], [3.04887357, 50.63820852], [3.04888344, 50.63820223], [3.04893, 50.63819055], [3.04896105, 50.63819772], [3.04898646, 50.63820847], [3.04899353, 50.63821745], [3.04900343, 50.63823988], [3.04898652, 50.63827129], [3.04895408, 50.63828926], [3.04897533, 50.63836553], [3.0489726, 50.63845976], [3.04898248, 50.63846693], [3.0491095, 50.63848034], [3.04915614, 50.63854943], [3.04925076, 50.63861939], [3.0493566, 50.63862832], [3.04938908, 50.63864805], [3.04939898, 50.63867048], [3.04939901, 50.63869741], [3.04938915, 50.63871984], [3.04936378, 50.63874678], [3.04938921, 50.63877369], [3.04940618, 50.63881855], [3.04940337, 50.63882753], [3.04939211, 50.63885446], [3.04941048, 50.63888137], [3.0494811, 50.63893968], [3.049491, 50.63896031], [3.04949076, 50.63896078], [3.04954346, 50.63905347], [3.0495442, 50.63905298], [3.04967668, 50.63913842], [3.04974233, 50.63909662], [3.04974513, 50.63907418], [3.04973804, 50.63904278], [3.0497493, 50.63901585], [3.04978454, 50.63897096], [3.04987199, 50.63893324], [3.04991429, 50.63889284], [3.0499284, 50.63888834], [3.04999895, 50.63887934], [3.05005251, 50.6388183], [3.05007362, 50.63875098], [3.05023863, 50.63865938], [3.05032328, 50.63863242], [3.05035855, 50.63862523], [3.05043618, 50.63863686], [3.05050386, 50.63858478], [3.050549, 50.63856502], [3.05050378, 50.63850402], [3.05048543, 50.63849505], [3.05043607, 50.63852468], [3.0503486, 50.63855344], [3.05031765, 50.63854629], [3.05030202, 50.63854269], [3.05026388, 50.63850411], [3.05020745, 50.6385176], [3.05017498, 50.63851133], [3.05012556, 50.63847994], [3.05003097, 50.6384369], [3.0500239, 50.63842793], [3.05001259, 50.6384055], [3.05002386, 50.63838306], [3.05004077, 50.63836062], [3.05000968, 50.63831576], [3.04998143, 50.63829333], [3.04997011, 50.63826462], [3.04998137, 50.638235], [3.04999829, 50.63821974], [3.05005473, 50.63820805], [3.05011119, 50.63821969], [3.05012955, 50.63823494], [3.05018176, 50.63823312], [3.05020715, 50.63821696], [3.05025646, 50.63814066], [3.05025903, 50.63813866], [3.05031991, 50.63809128], [3.05031985, 50.63802846], [3.05030572, 50.63801051], [3.05022388, 50.63801324], [3.05017168, 50.63802852], [3.05011098, 50.63801329], [3.0500898, 50.63800163], [3.05006159, 50.63801779], [3.05000939, 50.63802858], [3.04996987, 50.63802232], [3.04991341, 50.63800888], [3.04984989, 50.63798647], [3.04984, 50.63797929], [3.04982584, 50.63792994], [3.04978346, 50.63788509], [3.04974393, 50.63786715], [3.04963809, 50.6378654], [3.04961407, 50.63783131], [3.04955757, 50.63777749], [3.04948982, 50.63776854], [3.04941645, 50.63777754], [3.04936987, 50.63776679], [3.04933456, 50.6377354], [3.04928516, 50.63773093], [3.04924282, 50.63772197], [3.04923294, 50.6377148], [3.04920751, 50.63769057], [3.04912284, 50.63768792], [3.04908756, 50.63769242], [3.04899582, 50.63767271], [3.04886879, 50.63765032], [3.04880948, 50.63761176], [3.04880242, 50.63760279], [3.04879111, 50.63758305], [3.04880942, 50.63754445], [3.04871344, 50.63752475], [3.04867107, 50.63749335], [3.04857934, 50.6374889], [3.04839586, 50.63745756], [3.04838175, 50.63745308], [3.04834645, 50.63743066], [3.04824061, 50.63743698], [3.04812065, 50.63741729], [3.04805005, 50.63737693], [3.04800771, 50.63736797], [3.04790892, 50.63736352], [3.04782423, 50.63734112], [3.04773956, 50.63734115], [3.04770852, 50.63734745], [3.04766194, 50.6373367], [3.04763793, 50.63731158], [3.04668101, 50.63714412], [3.04652577, 50.63713072], [3.04645519, 50.63710831], [3.04642695, 50.63709037], [3.04634228, 50.6370904], [3.04630418, 50.6370967], [3.04614469, 50.63705458], [3.04604589, 50.63703667], [3.04594711, 50.63703671], [3.04591184, 50.637043], [3.04587655, 50.63703673], [3.04584832, 50.63702777], [3.04582007, 50.63700086], [3.04576359, 50.63696498], [3.04572125, 50.63695602], [3.04568456, 50.63695334], [3.04557307, 50.6369471], [3.04554907, 50.63693544], [3.04553494, 50.6369175], [3.04464863, 50.6367859], [3.04446517, 50.6367743], [3.04442283, 50.63677701], [3.04426765, 50.63682822], [3.04421825, 50.63681747], [3.04418296, 50.63679504], [3.04398963, 50.63679242], [3.04390776, 50.6367745], [3.04381608, 50.63682209], [3.04375965, 50.63683558], [3.04367498, 50.63684009], [3.04365382, 50.6368419], [3.04360442, 50.63683563], [3.04354796, 50.6368195], [3.04336452, 50.63683123], [3.04330103, 50.63684651], [3.04322341, 50.63683128], [3.04319518, 50.63682859], [3.04305408, 50.6368448], [3.04295531, 50.63684932], [3.04288478, 50.63688524], [3.04279024, 50.63690053], [3.04276911, 50.63693643], [3.04274372, 50.63694811], [3.0427155, 50.6369526], [3.0426774, 50.63695441], [3.04248973, 50.63696614], [3.04247985, 50.63697243], [3.04245448, 50.63700654], [3.04230633, 50.63702903], [3.04222592, 50.63706226], [3.04216523, 50.63704702], [3.04210878, 50.63704704], [3.04209891, 50.63705333], [3.04205239, 50.63710539], [3.04198184, 50.63711888], [3.04185206, 50.63717007], [3.04180548, 50.63715932], [3.04178915, 50.63714376], [3.04143516, 50.63726213], [3.04144573, 50.63728059], [3.04142882, 50.63730932], [3.04136111, 50.63733895], [3.04128069, 50.63734975], [3.0412666, 50.63737668], [3.04119889, 50.63741529], [3.0411608, 50.63742158], [3.04108317, 50.63740815], [3.04106908, 50.63743059], [3.0410155, 50.63748266], [3.04093789, 50.63749614], [3.04082503, 50.63753208], [3.04078891, 50.63754721], [3.04079147, 50.63773553], [3.04080448, 50.63774038], [3.04082035, 50.63774501], [3.04083685, 50.63774863], [3.04085384, 50.63775119], [3.04087114, 50.63775267], [3.04088858, 50.63775305], [3.040906, 50.63775234], [3.04090907, 50.63775211], [3.04090988, 50.63775192], [3.04096632, 50.63774921], [3.04105101, 50.63776982], [3.04113996, 50.63782094], [3.04114985, 50.63784607], [3.04112168, 50.63791069], [3.04115419, 50.6379735], [3.0411641, 50.6380076], [3.04114721, 50.63805876], [3.04112887, 50.63807492], [3.04111477, 50.63807941], [3.04107244, 50.63808571], [3.0410301, 50.63807944], [3.04095952, 50.63805882], [3.04093835, 50.63806152], [3.04084665, 50.63809296], [3.04081843, 50.63809476], [3.04076198, 50.6380885], [3.04074786, 50.63808402], [3.04073092, 50.63806787], [3.0407196, 50.63804095], [3.0407238, 50.63799608], [3.04064619, 50.6379961], [3.04063914, 50.63801405], [3.04062505, 50.63803201], [3.04061376, 50.63803919], [3.04055451, 50.63805447], [3.04052204, 50.63804819], [3.04049805, 50.63803654], [3.04048391, 50.63800962], [3.04047968, 50.63800782], [3.04052197, 50.63794442], [3.04050759, 50.63783967], [3.04027215, 50.63780313], [3.04027207, 50.63780328], [3.04021846, 50.63781945], [3.0401832, 50.63785087], [3.04009149, 50.63786436], [3.04006327, 50.63787335], [3.0400252, 50.63790656], [3.0399857, 50.6379317], [3.03990105, 50.63795417], [3.03980934, 50.63797214], [3.03969648, 50.63801705], [3.03957659, 50.63809337], [3.03956248, 50.63809786], [3.03947077, 50.63811584], [3.03927755, 50.63826128], [3.03902365, 50.63840944], [3.03885021, 50.63858269], [3.03878396, 50.63868771], [3.03872754, 50.63872363], [3.03868524, 50.63875954], [3.03867116, 50.63880441], [3.03855839, 50.63896598], [3.03848363, 50.63901806], [3.03843143, 50.63903782], [3.03831864, 50.63917246], [3.03828342, 50.63924876], [3.03821994, 50.63928916], [3.03818751, 50.63932327], [3.03802527, 50.63938614], [3.03798294, 50.63939513], [3.0377007, 50.6394015], [3.03751723, 50.63939258], [3.03746783, 50.63938182], [3.03741841, 50.63934325], [3.03738314, 50.63935493], [3.03734506, 50.63937917], [3.03734084, 50.63940609], [3.0373451, 50.63943301], [3.03738745, 50.63945544], [3.03741854, 50.63950927], [3.03738752, 50.63954966], [3.03738331, 50.63957659], [3.03738756, 50.63960351], [3.03742568, 50.63962863], [3.03749626, 50.63965553], [3.03756684, 50.63967345], [3.03772207, 50.6396752], [3.03778275, 50.63966621], [3.03783498, 50.63968235], [3.03793377, 50.63969129], [3.03795213, 50.63970654], [3.03796628, 50.63976487], [3.03803263, 50.63978998], [3.0380651, 50.63980971], [3.03807924, 50.63983663], [3.03810325, 50.63986175], [3.03815265, 50.6398725], [3.03823732, 50.63987068], [3.03828673, 50.63989759], [3.03835732, 50.63992449], [3.03842788, 50.63992896], [3.03847022, 50.63993792], [3.03852389, 50.63998457], [3.03854085, 50.64002315], [3.03853384, 50.64008148], [3.03851693, 50.64011021], [3.03841395, 50.64016678], [3.03836174, 50.64017756], [3.03833355, 50.64021347], [3.038287, 50.6402431], [3.03823056, 50.64025388], [3.03800474, 50.64023421], [3.03799487, 50.64024049], [3.03796669, 50.64030332], [3.03789616, 50.64033924], [3.03787078, 50.64036886], [3.03782562, 50.64037964], [3.03761394, 50.6403842], [3.03761396, 50.64041112], [3.03763798, 50.64044521], [3.03762811, 50.64046496], [3.03760978, 50.64048112], [3.03759567, 50.64048561], [3.03752511, 50.6404946], [3.03751108, 50.64059512], [3.03751532, 50.64060858], [3.03765222, 50.64061572], [3.03771995, 50.64059954], [3.03775805, 50.64060671], [3.03778347, 50.64061747], [3.03781171, 50.64064887], [3.03782161, 50.64067131], [3.03779765, 50.64070721], [3.03779773, 50.6408149], [3.03778363, 50.64084183], [3.03775824, 50.6408535], [3.03762418, 50.64086252], [3.03752541, 50.64088947], [3.03752266, 50.64098549], [3.03748743, 50.64106178], [3.03744089, 50.6410959], [3.03738869, 50.64112015], [3.03738871, 50.64114707], [3.03742685, 50.6412009], [3.03740994, 50.64123232], [3.03735633, 50.64125746], [3.03736058, 50.64128169], [3.03737471, 50.64129963], [3.03740295, 50.64132206], [3.03741715, 50.64144321], [3.03742704, 50.64145038], [3.03750467, 50.64146113], [3.03762462, 50.64145481], [3.03768111, 50.64150415], [3.03772346, 50.64151491], [3.0377799, 50.64150592], [3.03786458, 50.64151307], [3.03789702, 50.64148793], [3.03792101, 50.64147716], [3.0379704, 50.64146996], [3.0380198, 50.64147713], [3.03809038, 50.64149954], [3.03810873, 50.6415103], [3.0381511, 50.64154619], [3.03816805, 50.6415758], [3.03808769, 50.64168531], [3.0380623, 50.64169698], [3.03797056, 50.64168534], [3.03793246, 50.64169433], [3.03788588, 50.64168357], [3.03782235, 50.64165846], [3.03778002, 50.64167014], [3.03777015, 50.64167643], [3.03777018, 50.64171233], [3.03779418, 50.64172847], [3.03786474, 50.64172576], [3.0379212, 50.64173741], [3.03793956, 50.64175266], [3.03794946, 50.64178406], [3.0379114, 50.64183792], [3.03789734, 50.64190972], [3.03787195, 50.64192139], [3.03783385, 50.64192769], [3.03775621, 50.64190976], [3.03775198, 50.64191245], [3.03773793, 50.64199053], [3.037745, 50.64201297], [3.03772809, 50.64204438], [3.03768578, 50.64208029], [3.03768156, 50.64209824], [3.0376858, 50.64211619], [3.03776627, 50.64214129], [3.03778462, 50.64215654], [3.03779169, 50.64217449], [3.0377988, 50.64224179], [3.03793996, 50.64227765], [3.03811639, 50.64230003], [3.03813334, 50.64232964], [3.03813766, 50.64243015], [3.03817577, 50.64244629], [3.03823224, 50.64245973], [3.03825059, 50.64247049], [3.03826755, 50.6425001], [3.03824642, 50.64255126], [3.0382648, 50.64259164], [3.03837349, 50.64261674], [3.03854003, 50.64262745], [3.03855412, 50.64260053], [3.03862464, 50.64253769], [3.03864862, 50.64252242], [3.038698, 50.64251074], [3.03886034, 50.64255377], [3.0388787, 50.64256902], [3.03888859, 50.64258965], [3.03887168, 50.64261838], [3.03885334, 50.64263005], [3.03880113, 50.64264532], [3.03877296, 50.64270815], [3.03876875, 50.64274225], [3.03883931, 50.64274223], [3.03888588, 50.64273055], [3.03893105, 50.6427422], [3.03894941, 50.64275296], [3.03896354, 50.64277988], [3.03896636, 50.64278257], [3.0389142, 50.64285169], [3.03890012, 50.64290105], [3.03888179, 50.64291721], [3.03883946, 50.6429262], [3.03883666, 50.64296389], [3.03882257, 50.64299082], [3.03878307, 50.64301596], [3.03873086, 50.64302226], [3.03872383, 50.64305367], [3.03869844, 50.64307432], [3.03862789, 50.64309677], [3.03858557, 50.64311922], [3.03854323, 50.64312552], [3.03848678, 50.64312374], [3.0384769, 50.64313002], [3.03844449, 50.64318837], [3.03847982, 50.64324669], [3.03847701, 50.64327361], [3.03857586, 50.6433364], [3.03858999, 50.64336332], [3.03864222, 50.64337228], [3.0387029, 50.64336328], [3.03878336, 50.64338838], [3.03883982, 50.64339734], [3.0388822, 50.6434422], [3.03892879, 50.64346641], [3.03894293, 50.64350679], [3.03894576, 50.64351397], [3.0389359, 50.64353821], [3.03891757, 50.64355436], [3.03887241, 50.64356515], [3.03873127, 50.6435607], [3.0387313, 50.6435966], [3.0387737, 50.64367735], [3.03878359, 50.64368453], [3.03899248, 50.64369523], [3.03901645, 50.64366651], [3.03906301, 50.64365483], [3.03910818, 50.64366648], [3.03920698, 50.64367094], [3.03941873, 50.6437292], [3.03947944, 50.6437579], [3.03949357, 50.64377584], [3.03953593, 50.64380275], [3.039543, 50.6438207], [3.0395501, 50.64387454], [3.03970118, 50.64395795], [3.0397266, 50.64397769], [3.0397365, 50.64400281], [3.03973652, 50.64403153], [3.0397055, 50.64407192], [3.03970128, 50.64408538], [3.03975072, 50.64414819], [3.03976207, 50.64421549], [3.03983547, 50.64423162], [3.03986088, 50.64424238], [3.03988208, 50.6442693], [3.03989906, 50.64433032], [3.04000208, 50.64431413], [3.04004725, 50.64432578], [3.04018565, 50.64443073], [3.04025624, 50.64446212], [3.04028027, 50.64450967], [3.04027041, 50.64453391], [3.04023797, 50.64455456], [3.0401533, 50.64456805], [3.04015756, 50.64460125], [3.04017168, 50.64461919], [3.04039328, 50.64463976], [3.04060219, 50.6446729], [3.04059794, 50.64465316], [3.04062614, 50.64461725], [3.04071082, 50.64461004], [3.04078136, 50.6445813], [3.04091544, 50.64457229], [3.04098599, 50.64455162], [3.04111302, 50.64456773], [3.04114125, 50.64457221], [3.04115537, 50.64457669], [3.04122598, 50.64462603], [3.04125421, 50.64463051], [3.0413248, 50.64465292], [3.04135305, 50.6446888], [3.04146319, 50.64474889], [3.04148015, 50.6447785], [3.04148023, 50.64487722], [3.04157906, 50.64491308], [3.04160729, 50.64491487], [3.04163551, 50.64491306], [3.04171311, 50.64488163], [3.04177662, 50.64488161], [3.04183027, 50.64489684], [3.04184724, 50.64493543], [3.04184442, 50.6449462], [3.04178098, 50.6450225], [3.04177676, 50.64504494], [3.04178101, 50.64506737], [3.04179798, 50.64510326], [3.04178812, 50.64513019], [3.04173173, 50.64520648], [3.04167812, 50.64522714], [3.04164989, 50.64523164], [3.04164002, 50.64523792], [3.04160758, 50.64527204], [3.04156525, 50.64528551], [3.04148481, 50.64529182], [3.04147073, 50.64532772], [3.04143829, 50.64535914], [3.04146653, 50.64537977], [3.04170371, 50.64545328], [3.04171784, 50.6454802], [3.04172067, 50.64548289], [3.04170376, 50.64551161], [3.04167837, 50.64553406], [3.04168261, 50.64554303], [3.04169957, 50.64557443], [3.04166433, 50.64561932], [3.04167845, 50.64563098], [3.0418761, 50.64569373], [3.04200314, 50.64571612], [3.04203564, 50.64575829], [3.04207378, 50.64579238], [3.04214435, 50.64580133], [3.04218671, 50.64581478], [3.04222907, 50.64584617], [3.04226437, 50.64585693], [3.04233494, 50.6458569], [3.04234905, 50.64585062], [3.04234197, 50.64582818], [3.04235323, 50.64578959], [3.04236028, 50.64578062], [3.04238426, 50.64576984], [3.0424266, 50.64576264], [3.04252965, 50.64578504], [3.04253953, 50.64577876], [3.04258186, 50.64576528], [3.04260724, 50.64574015], [3.04262415, 50.64571322], [3.04257896, 50.64567734], [3.04256059, 50.64564863], [3.04257186, 50.64562798], [3.04258878, 50.64561272], [3.04264241, 50.64560104], [3.04283578, 50.64561264], [3.04285411, 50.64559648], [3.0428781, 50.6455857], [3.04300511, 50.64557399], [3.04306157, 50.64557666], [3.04309683, 50.64554524], [3.04314339, 50.64553356], [3.04317445, 50.64554073], [3.04319986, 50.64555149], [3.04322107, 50.64558738], [3.04323095, 50.64559455], [3.04330153, 50.64559901], [3.04332976, 50.64560349], [3.04341444, 50.64560526], [3.04349912, 50.64560343], [3.04361202, 50.64558544], [3.04367269, 50.64556478], [3.04371787, 50.64557643], [3.04373623, 50.64559168], [3.04374613, 50.64561232], [3.04372499, 50.64564822], [3.04378851, 50.64565717], [3.0438238, 50.64566793], [3.0438633, 50.64564997], [3.04395073, 50.6455584], [3.04400012, 50.64554672], [3.04404952, 50.64554939], [3.04406785, 50.64553323], [3.04409184, 50.64552246], [3.04417652, 50.64552422], [3.04426119, 50.64550624], [3.04433177, 50.64552237], [3.04435295, 50.64552416], [3.04441645, 50.64551337], [3.04447289, 50.64549719], [3.0445223, 50.64550884], [3.04455054, 50.64552409], [3.04462816, 50.64551329], [3.04475516, 50.64548632], [3.04476644, 50.64547914], [3.04480164, 50.64538041], [3.04481152, 50.64537413], [3.04487924, 50.64535346], [3.04490744, 50.64531755], [3.04492153, 50.64529063], [3.044889, 50.64521436], [3.04490027, 50.64519192], [3.04494962, 50.64513357], [3.04505118, 50.64506892], [3.04519227, 50.645024], [3.04522755, 50.6450168], [3.04529108, 50.64503742], [3.04547881, 50.64505261], [3.04548873, 50.64509748], [3.04553112, 50.64514951], [3.04550016, 50.64524554], [3.04545083, 50.64533082], [3.04542544, 50.64534249], [3.04533371, 50.64535599], [3.04517852, 50.64541886], [3.04515454, 50.6454431], [3.04515033, 50.64547003], [3.04515459, 50.64549695], [3.04516872, 50.64551489], [3.0452252, 50.64554179], [3.04524217, 50.64557768], [3.04523937, 50.6456046], [3.04526338, 50.64562075], [3.04536925, 50.64563866], [3.04540174, 50.64566736], [3.04541165, 50.64570326], [3.04539478, 50.64577057], [3.04536939, 50.64579122], [3.04532706, 50.64580021], [3.04522121, 50.64580473], [3.04521136, 50.64583794], [3.04520715, 50.64587204], [3.04526362, 50.645881], [3.04527773, 50.64588548], [3.0452961, 50.64590073], [3.045306, 50.64592765], [3.04529192, 50.64596804], [3.04529623, 50.64605329], [3.04525392, 50.64608023], [3.04521163, 50.64614306], [3.04521166, 50.64617896], [3.04523569, 50.64621485], [3.04514119, 50.64628667], [3.04512005, 50.64632706], [3.04503821, 50.64635222], [3.04497192, 50.64639442], [3.04492963, 50.64645726], [3.04488037, 50.64661881], [3.04473939, 50.64679385], [3.04469283, 50.646819], [3.04465755, 50.64682529], [3.04457285, 50.64680558], [3.0444853, 50.64676254], [3.0444246, 50.64674461], [3.04437944, 50.6467536], [3.04437801, 50.64675337], [3.04418633, 50.64691186], [3.04419893, 50.64692866], [3.04419194, 50.64700315], [3.04424557, 50.64700044], [3.0442978, 50.64701208], [3.04453511, 50.6472202], [3.04458736, 50.64725428], [3.04466498, 50.6472381], [3.04471439, 50.64724975], [3.04474689, 50.64729191], [3.0448274, 50.64735291], [3.04491211, 50.6473798], [3.04510981, 50.64749639], [3.04511687, 50.64749818], [3.04518743, 50.6474847], [3.04527919, 50.64750082], [3.0453286, 50.64751426], [3.04538228, 50.64756091], [3.04539925, 50.64759231], [3.04539226, 50.64767577], [3.0453965, 50.64767756], [3.04543462, 50.6476937], [3.04548403, 50.64769548], [3.04553343, 50.64769367], [3.04555882, 50.6476775], [3.04557292, 50.64765955], [3.04557573, 50.64764609], [3.04553333, 50.64758329], [3.04554459, 50.64755636], [3.04556152, 50.6475411], [3.04563913, 50.64752043], [3.04568854, 50.64753208], [3.04590034, 50.64762623], [3.04600344, 50.64769529], [3.04601051, 50.64770426], [3.04602041, 50.64772669], [3.04600351, 50.64776708], [3.04597106, 50.64778773], [3.04582005, 50.64780305], [3.0457989, 50.64782998], [3.0457594, 50.64785243], [3.04576364, 50.64785691], [3.04578765, 50.64787306], [3.04587234, 50.64787033], [3.04595704, 50.64789274], [3.04602758, 50.64785502], [3.04609532, 50.64783884], [3.04613343, 50.64784601], [3.04614755, 50.64785049], [3.04616591, 50.64786574], [3.04617299, 50.64788368], [3.04625344, 50.64788186], [3.04628871, 50.64785941], [3.0463381, 50.64784772], [3.04638751, 50.64785937], [3.04645105, 50.64788627], [3.04646941, 50.64790152], [3.04647931, 50.64792395], [3.04647668, 50.64792885], [3.04651462, 50.64794458], [3.04656262, 50.64795982], [3.04662896, 50.64796338], [3.0466826, 50.64796426], [3.04670072, 50.64796398], [3.04669106, 50.64795079], [3.04670233, 50.64792835], [3.04671925, 50.64791309], [3.04677569, 50.64789512], [3.04693094, 50.6478816]], [[3.0459767, 50.6462397], [3.04602609, 50.64622802], [3.04608256, 50.64624415], [3.04610092, 50.64625491], [3.04611084, 50.64629978], [3.04613204, 50.64633567], [3.04610104, 50.64638504], [3.04606587, 50.64651069], [3.04604048, 50.64653134], [3.04598404, 50.64654213], [3.04594169, 50.64653586], [3.04592757, 50.64653138], [3.04590356, 50.64651075], [3.04589224, 50.64648383], [3.04592462, 50.64639407], [3.04595273, 50.64625945], [3.0459767, 50.6462397]], [[3.04458963, 50.64503947], [3.04452896, 50.64505744], [3.04449367, 50.64505117], [3.04434543, 50.64500635], [3.04423953, 50.64494985], [3.04418312, 50.64499744], [3.04411962, 50.64501541], [3.04412388, 50.64504861], [3.04420441, 50.64513832], [3.04419455, 50.64516076], [3.0441875, 50.64516974], [3.04407743, 50.64518593], [3.04401817, 50.6452057], [3.04397158, 50.64519494], [3.04389815, 50.64514741], [3.04386283, 50.64510255], [3.04385152, 50.64508281], [3.04391921, 50.64502176], [3.0439474, 50.64497688], [3.04393601, 50.64486471], [3.04392188, 50.64484497], [3.04383719, 50.64484231], [3.04375251, 50.64484503], [3.04363964, 50.64488097], [3.04361141, 50.64488546], [3.04349144, 50.64487833], [3.04341382, 50.64489002], [3.04338562, 50.64491875], [3.04338285, 50.64497259], [3.04331515, 50.64502915], [3.04326999, 50.64503994], [3.04322341, 50.64502918], [3.04321352, 50.64502201], [3.04320646, 50.64501304], [3.04319515, 50.64499061], [3.04323039, 50.64494572], [3.04322757, 50.64494124], [3.04318803, 50.64491702], [3.04314285, 50.64490537], [3.04313582, 50.64493678], [3.04306109, 50.64502027], [3.04301876, 50.64502926], [3.04301594, 50.64503105], [3.04296935, 50.6450203], [3.04289594, 50.64499071], [3.0428818, 50.64496379], [3.04287756, 50.644962], [3.04293116, 50.64491442], [3.0429523, 50.64487851], [3.04297628, 50.64486774], [3.04301156, 50.64486054], [3.04301862, 50.64486323], [3.0431146, 50.64487846], [3.04311036, 50.644865], [3.0431174, 50.64484705], [3.04303265, 50.64477349], [3.04297336, 50.64475287], [3.04293803, 50.64469904], [3.04293096, 50.64468109], [3.04287731, 50.64466585], [3.04286743, 50.64465868], [3.04286036, 50.6446497], [3.04284905, 50.64462548], [3.04286736, 50.64458688], [3.04288429, 50.64457162], [3.04292662, 50.64456263], [3.04293085, 50.64455994], [3.04300427, 50.64458953], [3.04312425, 50.64461192], [3.04316379, 50.64463614], [3.0432062, 50.64470792], [3.04327253, 50.6447061], [3.0433572, 50.6446971], [3.04362529, 50.64461623], [3.04376637, 50.64455067], [3.04380872, 50.64456232], [3.04382708, 50.64457757], [3.04384124, 50.64462693], [3.0438582, 50.64465833], [3.04384129, 50.64468975], [3.04384132, 50.64471667], [3.04396833, 50.64470316], [3.0440135, 50.64471481], [3.04405305, 50.644748], [3.04406721, 50.64479736], [3.04417306, 50.64479732], [3.04417588, 50.64479552], [3.04415885, 50.64468963], [3.04413342, 50.64465644], [3.04415173, 50.64461784], [3.0441757, 50.6445936], [3.04421804, 50.64458462], [3.04422227, 50.64458192], [3.04428863, 50.64460703], [3.04439448, 50.64461147], [3.04442275, 50.64465813], [3.04441574, 50.64471467], [3.04447221, 50.6447326], [3.04453574, 50.64474604], [3.0445541, 50.64476129], [3.044564, 50.64478372], [3.04453298, 50.64482411], [3.04451475, 50.64494796], [3.04454298, 50.64495244], [3.04458251, 50.64496768], [3.04460654, 50.64500805], [3.04458963, 50.64503947]], [[3.04485315, 50.64458439], [3.04493782, 50.6445682], [3.04499853, 50.64459062], [3.04506209, 50.64464893], [3.04510027, 50.64472788], [3.04509041, 50.64474763], [3.04507207, 50.64476379], [3.04502692, 50.64477458], [3.04496621, 50.64475485], [3.04492387, 50.64475487], [3.04489565, 50.64476385], [3.04485336, 50.6448222], [3.04480821, 50.64483299], [3.04477574, 50.64482672], [3.04474468, 50.64481057], [3.0447263, 50.64477738], [3.04474037, 50.64472981], [3.04472335, 50.64463559], [3.04485315, 50.64458439]], [[3.04403858, 50.64433969], [3.04396088, 50.64425895], [3.04390719, 50.64418538], [3.04391846, 50.64416473], [3.04393538, 50.64414947], [3.04402708, 50.64410008], [3.04407647, 50.6440884], [3.04411882, 50.64410005], [3.04415131, 50.64413324], [3.04418665, 50.64420502], [3.04421777, 50.64428398], [3.04420791, 50.64430822], [3.04417972, 50.64434861], [3.04415433, 50.64436028], [3.04411623, 50.64436658], [3.04406259, 50.64435583], [3.04403858, 50.64433969]], [[3.04479343, 50.64408814], [3.04486396, 50.64404324], [3.04496266, 50.64393552], [3.04499369, 50.64392025], [3.04504309, 50.64391575], [3.04506845, 50.64387266], [3.04515589, 50.64380353], [3.04517, 50.64379904], [3.04524761, 50.64378734], [3.04528997, 50.64379899], [3.04530833, 50.64381424], [3.04531822, 50.64383488], [3.04529427, 50.64387258], [3.04525195, 50.64389952], [3.04519837, 50.64395159], [3.0451137, 50.64396687], [3.04509253, 50.64396509], [3.04507564, 50.64402073], [3.04506155, 50.64404766], [3.04498397, 50.64409704], [3.04489512, 50.64417156], [3.04484997, 50.64418235], [3.04480339, 50.6441716], [3.04478643, 50.64415545], [3.04477513, 50.64413571], [3.04477936, 50.64413302], [3.04479343, 50.64408814]], [[3.04383653, 50.64408669], [3.0437942, 50.64409298], [3.0437095, 50.64407327], [3.04365019, 50.6440347], [3.0435937, 50.64398985], [3.04356544, 50.64395396], [3.04355412, 50.64392256], [3.04356539, 50.64389115], [3.04356817, 50.64384897], [3.04344112, 50.6438176], [3.04339594, 50.64379698], [3.04337757, 50.64376378], [3.04338176, 50.6437207], [3.04331822, 50.64368483], [3.04331116, 50.64367586], [3.04328285, 50.64358612], [3.04326872, 50.64356818], [3.04303152, 50.64344532], [3.0430075, 50.64342468], [3.04299617, 50.64336905], [3.04301449, 50.64333943], [3.04309492, 50.64332594], [3.04322895, 50.64327205], [3.0432713, 50.6432837], [3.04328966, 50.64329895], [3.04329962, 50.64338869], [3.04331375, 50.64341381], [3.04334199, 50.64342277], [3.04341257, 50.64343621], [3.04350154, 50.64350528], [3.04353684, 50.64352322], [3.04355097, 50.64354116], [3.04356796, 50.64359949], [3.04355811, 50.64363987], [3.04355391, 50.64367398], [3.04358214, 50.64368294], [3.04360755, 50.64368473], [3.04362447, 50.64366946], [3.04367103, 50.64365778], [3.04371621, 50.64366943], [3.0437275, 50.64367571], [3.04373457, 50.64368468], [3.04374447, 50.64370711], [3.04372756, 50.64373853], [3.04370925, 50.64378789], [3.04372762, 50.64381032], [3.04373754, 50.64385339], [3.04380811, 50.64386234], [3.04386458, 50.64387578], [3.04389281, 50.64388475], [3.04392529, 50.64390897], [3.0439352, 50.64394307], [3.04392535, 50.64397627], [3.04386193, 50.64407501], [3.04383653, 50.64408669]], [[3.04296504, 50.64327663], [3.0429086, 50.64329459], [3.04283378, 50.64327488], [3.04280978, 50.64325873], [3.04278857, 50.64321836], [3.04277444, 50.64320041], [3.04267844, 50.64315827], [3.04265018, 50.64312238], [3.04266145, 50.64310174], [3.04267838, 50.64308647], [3.0427066, 50.64307749], [3.04290415, 50.64303883], [3.04295779, 50.64305676], [3.04297475, 50.64308637], [3.04293668, 50.64312856], [3.04293247, 50.643151], [3.04295087, 50.64320933], [3.04298195, 50.6432479], [3.04296504, 50.64327663]], [[3.04253734, 50.64319421], [3.04233977, 50.643223], [3.04228755, 50.64321404], [3.04226216, 50.64323469], [3.04222689, 50.64324368], [3.04204342, 50.6432572], [3.04199122, 50.64327247], [3.04194464, 50.64326172], [3.04192063, 50.64324109], [3.04190932, 50.64322135], [3.04193752, 50.64318544], [3.04205746, 50.64316297], [3.04209273, 50.64314501], [3.04214212, 50.64313601], [3.04214917, 50.64313332], [3.04225504, 50.64315392], [3.04225927, 50.64315572], [3.04229735, 50.64312699], [3.04231146, 50.6431225], [3.0424032, 50.64312426], [3.04255136, 50.6430928], [3.04260501, 50.64311073], [3.04262197, 50.64314034], [3.04259377, 50.64317624], [3.04253734, 50.64319421]], [[3.04185996, 50.64326175], [3.04184305, 50.64329496], [3.04182471, 50.64331112], [3.04173299, 50.6433264], [3.0416483, 50.64331566], [3.04160312, 50.64329055], [3.04154663, 50.6432457], [3.04152826, 50.6432143], [3.04154658, 50.64318288], [3.04159877, 50.64314966], [3.04164815, 50.64313798], [3.0417018, 50.64315591], [3.04173288, 50.64319897], [3.04176111, 50.64320345], [3.041843, 50.64323214], [3.04185713, 50.64325906], [3.04185996, 50.64326175]], [[3.04162382, 50.64272966], [3.04153489, 50.64270546], [3.04151794, 50.64268931], [3.04150663, 50.64266957], [3.04151791, 50.64264893], [3.04156022, 50.6426175], [3.04157008, 50.64259507], [3.04154605, 50.64254572], [3.04144999, 50.64243357], [3.04150358, 50.6423842], [3.04156698, 50.64225405], [3.04160507, 50.64223878], [3.04171796, 50.64222708], [3.04176031, 50.64223873], [3.04177161, 50.64224501], [3.04177867, 50.64225398], [3.04180272, 50.64232128], [3.04178581, 50.64235718], [3.04172234, 50.6423931], [3.04169711, 50.642604], [3.04171127, 50.64265784], [3.0417014, 50.64268028], [3.04168026, 50.64271169], [3.04166898, 50.64271888], [3.04162382, 50.64272966]], [[3.03945265, 50.64199718], [3.03946392, 50.64197654], [3.03948085, 50.64196127], [3.03949496, 50.64195678], [3.03954435, 50.64194959], [3.03976313, 50.64199708], [3.03982666, 50.64202398], [3.03983796, 50.64203026], [3.03985492, 50.64205987], [3.0398521, 50.64206167], [3.03983801, 50.64208859], [3.0397985, 50.64210476], [3.03972089, 50.64212004], [3.03967149, 50.64210929], [3.03961501, 50.64207341], [3.03955855, 50.64206894], [3.03950209, 50.6420555], [3.03948515, 50.64204384], [3.03945265, 50.64199718]], [[3.0402949, 50.63987183], [3.04028359, 50.63984939], [3.04030191, 50.63981798], [3.04031884, 50.6398072], [3.04043172, 50.63978473], [3.04060106, 50.63978019], [3.04063633, 50.63976223], [3.04072804, 50.63974425], [3.04076047, 50.63971014], [3.04078445, 50.63969487], [3.04081266, 50.6396814], [3.04088321, 50.63965895], [3.04105254, 50.63963645], [3.04109487, 50.63962747], [3.0411484, 50.63952155], [3.04117652, 50.63939142], [3.04119344, 50.63937616], [3.04124706, 50.63935998], [3.04126116, 50.63934203], [3.04128228, 50.63928369], [3.04131331, 50.63926394], [3.04136269, 50.63925226], [3.04140503, 50.63926391], [3.04141633, 50.63927019], [3.04142339, 50.63927916], [3.04144744, 50.63934646], [3.04140938, 50.6394048], [3.04140517, 50.63942724], [3.04141931, 50.63946582], [3.04147297, 50.63950798], [3.041473, 50.63954388], [3.04144763, 50.63957979], [3.04147306, 50.63961119], [3.04149003, 50.63965426], [3.04145197, 50.63970991], [3.04139837, 50.63974403], [3.04099623, 50.63981147], [3.04077754, 50.63986987], [3.04062937, 50.63988338], [3.04037255, 50.63992116], [3.04034009, 50.63991489], [3.04031609, 50.63990323], [3.0402949, 50.63987183]], [[3.04141829, 50.6382229], [3.04152411, 50.63820671], [3.04157775, 50.63822464], [3.04159471, 50.63825425], [3.04157091, 50.6384804], [3.04155686, 50.6385522], [3.04154277, 50.63857913], [3.0414793, 50.63862402], [3.04147512, 50.63868684], [3.0414794, 50.63874966], [3.0415359, 50.63880349], [3.04155286, 50.63883938], [3.04154302, 50.63888425], [3.04150358, 50.63896952], [3.04150781, 50.63897401], [3.04153185, 50.63903233], [3.04150791, 50.63909067], [3.04150088, 50.6391176], [3.04148679, 50.63914452], [3.04143035, 50.63916249], [3.04138377, 50.63915174], [3.04134565, 50.63912662], [3.04132728, 50.63909073], [3.04133146, 50.63903689], [3.04132017, 50.63903061], [3.04126371, 50.63901716], [3.04125383, 50.63900999], [3.04123546, 50.63898128], [3.04125378, 50.63895166], [3.04132008, 50.63891574], [3.04125371, 50.63887089], [3.04123534, 50.63883948], [3.04125366, 50.63880807], [3.04130584, 50.63876318], [3.04127472, 50.63867794], [3.04122104, 50.63861334], [3.04123231, 50.63858821], [3.04125346, 50.63856128], [3.04128449, 50.63854601], [3.04134798, 50.63853253], [3.04135927, 50.63852535], [3.04140156, 50.63847149], [3.04140436, 50.63844456], [3.04140151, 50.63841764], [3.04138739, 50.6383997], [3.0413309, 50.63835036], [3.04131959, 50.63832793], [3.04133086, 50.63830549], [3.041376, 50.63828124], [3.04140418, 50.63822739], [3.04141829, 50.6382229]], [[3.04596258, 50.63852193], [3.04595546, 50.63845642], [3.04596251, 50.63844296], [3.04594554, 50.63840707], [3.04592011, 50.63837387], [3.04592434, 50.63837118], [3.04593843, 50.63834425], [3.04596241, 50.63833347], [3.04619239, 50.63829031], [3.04625873, 50.63830644], [3.04642104, 50.63832612], [3.04648168, 50.63829021], [3.0464845, 50.63828123], [3.04645625, 50.63825701], [3.04617817, 50.63816917], [3.04615694, 50.63810187], [3.04608205, 50.63799421], [3.04610317, 50.63794933], [3.04610034, 50.63794035], [3.04605091, 50.63789101], [3.04603253, 50.63785961], [3.046072, 50.63780575], [3.04607239, 50.6378055], [3.04593393, 50.63763518], [3.04593354, 50.63763529], [3.04589826, 50.63762902], [3.04587003, 50.63761737], [3.0458277, 50.63762636], [3.04572609, 50.63762639], [3.04567246, 50.63761564], [3.04562728, 50.63759502], [3.04560891, 50.63756631], [3.04562723, 50.63753669], [3.04566531, 50.63751693], [3.04570764, 50.63750794], [3.04576121, 50.6374469], [3.04577108, 50.63744061], [3.0459404, 50.63741991], [3.04604625, 50.63742705], [3.04608855, 50.63739562], [3.04613793, 50.63738394], [3.04618028, 50.63739559], [3.04619157, 50.63740187], [3.04624101, 50.63745569], [3.04624809, 50.63747364], [3.0463003, 50.63747182], [3.04634263, 50.63746463], [3.04643437, 50.63748075], [3.0465473, 50.63752109], [3.04656566, 50.63753634], [3.04657556, 50.63755877], [3.04657013, 50.63757111], [3.04678908, 50.63770904], [3.04680148, 50.63770676], [3.04690734, 50.63773364], [3.04699907, 50.63773361], [3.04704843, 50.63770487], [3.04706254, 50.63770038], [3.04713309, 50.63769587], [3.04720363, 50.6376752], [3.04720364, 50.63767789], [3.04728832, 50.63769581], [3.04732081, 50.63772451], [3.04733775, 50.63773348], [3.04736596, 50.6377227], [3.04740124, 50.63771551], [3.04745064, 50.63772716], [3.04750429, 50.63776034], [3.04752126, 50.63779623], [3.04752838, 50.63786174], [3.04751147, 50.63789046], [3.04750019, 50.63789765], [3.04748608, 50.63790214], [3.04744375, 50.63790844], [3.04744291, 50.63790829], [3.04726442, 50.6380654], [3.04726468, 50.63806555], [3.04727882, 50.63809247], [3.04730707, 50.63811938], [3.04731698, 50.63815079], [3.04730717, 50.63822707], [3.04737349, 50.63822525], [3.04745531, 50.63819112], [3.04750048, 50.63820277], [3.04751177, 50.63820905], [3.04751884, 50.63821802], [3.04752874, 50.63824045], [3.04751183, 50.63827187], [3.04743003, 50.63831946], [3.04734537, 50.63833296], [3.04723248, 50.63833749], [3.04716194, 50.63835546], [3.04708858, 50.63837972], [3.047042, 50.63836897], [3.04699964, 50.63834386], [3.04683744, 50.63843186], [3.04670341, 50.63847409], [3.04661873, 50.63846066], [3.04654111, 50.6384589], [3.04649875, 50.63843648], [3.04644935, 50.63842483], [3.04639011, 50.63845178], [3.04634358, 50.63849487], [3.04628714, 50.63850386], [3.04614602, 50.6385084], [3.04610795, 50.63854162], [3.04608686, 50.6386224], [3.04606147, 50.63863407], [3.04603043, 50.63864037], [3.04598385, 50.63862962], [3.04594572, 50.6386045], [3.04593159, 50.63858656], [3.04592028, 50.63856413], [3.0459386, 50.63853271], [3.04596258, 50.63852193]], [[3.04571178, 50.63740653], [3.04567655, 50.6374559], [3.04563705, 50.63747207], [3.04561306, 50.63747387], [3.04560602, 50.63749182], [3.04558769, 50.63750799], [3.04553549, 50.63751877], [3.04549597, 50.63751251], [3.04545785, 50.63749188], [3.04542537, 50.63746766], [3.04537316, 50.63746499], [3.04535907, 50.63749192], [3.04534073, 50.63750359], [3.0452843, 50.63751438], [3.04518551, 50.63751262], [3.04513616, 50.63755302], [3.04509101, 50.63756381], [3.04503032, 50.63754857], [3.04499219, 50.63752346], [3.04497382, 50.63749475], [3.04498509, 50.6374741], [3.04500201, 50.63745884], [3.04506973, 50.63743818], [3.04507674, 50.63737984], [3.0451007, 50.63734663], [3.04516842, 50.63733045], [3.04520652, 50.63733761], [3.04526019, 50.63738426], [3.04528419, 50.63739323], [3.04534767, 50.63737346], [3.04543657, 50.63736625], [3.04547882, 50.63727649], [3.04549292, 50.63725854], [3.0455169, 50.63724776], [3.04555217, 50.63724057], [3.04560863, 50.6372567], [3.04569758, 50.63730333], [3.04571454, 50.63733922], [3.04572164, 50.63738678], [3.04571178, 50.63740653]], [[3.04489621, 50.63749478], [3.04484401, 50.63750556], [3.04462102, 50.6374859], [3.04458577, 50.63750835], [3.04454062, 50.63751913], [3.04438115, 50.63751291], [3.04432189, 50.63752819], [3.04426826, 50.63751295], [3.04417652, 50.63750401], [3.04415958, 50.63748786], [3.04414827, 50.63746812], [3.04416659, 50.6374385], [3.04420184, 50.63741156], [3.04422582, 50.63740079], [3.0442611, 50.6373936], [3.04433167, 50.63741152], [3.0444869, 50.63741146], [3.04463504, 50.63738269], [3.04477614, 50.637362], [3.04484672, 50.63738262], [3.04490744, 50.63742926], [3.04492158, 50.63745618], [3.0449244, 50.63745887], [3.04490749, 50.63748759], [3.04489621, 50.63749478]], [[3.04582123, 50.63826802], [3.04581423, 50.63833084], [3.0457762, 50.63841162], [3.04575787, 50.63842778], [3.04571272, 50.63843857], [3.0456097, 50.63843681], [3.04558573, 50.63845207], [3.0455533, 50.63848619], [3.04551803, 50.63849966], [3.04548276, 50.63850596], [3.04543336, 50.63849521], [3.0454023, 50.63847906], [3.04538109, 50.6384342], [3.0453246, 50.63839384], [3.0453133, 50.6383741], [3.04534146, 50.63830858], [3.04533862, 50.63829063], [3.04529906, 50.63823949], [3.04534557, 50.63816499], [3.04536954, 50.63814523], [3.04542596, 50.63811829], [3.04554588, 50.63808863], [3.04563767, 50.63815411], [3.04580426, 50.63822764], [3.04582123, 50.63826802]], [[3.04546279, 50.64294818], [3.04544865, 50.64292126], [3.04544442, 50.64291947], [3.04546274, 50.64288985], [3.04550083, 50.64287458], [3.04548668, 50.64283869], [3.045505, 50.64280907], [3.04554733, 50.64279559], [3.04590982, 50.64256033], [3.04619196, 50.64242562], [3.0464318, 50.64233579], [3.04658701, 50.64229534], [3.04693976, 50.64222072], [3.04699623, 50.64223686], [3.04715148, 50.64224577], [3.04717974, 50.64228794], [3.04716989, 50.64231487], [3.04714169, 50.64233731], [3.04710927, 50.64238937], [3.04702461, 50.64240736], [3.04693994, 50.64241187], [3.04688352, 50.64244779], [3.046789, 50.64249001], [3.04676083, 50.64254386], [3.04676086, 50.64257976], [3.04681029, 50.64261115], [3.04682725, 50.64264255], [3.04676805, 50.64272334], [3.04673278, 50.6427413], [3.04669763, 50.64287593], [3.04665816, 50.64293248], [3.04660878, 50.64294327], [3.04651703, 50.64293253], [3.04647185, 50.64291191], [3.04644358, 50.64286705], [3.04640406, 50.64286527], [3.04633348, 50.64285184], [3.04605828, 50.64285822], [3.04596655, 50.64285646], [3.04588891, 50.64284303], [3.04586068, 50.64283137], [3.04581129, 50.64284306], [3.04563207, 50.64285838], [3.04564198, 50.64289248], [3.04563212, 50.64291671], [3.04559687, 50.64294813], [3.04557147, 50.64295981], [3.04552914, 50.6429661], [3.04546279, 50.64294818]]]]}, "geometry_name": "geom", "properties": {"id": "FORESTIE0000000005908768", "code_tfv": "FF1-00-00", "tfv": "For\u00eat ferm\u00e9e \u00e0 m\u00e9lange de feuillus", "tfv_g11": "For\u00eat ferm\u00e9e feuillus", "essence": "Feuillus"}}, {"type": "Feature", "id": "formation_vegetale.1110019", "geometry": {"type": "MultiPolygon", "coordinates": [[[[3.05077112, 50.63772315], [3.05073156, 50.63768099], [3.05074283, 50.63766034], [3.0507668, 50.6376361], [3.05078091, 50.63763161], [3.05089378, 50.63761541], [3.05097567, 50.63765127], [3.05103918, 50.63766022], [3.05109838, 50.63759558], [3.05112372, 50.63753455], [3.05114064, 50.63752377], [3.05126761, 50.63748782], [3.05128167, 50.63743577], [3.05127876, 50.63735051], [3.05129568, 50.63733525], [3.05139159, 50.63729213], [3.05139438, 50.63725623], [3.05139152, 50.63722034], [3.05138021, 50.6372006], [3.05135198, 50.63719164], [3.05132797, 50.63717549], [3.05127852, 50.63711718], [3.05126012, 50.63706155], [3.05126642, 50.6370475], [3.05116625, 50.6369512], [3.05050641, 50.63631685], [3.050478, 50.63629193], [3.05047587, 50.63628999], [3.05047555, 50.63628967], [3.05043212, 50.63624786], [3.05043175, 50.63624752], [3.05040202, 50.63621929], [3.0503632, 50.63622013], [3.05032086, 50.63621387], [3.05029685, 50.63620221], [3.05025535, 50.63615808], [3.05016745, 50.63615918], [3.05016558, 50.63615919], [3.05015912, 50.63615906], [3.05015268, 50.63615866], [3.05014863, 50.63615826], [3.04840571, 50.63596601], [3.04840344, 50.63596574], [3.0474172, 50.63584181], [3.04741358, 50.63584258], [3.04734304, 50.63586504], [3.04730072, 50.63587134], [3.04721604, 50.6358624], [3.0471737, 50.63585613], [3.04715959, 50.63585165], [3.04712852, 50.63583102], [3.04711439, 50.63580411], [3.04706077, 50.63580861], [3.04700431, 50.63579787], [3.0469902, 50.63578815], [3.04698054, 50.63578694], [3.0467237, 50.63575831], [3.04671218, 50.63576836], [3.04670796, 50.63578182], [3.04672633, 50.63580874], [3.04674048, 50.63584912], [3.04676449, 50.63586526], [3.04689855, 50.63587867], [3.04692399, 50.63591187], [3.04705811, 50.6359881], [3.04707507, 50.63601771], [3.04706522, 50.63603746], [3.04696226, 50.63610301], [3.04693405, 50.63611199], [3.04690998, 50.63619214], [3.04713221, 50.63632095], [3.04713604, 50.63632012], [3.04720943, 50.63633176], [3.04723484, 50.63634251], [3.0472518, 50.63637392], [3.0472208, 50.63642329], [3.04720253, 50.63650406], [3.04720679, 50.63653098], [3.0472308, 50.6365561], [3.0472802, 50.63656685], [3.04731265, 50.63655787], [3.04734788, 50.63650401], [3.04737185, 50.63647977], [3.0474184, 50.63646808], [3.04744945, 50.63647525], [3.04751722, 50.63651292], [3.04754547, 50.63653983], [3.04757376, 50.63661161], [3.04759777, 50.63662776], [3.04760581, 50.63662878], [3.0477389, 50.63664565], [3.04776431, 50.63665641], [3.04777844, 50.63667435], [3.04782791, 50.63676408], [3.04788012, 50.63676226], [3.04804234, 50.63669669], [3.04811998, 50.6367173], [3.04814539, 50.63673254], [3.04816661, 50.63678189], [3.0482019, 50.63679983], [3.04822593, 50.63683841], [3.04820902, 50.63686713], [3.04812723, 50.63691922], [3.04809196, 50.6369282], [3.04807363, 50.63695244], [3.0480539, 50.63697937], [3.04803557, 50.63699104], [3.04795799, 50.63703146], [3.04784232, 50.63706919], [3.04783809, 50.63707368], [3.04782399, 50.63709164], [3.04784236, 50.63711407], [3.04784797, 50.63711784], [3.04792281, 50.63713109], [3.04820928, 50.63718157], [3.04823332, 50.63718391], [3.04824673, 50.63718817], [3.0483547, 50.6372072], [3.04864349, 50.63725438], [3.04866799, 50.63722144], [3.04869197, 50.63721066], [3.04872442, 50.63720347], [3.04875547, 50.63721063], [3.04878088, 50.63722139], [3.04882754, 50.63729051], [3.0489015, 50.63730717], [3.04891785, 50.63730659], [3.04895313, 50.63731376], [3.04902411, 50.63733379], [3.04905194, 50.63733974], [3.04933988, 50.63740783], [3.04955867, 50.63747057], [3.0499648, 50.63758697], [3.05011765, 50.6376229], [3.05014821, 50.63763954], [3.05030009, 50.63768308], [3.05037879, 50.63769639], [3.05046346, 50.63769456], [3.05051992, 50.63771248], [3.05060464, 50.63775732], [3.0506752, 50.63776178], [3.05073165, 50.63776804], [3.05075987, 50.63776623], [3.05077116, 50.63775905], [3.05077112, 50.63772315]], [[3.05046025, 50.63731046], [3.05040658, 50.63726831], [3.05033321, 50.63727462], [3.05028663, 50.63726387], [3.05019191, 50.63709519], [3.05013825, 50.63705303], [3.05005356, 50.63703512], [3.05001122, 50.63703244], [3.04990964, 50.63705043], [3.04975723, 50.6370487], [3.04973323, 50.63703704], [3.04971909, 50.63701013], [3.04971484, 50.63699487], [3.04972609, 50.63695179], [3.04959485, 50.63695005], [3.04954262, 50.63693391], [3.04953556, 50.63692494], [3.04951011, 50.6368756], [3.04954253, 50.6368352], [3.04956644, 50.63675711], [3.04967226, 50.63674361], [3.04972587, 50.63672743], [3.04975692, 50.6367346], [3.04985289, 50.63674533], [3.04986698, 50.63672738], [3.04994032, 50.63668517], [3.04998264, 50.63667618], [3.05001792, 50.63667347], [3.05006027, 50.63668512], [3.05013794, 50.63674342], [3.05015911, 50.63674521], [3.05021978, 50.63673621], [3.050272, 50.63674785], [3.05029036, 50.63675862], [3.05031864, 50.63681694], [3.05032146, 50.63681963], [3.05026931, 50.63688426], [3.05023687, 50.63690043], [3.05025808, 50.63693811], [3.05025104, 50.63694978], [3.05032159, 50.63695155], [3.05039215, 50.63695421], [3.0504345, 50.63696317], [3.05048816, 50.63700084], [3.05050514, 50.6370484], [3.05053337, 50.63705287], [3.0505729, 50.63706811], [3.05059693, 50.63710849], [3.05059414, 50.6371399], [3.05063225, 50.63715604], [3.05065061, 50.6371668], [3.05066478, 50.63722961], [3.05070293, 50.63727716], [3.05068604, 50.63731934], [3.05066066, 50.63734], [3.05064656, 50.63734449], [3.05061128, 50.63735079], [3.05056188, 50.63734004], [3.05050543, 50.63733108], [3.05046025, 50.63731046]]]]}, "geometry_name": "geom", "properties": {"id": "FORESTIE0000000005908763", "code_tfv": "FF1-00-00", "tfv": "For\u00eat ferm\u00e9e \u00e0 m\u00e9lange de feuillus", "tfv_g11": "For\u00eat ferm\u00e9e feuillus", "essence": "Feuillus"}}], "totalFeatures": 6, "numberMatched": 6, "numberReturned": 6, "timeStamp": "2026-09-21T10:18:19.973Z", "crs": {"type": "name", "properties": {"name": "urn:ogc:def:crs:EPSG::4326"}}}