{"type": "FeatureCollection", "features": [{"type": "Feature", "id": "haie.56332", "geometry": {"type": "LineString", "coordinates": [[3.04707128, 50.64552312], [3.04722522, 50.64561819], [3.04731705, 50.64571328], [3.04734105, 50.64572493], [3.04749066, 50.64572936]]}, "geometry_name": "geometrie", "properties": {"cleabs": "HAIELINE0000002240943397", "date_creation": "2021-05-17T16:15:17.982Z", "date_modification": "2023-08-25T08:47:56.091Z", "date_d_apparition": null, "date_de_confirmation": null, "hauteur": null, "largeur": null, "sources": "DSB", "identifiants_sources": "DSB:HAIELIGN0000000000144245", "methode_d_acquisition_planimetrique": "Orthophotographie", "precision_planimetrique": 3}}, {"type": "Feature", "id": "haie.1508071", "geometry": {"type": "LineString", "coordinates": [[3.04655451, 50.64529806], [3.04661667, 50.64536535], [3.04661816, 50.6454506], [3.04676361, 50.64552952], [3.04696419, 50.64570803], [3.04701641, 50.64570531], [3.04712372, 50.64575373], [3.04731711, 50.64578058]]}, "geometry_name": "geometrie", "properties": {"cleabs": "HAIELINE0000002240941969", "date_creation": "2021-05-17T16:15:17.982Z", "date_modification": "2023-08-25T08:47:56.091Z", "date_d_apparition": null, "date_de_confirmation": null, "hauteur": null, "largeur": null, "sources": "DSB", "identifiants_sources": "DSB:HAIELIGN0000000000142816", "methode_d_acquisition_planimetrique": "Orthophotographie", "precision_planimetrique": 3}}, {"type": "Feature", "id": "haie.1508186", "geometry": {"type": "LineString", "coordinates": [[3.04265555, 50.6461188], [3.04286453, 50.64623001], [3.04307489, 50.64630173], [3.04323307, 50.64641475], [3.04351685, 50.64651516], [3.04361432, 50.64660486], [3.04379789, 50.64670621], [3.0442257, 50.64687925]]}, "geometry_name": "geometrie", "properties": {"cleabs": "HAIELINE0000002240943605", "date_creation": "2021-05-17T16:15:17.982Z", "date_modification": "2023-08-25T08:47:56.091Z", "date_d_apparition": null, "date_de_confirmation": null, "hauteur": null, "largeur": null, "sources": "DSB", "identifiants_sources": "DSB:HAIELIGN0000000000144460", "methode_d_acquisition_planimetrique": "Orthophotographie", "precision_planimetrique": 3}}, {"type": "Feature", "id": "haie.2144798", "geometry": {"type": "LineString", "coordinates": [[3.04792874, 50.64629456], [3.04788489, 50.64620035]]}, "geometry_name": "geometrie", "properties": {"cleabs": "HAIELINE0000002240941491", "date_creation": "2021-05-17T16:15:17.982Z", "date_modification": "2023-08-25T08:47:56.091Z", "date_d_apparition": null, "date_de_confirmation": null, "hauteur": null, "largeur": null, "sources": "DSB", "identifiants_sources": "DSB:HAIELIGN0000000000142338", "methode_d_acquisition_planimetrique": "Orthophotographie", "precision_planimetrique": 3}}, {"type": "Feature", "id": "haie.2144888", "geometry": {"type": "LineString", "coordinates": [[3.04779342, 50.6479638], [3.04787937, 50.6478139], [3.04775637, 50.64759408], [3.04784641, 50.64728713], [3.04782091, 50.64718573], [3.04801522, 50.64670465], [3.0483325, 50.6464012], [3.04843408, 50.64635539], [3.04850736, 50.6462369], [3.04882612, 50.64600973]]}, "geometry_name": "geometrie", "properties": {"cleabs": "HAIELINE0000002240942741", "date_creation": "2021-05-17T16:15:17.982Z", "date_modification": "2023-08-25T08:47:56.091Z", "date_d_apparition": null, "date_de_confirmation": null, "hauteur": null, "largeur": null, "sources": "DSB", "identifiants_sources": "DSB:HAIELIGN0000000000143587", "methode_d_acquisition_planimetrique": "Orthophotographie", "precision_planimetrique": 3}}, {"type": "Feature", "id": "haie.2316477", "geometry": {"type": "LineString", "coordinates": [[3.04029038, 50.63776195], [3.04048371, 50.63776099], [3.0406784, 50.63769542], [3.04076155, 50.63755629]]}, "geometry_name": "geometrie", "properties": {"cleabs": "HAIELINE0000002240941511", "date_creation": "2021-05-17T16:15:17.982Z", "date_modification": "2023-08-25T08:47:56.091Z", "date_d_apparition": null, "date_de_confirmation": null, "hauteur": null, "largeur": null, "sources": "DSB", "identifiants_sources": "DSB:HAIELIGN0000000000142358", "methode_d_acquisition_planimetrique": "Orthophotographie", "precision_planimetrique": 3}}, {"type": "Feature", "id": "haie.2316536", "geometry": {"type": "LineString", "coordinates": [[3.03827139, 50.63828848], [3.03838146, 50.63828306], [3.03854937, 50.63824532], [3.03867214, 50.63824887], [3.03881182, 50.63821383], [3.03906302, 50.63822093]]}, "geometry_name": "geometrie", "properties": {"cleabs": "HAIELINE0000002240942287", "date_creation": "2021-05-17T16:15:17.982Z", "date_modification": "2023-08-25T08:47:56.091Z", "date_d_apparition": null, "date_de_confirmation": null, "hauteur": null, "largeur": null, "sources": "DSB", "identifiants_sources": "DSB:HAIELIGN0000000000143137", "methode_d_acquisition_planimetrique": "Orthophotographie", "precision_planimetrique": 3}}, {"type": "Feature", "id": "haie.2316556", "geometry": {"type": "LineString", "coordinates": [[3.04052196, 50.63794585], [3.04055294, 50.63785879], [3.04080405, 50.63776358], [3.04089295, 50.63775637]]}, "geometry_name": "geometrie", "properties": {"cleabs": "HAIELINE0000002240942647", "date_creation": "2021-05-17T16:15:17.982Z", "date_modification": "2023-08-25T08:47:56.091Z", "date_d_apparition": null, "date_de_confirmation": null, "hauteur": null, "largeur": null, "sources": "DSB", "identifiants_sources": "DSB:HAIELIGN0000000000143495", "methode_d_acquisition_planimetrique": "Orthophotographie", "precision_planimetrique": 3}}, {"type": "Feature", "id": "haie.2316587", "geometry": {"type": "LineString", "coordinates": [[3.0394437, 50.63779094], [3.03953538, 50.63773348], [3.03988947, 50.63758798], [3.03995715, 50.63751976], [3.03999377, 50.63743359], [3.0401659, 50.63739136], [3.04039732, 50.63737154]]}, "geometry_name": "geometrie", "properties": {"cleabs": "HAIELINE0000002240943060", "date_creation": "2021-05-17T16:15:17.982Z", "date_modification": "2023-08-25T08:47:56.091Z", "date_d_apparition": null, "date_de_confirmation": null, "hauteur": null, "largeur": null, "sources": "DSB", "identifiants_sources": "DSB:HAIELIGN0000000000143904", "methode_d_acquisition_planimetrique": "Orthophotographie", "precision_planimetrique": 3}}, {"type": "Feature", "id": "haie.2316591", "geometry": {"type": "LineString", "coordinates": [[3.04240274, 50.64591517], [3.04254105, 50.64591692], [3.04270205, 50.64603084], [3.04294346, 50.64610344], [3.04307621, 50.64619493], [3.04352944, 50.64638503], [3.04366925, 50.646481], [3.0439234, 50.64658322], [3.04415077, 50.646733], [3.04432161, 50.64679935]]}, "geometry_name": "geometrie", "properties": {"cleabs": "HAIELINE0000002240943154", "date_creation": "2021-05-17T16:15:17.982Z", "date_modification": "2023-08-25T08:47:56.091Z", "date_d_apparition": null, "date_de_confirmation": null, "hauteur": null, "largeur": null, "sources": "DSB", "identifiants_sources": "DSB:HAIELIGN0000000000143996", "methode_d_acquisition_planimetrique": "Orthophotographie", "precision_planimetrique": 3}}, {"type": "Feature", "id": "haie.2316617", "geometry": {"type": "LineString", "coordinates": [[3.03721029, 50.63652627], [3.0373289, 50.63663482], [3.03728099, 50.63672458], [3.03736572, 50.6368107], [3.03742937, 50.63700184], [3.03741116, 50.63718222], [3.03748601, 50.63726028], [3.03747338, 50.63735989], [3.03736762, 50.63746313], [3.03734943, 50.63767044], [3.03738625, 50.63784004], [3.0373328, 50.63807787], [3.03742036, 50.63817118], [3.03751915, 50.63818461], [3.03772669, 50.63830121], [3.03811902, 50.6383334]]}, "geometry_name": "geometrie", "properties": {"cleabs": "HAIELINE0000002240943635", "date_creation": "2021-05-17T16:15:17.982Z", "date_modification": "2023-08-25T08:47:56.091Z", "date_d_apparition": null, "date_de_confirmation": null, "hauteur": null, "largeur": null, "sources": "DSB", "identifiants_sources": "DSB:HAIELIGN0000000000144497", "methode_d_acquisition_planimetrique": "Orthophotographie", "precision_planimetrique": 3}}, {"type": "Feature", "id": "haie.4574183", "geometry": {"type": "LineString", "coordinates": [[3.04778077, 50.64654231], [3.04791328, 50.64636457], [3.04801766, 50.6463035], [3.04819252, 50.6461437], [3.04835053, 50.64607184], [3.04853528, 50.6459219], [3.04863677, 50.64578905]]}, "geometry_name": "geometrie", "properties": {"cleabs": "HAIELINE0000002240942523", "date_creation": "2021-05-17T16:15:17.982Z", "date_modification": "2023-08-25T08:47:56.091Z", "date_d_apparition": null, "date_de_confirmation": null, "hauteur": null, "largeur": null, "sources": "DSB", "identifiants_sources": "DSB:HAIELIGN0000000000143371", "methode_d_acquisition_planimetrique": "Orthophotographie", "precision_planimetrique": 3}}, {"type": "Feature", "id": "haie.4922175", "geometry": {"type": "LineString", "coordinates": [[3.04788489, 50.64620035], [3.0479046, 50.64614829], [3.04815721, 50.64611679]]}, "geometry_name": "geometrie", "properties": {"cleabs": "HAIELINE0000002240941490", "date_creation": "2021-05-17T16:15:17.982Z", "date_modification": "2023-08-25T08:47:56.091Z", "date_d_apparition": null, "date_de_confirmation": null, "hauteur": null, "largeur": null, "sources": "DSB", "identifiants_sources": "DSB:HAIELIGN0000000000142337", "methode_d_acquisition_planimetrique": "Orthophotographie", "precision_planimetrique": 3}}, {"type": "Feature", "id": "haie.19930958", "geometry": {"type": "LineString", "coordinates": [[3.04826431, 50.64593906], [3.04834609, 50.64585198], [3.04834036, 50.64576403], [3.04847292, 50.64565181], [3.04847713, 50.64562309]]}, "geometry_name": "geometrie", "properties": {"cleabs": "HAIELINE0000002240943332", "date_creation": "2021-05-17T16:15:17.982Z", "date_modification": "2024-03-15T13:40:02.455Z", "date_d_apparition": null, "date_de_confirmation": null, "hauteur": null, "largeur": null, "sources": "DSB", "identifiants_sources": "DSB:HAIELIGN0000000000144179", "methode_d_acquisition_planimetrique": "Orthophotographie", "precision_planimetrique": 3}}], "totalFeatures": 14, "numberMatched": 14, "numberReturned": 14, "timeStamp": "2026-09-21T09:53:09.726Z", "crs": {"type": "name", "properties": {"name": "urn:ogc:def:crs:EPSG::4326"}}}