{"type": "FeatureCollection", "features": [{"type": "Feature", "id": "surface_hydrographique.67105", "geometry": {"type": "MultiPolygon", "coordinates": [[[[3.04562231, 50.63677564, 19.1], [3.04570135, 50.63679266, 19.3], [3.04771682, 50.63716613, 19.3], [3.04849873, 50.63730582, 19.5], [3.04878807, 50.63736225, 19.5], [3.04910142, 50.63743033, 19.4], [3.05016854, 50.63771707, 19.6], [3.05008821, 50.637823, 19.6], [3.05073755, 50.63801568, 19.7], [3.05077848, 50.63802733, 19.8], [3.05090552, 50.63805869, 18.5], [3.05114262, 50.63807475, 16.4], [3.05127386, 50.63807559, 16.4], [3.05210528, 50.6383005, 16.3], [3.0521603, 50.63828881, 16.3], [3.05229157, 50.63831747, 16.3], [3.05290749, 50.63892297, 15.8], [3.05297246, 50.63897948, 15.8], [3.05289283, 50.6397495, 15.8], [3.05286179, 50.6397522, 15.8], [3.05285479, 50.63980515, 16.2], [3.05284637, 50.63984644, 16.6], [3.05288306, 50.63984912, 16.8], [3.05287329, 50.63995143, 16.7], [3.05281888, 50.64054823, 15.7], [3.05275327, 50.64123478, 15.6], [3.05273516, 50.64145645, 15.5], [3.05267105, 50.64223005, 15.3], [3.05261095, 50.64279186, 15.6], [3.05260117, 50.6428834, 15.6], [3.05258989, 50.64289687, 15.7], [3.05175933, 50.64357656, 15.8], [3.05173536, 50.64359542, 15.8], [3.05145191, 50.64382258, 16.9], [3.05038299, 50.64470069, 17.2], [3.05025889, 50.64480214, 17.2], [3.05019817, 50.64476986, 17.2], [3.05015444, 50.64479321, 17.3], [3.0501206, 50.64482374, 17.8], [3.05018415, 50.6448641, 17.5], [3.04960736, 50.64532291, 17.2], [3.04936479, 50.64551595, 17], [3.04930415, 50.6455743, 17], [3.04900801, 50.64582569, 16.8], [3.0489685, 50.64583917, 16.8], [3.04892475, 50.6458365, 16.8], [3.04885562, 50.64587421, 16.6], [3.04880204, 50.64592539, 16.5], [3.0488063, 50.64595321, 16.5], [3.04879927, 50.64597744, 16.5], [3.04874285, 50.64601784, 16.5], [3.0483127, 50.64635903, 16.3], [3.04814488, 50.64650088, 16.4], [3.04801517, 50.64665349, 16.4], [3.04785027, 50.64689765, 16.4], [3.04774888, 50.64714179, 16.3], [3.04771235, 50.64732128, 16.3], [3.04771526, 50.64741192, 16.3], [3.04772667, 50.64753217, 16.6], [3.04773235, 50.64756537, 16.7], [3.04773803, 50.64760755, 16.6], [3.04774231, 50.64765421, 16.7], [3.04775227, 50.64773767, 16.9], [3.04777779, 50.6478624, 17], [3.04778913, 50.64791085, 17.1], [3.0478118, 50.6479952, 20.2], [3.04782593, 50.64801853, 21.1], [3.04783447, 50.64808583, 23.6], [3.0478444, 50.64813787, 23.8], [3.04785573, 50.64818543, 23.4], [3.04786283, 50.64822851, 18.5], [3.04786708, 50.64824466, 16.7], [3.04789684, 50.648364, 16.9], [3.04791665, 50.64841784, 17.4], [3.04792658, 50.64846899, 17.4], [3.04791672, 50.64849322, 17.4], [3.04798888, 50.64867626, 15.8], [3.04801861, 50.64876779, 15.1], [3.04802428, 50.6487974, 15.1], [3.04803278, 50.64882522, 15.1], [3.04804409, 50.64884316, 15.1], [3.04805964, 50.64886649, 15.1], [3.0480639, 50.64890238, 15.3], [3.04805546, 50.6489311, 15.5], [3.04803711, 50.64892213, 15.5], [3.04790436, 50.64885308, 15.7], [3.04791139, 50.64882616, 15.9], [3.04790712, 50.64879027, 16.2], [3.04790566, 50.64873822, 16.4], [3.04790703, 50.64869065, 16.5], [3.04783486, 50.64850133, 17], [3.04778685, 50.6484816, 17.1], [3.04776143, 50.64846636, 17.1], [3.0477459, 50.64845559, 17.2], [3.04772185, 50.64840625, 18.6], [3.04770769, 50.64835151, 20.3], [3.04769918, 50.64831023, 23.3], [3.04769066, 50.64826088, 23.7], [3.0476765, 50.64821242, 23.6], [3.04765951, 50.64815051, 19.6], [3.04765807, 50.64812179, 17.8], [3.04764675, 50.64809218, 16], [3.04757884, 50.64792798, 16.1], [3.04755761, 50.64786607, 16.1], [3.04751656, 50.64774314, 16.2], [3.04748392, 50.64755918, 16.5], [3.04748238, 50.64741919, 16.3], [3.04749062, 50.64717778, 16.2], [3.0475061, 50.64712662, 16.2], [3.04753847, 50.6470261, 16.2], [3.04758354, 50.64693275, 16.2], [3.04764129, 50.6468062, 16.2], [3.04782315, 50.6465737, 16.3], [3.0479444, 50.64644263, 16.3], [3.04817145, 50.64624242, 16.3], [3.04850007, 50.64599281, 16.3], [3.0485889, 50.64590663, 16.3], [3.04863968, 50.6458752, 16.3], [3.04867638, 50.64587608, 16.2], [3.04871731, 50.64588235, 16.2], [3.0487709, 50.64583745, 16.3], [3.0488245, 50.64579615, 16.5], [3.04880895, 50.64577013, 16.6], [3.04881457, 50.6457468, 16.6], [3.04882865, 50.64571538, 16.6], [3.04982708, 50.64487232, 15.5], [3.04995965, 50.64476547, 15.5], [3.05004154, 50.64479685, 15.5], [3.05008525, 50.64475734, 15.6], [3.05010358, 50.6447358, 15.7], [3.0500231, 50.64470532, 14.9], [3.05156022, 50.64346536, 16.1], [3.05233156, 50.64283685, 16.2], [3.05234001, 50.6428189, 16.3], [3.0523679, 50.64249223, 15.3], [3.05243633, 50.64180119, 16], [3.05249771, 50.64112002, 16.8], [3.05254933, 50.64054655, 15.7], [3.05261916, 50.63984654, 16.5], [3.0526375, 50.63984653, 16.5], [3.05265297, 50.63979357, 16], [3.0526501, 50.6397487, 15.7], [3.05262188, 50.63974961, 15.7], [3.05262026, 50.63955398, 15.8], [3.05257777, 50.63940143, 16], [3.05244626, 50.63915111, 16.5], [3.05223861, 50.63895915, 16.9], [3.05173017, 50.63856091, 16.8], [3.05134326, 50.63832774, 16.8], [3.05111032, 50.63822822, 16.8], [3.05103265, 50.63818338, 16.8], [3.05086888, 50.63811076, 17.3], [3.05072914, 50.63807312, 17.7], [3.05004875, 50.63787327, 19.7], [3.04998674, 50.63795137, 19.8], [3.0497891, 50.63787787, 19.5], [3.04943615, 50.63772096, 19.6], [3.04934297, 50.63767971, 19.6], [3.04914818, 50.63762954, 19.6], [3.04897597, 50.63757935, 19.6], [3.04882635, 50.6375453, 19.6], [3.0486711, 50.63751485, 19.6], [3.04849184, 50.63747454, 19.4], [3.04830836, 50.63744141, 19.4], [3.04814322, 50.63741275, 19.2], [3.04799362, 50.63739127, 19], [3.04785812, 50.6373653, 19], [3.04771275, 50.63733754, 19], [3.04757442, 50.63730797, 19.1], [3.04743893, 50.63728828, 19.1], [3.04731332, 50.63727038, 19.1], [3.04712702, 50.63723276, 19.3], [3.04697176, 50.63720679, 19.5], [3.0468137, 50.63718891, 19.4], [3.04661752, 50.63716385, 19.4], [3.0464411, 50.6371343, 19.4], [3.04628161, 50.63710026, 19.4], [3.04610237, 50.63707161, 19.3], [3.04599369, 50.63705101, 19.3], [3.04580315, 50.63701877, 19.3], [3.04559568, 50.63698385, 18.6], [3.04553499, 50.63697041, 18.5], [3.04524001, 50.6369086, 20.4], [3.04502406, 50.6368665, 20.5], [3.04487446, 50.63684591, 20.5], [3.04471639, 50.63682443, 20.5], [3.0445541, 50.63681372, 20.6], [3.04437207, 50.63681468, 20.6], [3.0442112, 50.63681474, 20.6], [3.04401928, 50.63681032, 20.9], [3.04384288, 50.63681218, 21], [3.04367073, 50.63682121, 20.9], [3.04350988, 50.6368428, 20.9], [3.04337725, 50.63686439, 20.9], [3.04322627, 50.63688329, 20.9], [3.04305272, 50.63690489, 20.8], [3.04292434, 50.63693724, 20.8], [3.04276913, 50.63696691, 20.6], [3.04263086, 50.63699118, 20.6], [3.04249965, 50.63701815, 20], [3.04231059, 50.63706219, 19.9], [3.04214834, 50.63710532, 19.8], [3.04197623, 50.63716461, 19.7], [3.0413428, 50.63738379, 19], [3.04111567, 50.63746015, 18.8], [3.04088573, 50.63755445, 18.6], [3.04031017, 50.63780413, 17.8], [3.04023823, 50.63783556, 17.7], [3.04007176, 50.63790651, 17.5], [3.03988838, 50.63798913, 17.5], [3.03960059, 50.63810589, 17.5], [3.03942283, 50.63817415, 17.5], [3.03933964, 50.63825853, 18.6], [3.03918872, 50.6383546, 18.6], [3.03908859, 50.6384354, 18.6], [3.03899129, 50.63853325, 18.6], [3.03863738, 50.63892374, 18.6], [3.03847101, 50.63911674, 18.6], [3.03838782, 50.63921458, 18.6], [3.03833423, 50.63926396, 18.6], [3.03825947, 50.63931154, 18.6], [3.03818894, 50.63934208, 18.6], [3.03811416, 50.63936902, 18.6], [3.03803092, 50.63939328, 18.6], [3.0379646, 50.63940317, 18.6], [3.03789404, 50.63940768, 18.6], [3.03779526, 50.6394122, 18.6], [3.03771905, 50.63941132, 18.6], [3.03761744, 50.63940776, 18.6], [3.03752006, 50.63940151, 18.6], [3.0374255, 50.63938359, 18.6], [3.03735493, 50.63937733, 18.6], [3.03729003, 50.63938812, 18.6], [3.03729129, 50.63919428, 18.6], [3.03729382, 50.6388039, 18.6], [3.03729661, 50.63874736, 18.6], [3.03730604, 50.63815057, 18.6], [3.03734981, 50.63818735, 18.6], [3.03742604, 50.63821246, 18.6], [3.03751355, 50.63823846, 18.6], [3.03757566, 50.63826087, 18.6], [3.03765329, 50.63828149, 18.6], [3.03774926, 50.63829403, 18.6], [3.03788474, 50.63830655, 18.6], [3.03799764, 50.63831459, 18.6], [3.0381557, 50.63831364, 18.6], [3.03827564, 50.63830284, 18.6], [3.03840263, 50.63828126, 18.6], [3.03854938, 50.63826058, 18.6], [3.03900655, 50.63819672, 18.6], [3.03905311, 50.63817965, 18.6], [3.03907283, 50.63813388, 18.6], [3.0390869, 50.63808721, 18.6], [3.03911368, 50.63803874, 18.6], [3.03915174, 50.63798667, 18.6], [3.03929417, 50.63786548, 18.6], [3.0395354, 50.63775412, 18.5], [3.03983728, 50.63761492, 18.2], [3.03990358, 50.63758529, 18], [3.04010953, 50.63749009, 17.4], [3.04023085, 50.63743711, 17.4], [3.04032114, 50.63739939, 17.4], [3.04041848, 50.63736525, 17.4], [3.04047773, 50.63734728, 17.4], [3.0405229, 50.63735983, 17.4], [3.04059067, 50.63739571, 17.4], [3.04065418, 50.63741184, 17.4], [3.04072754, 50.63738938, 17.4], [3.04109717, 50.6372699, 17.6], [3.04147245, 50.63716029, 17.8], [3.04170523, 50.6370938, 17.9], [3.04190414, 50.63701835, 18], [3.04210728, 50.63693842, 18.1], [3.04256716, 50.63675339, 18.4], [3.04343046, 50.63638874, 19], [3.04345869, 50.63638783, 19.1], [3.0455221, 50.63676132, 18.9], [3.04562231, 50.63677564, 19.1]]]]}, "geometry_name": "geometrie", "properties": {"cleabs": "SURF_EAU0000000056534023", "code_hydrographique": "01S0000000056534023", "code_du_pays": "FR", "nature": "Ecoulement naturel", "position_par_rapport_au_sol": "0", "etat_de_l_objet": "En service", "date_creation": "2007-02-05T10:37:42.757Z", "date_modification": "2017-12-06T15:19:47.065Z", "date_d_apparition": null, "date_de_confirmation": null, "sources": null, "identifiants_sources": null, "methode_d_acquisition_planimetrique": "BDTopo", "precision_planimetrique": 2.5, "methode_d_acquisition_altimetrique": "BDTopo", "precision_altimetrique": 1.5, "mode_d_obtention_des_coordonnees": "Imagerie satellite ou a\u00e9rienne", "mode_d_obtention_de_l_altitude": "Autres modes", "statut": "Valid\u00e9", "persistance": "Permanent", "salinite": false, "origine": "Naturelle non am\u00e9nag\u00e9e", "commentaire_sur_l_objet_hydro": null, "liens_vers_plan_d_eau": null, "liens_vers_cours_d_eau": null, "lien_vers_entite_de_transition": null, "cpx_toponyme_de_plan_d_eau": null, "cpx_toponyme_de_cours_d_eau": null, "cpx_toponyme_d_entite_de_transition": null}}, {"type": "Feature", "id": "surface_hydrographique.71835", "geometry": {"type": "MultiPolygon", "coordinates": [[[[3.04637241, 50.64831881, 18.7], [3.04644441, 50.64833942, 14.7], [3.04647544, 50.64831339, 14.7], [3.04643306, 50.64827751, 14.7], [3.04628902, 50.64820397, 14.7], [3.04624807, 50.64817886, 14.7], [3.04627204, 50.64815552, 14.7], [3.04630029, 50.64817256, 14.7], [3.04642722, 50.64806841, 14.7], [3.0464964, 50.64808993, 14.8], [3.04692428, 50.64831322, 15.5], [3.04695114, 50.6483509, 15.5], [3.04701756, 50.64843433, 15.5], [3.04709808, 50.64851238, 15.5], [3.04711363, 50.64853122, 16.5], [3.04713198, 50.64854019, 17.3], [3.04716023, 50.64855633, 18.5], [3.04721248, 50.64858502, 19.7], [3.04725626, 50.64860834, 19.7], [3.04730145, 50.64863076, 19.8], [3.04737206, 50.64866932, 19.3], [3.04753162, 50.64873926, 14.5], [3.04789313, 50.64891411, 14.8], [3.04803434, 50.64898316, 14.8], [3.04834643, 50.6491347, 14.9], [3.04875596, 50.64933825, 15.2], [3.04882797, 50.64936784, 16.2], [3.04895222, 50.64940368, 16.2], [3.04917528, 50.64945295, 15.9], [3.04933347, 50.64954981, 16], [3.04961169, 50.64971033, 16.2], [3.04990545, 50.64987803, 16.2], [3.05029525, 50.65009774, 16], [3.05078532, 50.65036586, 16], [3.0509661, 50.65047348, 16], [3.05119633, 50.65061607, 16.2], [3.05137005, 50.65072189, 16.5], [3.051613, 50.65088063, 16.2], [3.05179803, 50.65098914, 15.9], [3.05191105, 50.65108781, 15.9], [3.05205937, 50.65119454, 15.9], [3.05216391, 50.65127526, 15.9], [3.05224302, 50.65132997, 15.8], [3.05226003, 50.65140265, 15.5], [3.05227564, 50.65148251, 15.5], [3.05228278, 50.65156328, 15.5], [3.0523859, 50.65163413, 15.5], [3.05249612, 50.65174446, 15.7], [3.05315586, 50.6522548, 15.5], [3.053533, 50.65248438, 15.4], [3.0535909, 50.65251217, 15.4], [3.05471832, 50.6534037, 15], [3.05493165, 50.65356155, 15.5], [3.05493453, 50.65361449, 15.7], [3.05494023, 50.65366205, 15.7], [3.05496851, 50.65371319, 15.7], [3.05504339, 50.65376431, 15.7], [3.05511683, 50.65380107, 15.7], [3.05518744, 50.65382796, 15.8], [3.05524536, 50.65386832, 15.8], [3.05566922, 50.65420106, 15.7], [3.0556566, 50.65427825, 15.7], [3.05569475, 50.65431412, 15.2], [3.05577955, 50.65440383, 14.3], [3.05598156, 50.65453117, 15.3], [3.0560775, 50.65448536, 15.3], [3.0561142, 50.65448354, 15.3], [3.05616784, 50.65448172, 15.3], [3.05619047, 50.654523, 15.2], [3.05630928, 50.65472396, 15.2], [3.05632342, 50.65474728, 15.2], [3.05651419, 50.65492758, 15], [3.05704534, 50.65524501, 15], [3.05730251, 50.65546027, 15], [3.05759789, 50.65576166, 15], [3.05765301, 50.65581727, 15], [3.05825088, 50.65644696, 15], [3.05857885, 50.65683538, 15], [3.05882075, 50.65726333, 15], [3.05884342, 50.65732883, 15], [3.05888166, 50.6574365, 15], [3.05893977, 50.65763031, 15], [3.05906309, 50.65805651, 15], [3.05907875, 50.65816419, 15], [3.05908444, 50.65820367, 15], [3.05907747, 50.65827906, 15], [3.05906352, 50.65842175, 15], [3.05905379, 50.65855367, 15], [3.05905679, 50.65869905, 15], [3.05911232, 50.65910105, 15], [3.05919592, 50.65935946, 15], [3.05928238, 50.65965197, 15], [3.05939563, 50.65990857, 15], [3.05941684, 50.65993728, 15.4], [3.05947907, 50.66002878, 15.7], [3.05959079, 50.66018936, 16], [3.05974631, 50.66037235, 16], [3.05983536, 50.66046744, 16], [3.05987348, 50.66046562, 16], [3.05993279, 50.66047457, 16], [3.05996388, 50.66050327, 15.5], [3.06000347, 50.66055081, 15.4], [3.06003317, 50.66059387, 15.4], [3.06005721, 50.66062796, 16.5], [3.06006995, 50.66065847, 17.4], [3.06010674, 50.66072306, 18.7], [3.06015482, 50.66078765, 19.7], [3.06017886, 50.66082264, 22.2], [3.0602015, 50.66086211, 15.4], [3.06022273, 50.66091056, 15.4], [3.06022418, 50.66093928, 15.4], [3.06031751, 50.66106756, 15.4], [3.06031472, 50.66109179, 15.4], [3.0603811, 50.6611106, 15.4], [3.06071307, 50.66127287, 15.4], [3.06070324, 50.66131146, 15.4], [3.06072446, 50.66135183, 15.4], [3.06074711, 50.66139579, 15.4], [3.06077116, 50.66143616, 15.4], [3.06084619, 50.66160214, 14.8], [3.06094104, 50.66182106, 14.8], [3.06106281, 50.66210547, 14.8], [3.0611464, 50.66234683, 14.8], [3.06124417, 50.66262946, 15.4], [3.06133483, 50.6628753, 15.7], [3.06149912, 50.66329878, 15.7], [3.06169169, 50.66374379, 15.7], [3.06184177, 50.66408652, 15.7], [3.06197203, 50.6643817, 15.7], [3.06218157, 50.66484464, 15.7], [3.06242208, 50.66523488, 15.7], [3.06228819, 50.66542879, 15.7], [3.06233347, 50.66550414, 15.7], [3.06235328, 50.66554362, 15.7], [3.06238446, 50.66563603, 15.7], [3.06244109, 50.66575895, 15.8], [3.06246376, 50.66582355, 15.3], [3.06250626, 50.6659366, 14.5], [3.06255296, 50.66601644, 14.5], [3.06257986, 50.66607745, 14.5], [3.06265908, 50.66619586, 14.5], [3.06274543, 50.66636902, 14.5], [3.06283456, 50.66651614, 14.5], [3.06285295, 50.66653767, 14.7], [3.06288975, 50.66660854, 15.3], [3.06296476, 50.66675119, 15.2], [3.06321663, 50.66717911, 15.3], [3.06342183, 50.66753706, 15.4], [3.0635096, 50.66771919, 15.4], [3.06354215, 50.66777571, 15.4], [3.06356198, 50.66782146, 15.3], [3.06361727, 50.66799822, 15.4], [3.06368678, 50.66825214, 15.4], [3.06378323, 50.66858861, 15.4], [3.0638244, 50.66876807, 15.4], [3.06394173, 50.66886941, 15.4], [3.06402651, 50.66891603, 16], [3.06409903, 50.66930904, 16], [3.06409344, 50.66935212, 16], [3.06409493, 50.66941224, 16], [3.06414296, 50.66943106, 16], [3.064135, 50.66982861, 16], [3.06413089, 50.66992642, 16], [3.0641113, 50.6700736, 16], [3.06410152, 50.67015348, 16], [3.06408601, 50.67017233, 16], [3.06395476, 50.67022983, 16], [3.06386869, 50.67028013, 16], [3.06378831, 50.67036542, 16], [3.06372346, 50.6704516, 16], [3.06363051, 50.67064817, 16], [3.06353485, 50.67093, 16], [3.06344193, 50.67115619, 16], [3.06336162, 50.67129442, 15.3], [3.06318403, 50.67156373, 15.4], [3.06314035, 50.67163823, 15.3], [3.06312767, 50.67166067, 15.3], [3.06306424, 50.67175224, 15.3], [3.06305578, 50.67176301, 15.3], [3.06298386, 50.6718456, 15.3], [3.06291902, 50.67194076, 15.3], [3.06288523, 50.67201526, 15.3], [3.06286976, 50.67206462, 15.3], [3.06277396, 50.67224774, 15.3], [3.06264992, 50.67242997, 15.4], [3.0625893, 50.67251614, 15.4], [3.0625569, 50.67257359, 15.4], [3.06255839, 50.67264179, 15.4], [3.06256266, 50.67266961, 15.4], [3.06255703, 50.67268038, 15.3], [3.06255139, 50.67269205, 15.3], [3.0623541, 50.67302328, 15.2], [3.06224421, 50.67322973, 15.2], [3.06209343, 50.67348735, 15.2], [3.06207796, 50.67353761, 15.2], [3.06206812, 50.6735771, 15.2], [3.06210917, 50.67365246, 15.2], [3.06211483, 50.67366412, 15.2], [3.06213324, 50.67370539, 15.2], [3.06218691, 50.67371255, 15.2], [3.06215314, 50.67381307, 15.2], [3.06214892, 50.67382563, 15.3], [3.06211375, 50.67393154, 15.3], [3.06194574, 50.67396573, 15.5], [3.06168212, 50.67433647, 15.5], [3.06159457, 50.67434639, 15.5], [3.06156921, 50.67439665, 15.5], [3.06161021, 50.67443342, 15.5], [3.06118453, 50.675095, 15.5], [3.060994, 50.67518932, 15.5], [3.06098554, 50.67520188, 15.7], [3.06079767, 50.67516608, 15.8], [3.06074692, 50.67523879, 15.8], [3.0606666, 50.67538241, 15.8], [3.06073729, 50.67545237, 15.8], [3.06065133, 50.67560317, 15.8], [3.06046812, 50.67592273, 15.8], [3.06031181, 50.67629611, 15.8], [3.06014417, 50.67664168, 15.8], [3.05991193, 50.67730046, 15.8], [3.05987818, 50.67742521, 15.8], [3.0592721, 50.67844401, 15.8], [3.05918753, 50.67858763, 15.7], [3.05858707, 50.67959745, 15.7], [3.05857011, 50.67959208, 15.8], [3.05852489, 50.67956787, 15.8], [3.05847259, 50.67953559, 15.8], [3.0584429, 50.67950958, 15.8], [3.0584245, 50.6794719, 15.8], [3.05842444, 50.67942523, 15.7], [3.05849635, 50.67931931, 15.7], [3.05852314, 50.67927712, 15.7], [3.05855979, 50.67922057, 15.7], [3.05859783, 50.679138, 15.7], [3.0586232, 50.6790985, 15.7], [3.05883154, 50.67850973, 15.7], [3.05899623, 50.67804302, 15.8], [3.05931724, 50.67719665, 15.8], [3.05938045, 50.67690677, 15.8], [3.05940288, 50.67676766, 15.8], [3.0593788, 50.67671024, 15.8], [3.05935193, 50.67667436, 15.8], [3.0593815, 50.67660256, 15.8], [3.05972525, 50.67589975, 15.8], [3.05976329, 50.67582256, 15.8], [3.05980982, 50.67575434, 16], [3.0599184, 50.67562417, 15.9], [3.06008331, 50.67535218, 15.9], [3.06009741, 50.67533872, 15.9], [3.06011857, 50.67531807, 16], [3.06022161, 50.67526866, 16], [3.06029068, 50.67516364, 16], [3.06031885, 50.6751035, 15.9], [3.06037807, 50.67502181, 15.8], [3.06045008, 50.67500921, 15.8], [3.06058959, 50.67476775, 15.8], [3.06083346, 50.67439701, 15.8], [3.06105765, 50.67411064, 15.8], [3.06129875, 50.67379465, 15.8], [3.06139885, 50.67366269, 15.8], [3.06158349, 50.67336826, 15.8], [3.06160037, 50.6733144, 15.8], [3.06160878, 50.67326953, 15.8], [3.06160168, 50.67323543, 15.8], [3.06163549, 50.67316363, 15.8], [3.06167073, 50.67311695, 15.8], [3.06168478, 50.67305861, 15.8], [3.06168617, 50.67303977, 15.8], [3.06169591, 50.6729249, 15.8], [3.06157298, 50.67285945, 15.9], [3.0615433, 50.67284062, 15.5], [3.06154748, 50.67279575, 15.4], [3.06163968, 50.67198178, 14.7], [3.06170179, 50.67196111, 15.3], [3.06173424, 50.67193687, 15.3], [3.06176808, 50.67189198, 15.3], [3.06179345, 50.67185697, 15.3], [3.06180329, 50.67181748, 15.3], [3.0618993, 50.67180846, 15.3], [3.06193031, 50.67175819, 15.3], [3.06187516, 50.6716954, 15.4], [3.0620359, 50.67150328, 15.3], [3.0621418, 50.67149605, 15.3], [3.06218552, 50.67144757, 15.3], [3.06213178, 50.67138747, 15.3], [3.06220513, 50.67132193, 15.3], [3.06223473, 50.67127884, 15.3], [3.06231086, 50.67117919, 15.9], [3.06245758, 50.67106426, 15.9], [3.06261134, 50.67094124, 15.9], [3.06266071, 50.67089724, 15.9], [3.06268892, 50.6708721, 15.9], [3.0627778, 50.67080385, 15.9], [3.0629147, 50.67074635, 15.9], [3.06312485, 50.67053985, 15.9], [3.06315021, 50.67049407, 15.9], [3.06316847, 50.67042227, 15.9], [3.06319643, 50.67019701, 15.7], [3.06326249, 50.66995379, 15.8], [3.06326518, 50.6698488, 15.8], [3.06326651, 50.6697797, 15.8], [3.06328896, 50.66966841, 15.8], [3.06330018, 50.66960649, 15.8], [3.06329586, 50.66953829, 15.8], [3.06328446, 50.66945394, 15.8], [3.06288629, 50.66948465, 15.8], [3.06287191, 50.66927378, 15.8], [3.06286179, 50.66908713, 15.8], [3.0628673, 50.66897944, 15.8], [3.06286718, 50.66888521, 15.8], [3.06286145, 50.66881881, 15.8], [3.0628571, 50.66872369, 15.8], [3.06283725, 50.66865729, 15.8], [3.06283147, 50.6685523, 15.8], [3.06282147, 50.66846077, 15.8], [3.06279449, 50.66833874, 15.8], [3.06276753, 50.66823915, 15.8], [3.0627462, 50.66811981, 15.8], [3.06269657, 50.66795113, 15.8], [3.06264125, 50.66774924, 15.8], [3.06279503, 50.66764866, 16], [3.06258833, 50.66720546, 15.8], [3.06233067, 50.66666626, 15.8], [3.06230094, 50.66659897, 15.7], [3.06227968, 50.66653885, 15.7], [3.0621282, 50.66621408, 15.7], [3.06204042, 50.66602208, 15.7], [3.0619753, 50.66588481, 15.7], [3.06191161, 50.66575831, 15.7], [3.06187905, 50.66568923, 15.7], [3.0618564, 50.66564617, 17], [3.06154366, 50.66507559, 17], [3.06116157, 50.66436415, 17.2], [3.06095773, 50.66393261, 17.2], [3.06075808, 50.66345888, 17.2], [3.06058953, 50.66302194, 17.2], [3.06047051, 50.66267201, 17.2], [3.06039703, 50.66261821, 16.2], [3.06039561, 50.66260834, 16], [3.06038002, 50.66256437, 16], [3.06035737, 50.66251233, 16.4], [3.06035451, 50.66248093, 16.5], [3.0603474, 50.66243696, 16.8], [3.06038973, 50.6624172, 16.8], [3.06034579, 50.66227453, 17.3], [3.06018718, 50.66187707, 17.3], [3.06008386, 50.66165995, 17.3], [3.05997088, 50.66163039, 17.3], [3.05981088, 50.66124997, 17.3], [3.05985461, 50.66121854, 17.3], [3.05973719, 50.66101579, 17.4], [3.05974988, 50.66100053, 17.4], [3.05966501, 50.66086596, 17.4], [3.05949379, 50.66054029, 15.2], [3.05947259, 50.66051517, 15.2], [3.0593822, 50.66049009, 15.3], [3.05937935, 50.66047124, 15.4], [3.05936378, 50.66043715, 15.4], [3.05931009, 50.66039679, 15.4], [3.05924791, 50.66034926, 15.4], [3.05916031, 50.66029187, 15.4], [3.05905577, 50.66023628, 15.4], [3.05892577, 50.66013583, 15.4], [3.05880141, 50.66003449, 15.4], [3.05863891, 50.65990983, 15], [3.05848894, 50.65963799, 15], [3.05847191, 50.65955903, 15], [3.05848172, 50.6594971, 15], [3.0585056, 50.65939748, 15], [3.05854072, 50.6592458, 15], [3.05868541, 50.65862564, 15], [3.05865704, 50.65851348, 15], [3.05851672, 50.65803433, 15], [3.05835229, 50.65746277, 15], [3.05828577, 50.65731024, 15], [3.058198, 50.65710658, 15], [3.05811031, 50.65696483, 15], [3.05798166, 50.65680515, 15], [3.05757883, 50.65637638, 15], [3.05745734, 50.65629837, 15], [3.05734013, 50.65626163, 15], [3.0570577, 50.65618458, 15], [3.05703369, 50.65617921, 15], [3.0569405, 50.65615682, 15], [3.05688965, 50.65612992, 15], [3.05680206, 50.6560797, 15], [3.056576, 50.6559093, 15], [3.05652654, 50.65585997, 15], [3.05646436, 50.65580705, 15], [3.0563683, 50.65574068, 15], [3.05627646, 50.65566983, 15], [3.05620441, 50.6556241, 15], [3.05614507, 50.65557836, 15], [3.05611957, 50.65550209, 15], [3.05610963, 50.65544466, 15], [3.05611096, 50.65537556, 15], [3.05611783, 50.65520146, 15], [3.05611069, 50.65513595, 15], [3.05558788, 50.65468839, 15], [3.05519507, 50.65434845, 14], [3.05513572, 50.65428655, 14.2], [3.05505663, 50.65425159, 14.5], [3.05499872, 50.6542238, 14.5], [3.05498176, 50.65420316, 14.5], [3.05495209, 50.65418702, 14.5], [3.05490408, 50.65417179, 14.8], [3.05484479, 50.65416553, 14.8], [3.05472762, 50.65416379, 14.8], [3.05379512, 50.65339872, 15], [3.05293192, 50.65272783, 15.3], [3.05286837, 50.65270004, 15.3], [3.05284573, 50.65265608, 15.3], [3.05275948, 50.65251971, 15.3], [3.05257865, 50.6523753, 15.2], [3.05198669, 50.65188826, 14.9], [3.05191322, 50.65181829, 14.9], [3.05188776, 50.65177254, 14.5], [3.05185804, 50.65169268, 14.9], [3.05176058, 50.6516326, 15.3], [3.05154159, 50.65144423, 15.3], [3.05142153, 50.6513698, 15.3], [3.05123231, 50.65130078, 15.3], [3.05113489, 50.65127389, 15.3], [3.05093855, 50.65114654, 15.3], [3.05058261, 50.65091695, 15.3], [3.05015324, 50.65065329, 15.3], [3.04967166, 50.65040221, 15.3], [3.04927341, 50.65020045, 15.3], [3.04904182, 50.65009824, 15.3], [3.04896698, 50.65006327, 15.3], [3.04881312, 50.65006243, 15.3], [3.04850102, 50.64990461, 15.3], [3.04849956, 50.64985705, 15.3], [3.04849954, 50.64983462, 15.3], [3.04846706, 50.64981489, 15.3], [3.04844588, 50.64980592, 15.3], [3.04843034, 50.64979426, 15.3], [3.04843315, 50.6497799, 15.3], [3.04843314, 50.64976913, 15.3], [3.04842748, 50.64975657, 15.3], [3.04842605, 50.64973593, 15.3], [3.04842462, 50.64971798, 15.3], [3.04842319, 50.64970273, 15.3], [3.048402, 50.6496812, 15.3], [3.04835257, 50.64964981, 14.9], [3.04824524, 50.64959421, 14.9], [3.04821839, 50.6495673, 14.9], [3.04816614, 50.64953501, 15], [3.04812095, 50.64951529, 15], [3.04805177, 50.64949916, 15], [3.04799953, 50.64948303, 15], [3.04794587, 50.64945343, 15], [3.04791197, 50.6494337, 15], [3.04788937, 50.64941217, 15], [3.04788652, 50.64939064, 14.9], [3.04787943, 50.64935833, 14.9], [3.04785966, 50.64934129, 14.9], [3.04782011, 50.64931797, 14.9], [3.04778763, 50.64930273, 14.9], [3.04773257, 50.64928121, 15], [3.04767751, 50.64926957, 15], [3.04762385, 50.64925433, 15], [3.04757867, 50.64923371, 15], [3.04754477, 50.64921039, 15], [3.04751511, 50.64919156, 15], [3.04750802, 50.64916105, 15], [3.04750658, 50.64912425, 15], [3.04744156, 50.64903095, 15.2], [3.04734974, 50.6489565, 15], [3.04720712, 50.64888476, 15], [3.04715487, 50.64886504, 15], [3.04713934, 50.64885697, 16.5], [3.04706591, 50.64882289, 22.9], [3.04702213, 50.64880137, 22.8], [3.04697694, 50.64877895, 22.7], [3.04692328, 50.64874936, 20.2], [3.04690632, 50.64872962, 18.9], [3.04683855, 50.64870003, 16.2], [3.04632876, 50.64843729, 15], [3.04625674, 50.64840321, 18.7], [3.04611553, 50.64833327, 18.7], [3.04607599, 50.64831443, 18.7], [3.04449444, 50.64751901, 18.7], [3.04442384, 50.64748224, 18.7], [3.04440124, 50.64746251, 18.7], [3.04435463, 50.6474347, 18.7], [3.04363307, 50.64707151, 18.7], [3.04329843, 50.64691727, 18.7], [3.04324478, 50.64689755, 18.7], [3.04318126, 50.64688949, 18.7], [3.04311633, 50.646894, 18.8], [3.04304295, 50.6469021, 18.6], [3.04296109, 50.64690572, 18.2], [3.04290039, 50.64690036, 18.2], [3.04254322, 50.64680536, 18.6], [3.04234698, 50.64675158, 18.7], [3.04221568, 50.64669868, 18.9], [3.04199541, 50.64659196, 18.7], [3.04175536, 50.64646371, 18.8], [3.04161697, 50.64638479, 19], [3.04156613, 50.64634262, 19], [3.04144044, 50.64625741, 18.8], [3.04128228, 50.64615965, 18.8], [3.04044216, 50.64574173, 18.9], [3.03973476, 50.6453803, 19.3], [3.03927728, 50.64513725, 19.5], [3.03915302, 50.64506101, 19.5], [3.03891157, 50.6449175, 19.5], [3.03867009, 50.64475335, 19.5], [3.03851193, 50.64463494, 19.5], [3.03844556, 50.64458829, 18.5], [3.03827187, 50.64446809, 18.5], [3.03804874, 50.64428868, 18.5], [3.03787645, 50.64414515, 18.5], [3.03773944, 50.64400699, 18.5], [3.0375883, 50.64384191, 18.5], [3.03745411, 50.6436867, 18.5], [3.03730155, 50.64350457, 18.5], [3.0371631, 50.64331705, 18.5], [3.03706703, 50.64317888, 18.5], [3.03698085, 50.64306044, 18.5], [3.03693564, 50.64299046, 18.5], [3.03676324, 50.64269705, 18.5], [3.03667562, 50.64252747, 18.5], [3.03662472, 50.64240543, 18.5], [3.03653001, 50.64219637, 18.5], [3.0364777, 50.64206356, 18.5], [3.03641972, 50.64190474, 18.5], [3.03637443, 50.64173334, 18.5], [3.03634751, 50.64158259, 18.5], [3.03632762, 50.64139503, 18.5], [3.03632607, 50.64120747, 18.5], [3.0363287, 50.64094363, 18.5], [3.03636367, 50.64051645, 18.5], [3.03639584, 50.6401144, 18.5], [3.03653967, 50.6399582, 18.5], [3.0365509, 50.63988013, 18.5], [3.0365537, 50.63984782, 18.5], [3.03655229, 50.63983884, 18.5], [3.03655505, 50.63976436, 18.5], [3.03643359, 50.63963247, 18.5], [3.03643498, 50.63959478, 18.5], [3.03643917, 50.63954004, 18.5], [3.03645603, 50.63943144, 18.5], [3.0364785, 50.63928516, 18.5], [3.03648268, 50.63921785, 18.5], [3.03648405, 50.63915324, 18.5], [3.03648542, 50.63909401, 18.5], [3.03646842, 50.63900696, 18.6], [3.03647395, 50.63885081, 18.5], [3.03647533, 50.63881312, 18.4], [3.03647944, 50.6386435, 18.4], [3.03651894, 50.63861926, 18.4], [3.03653867, 50.63857977, 18.4], [3.03655415, 50.63852053, 18.4], [3.03654564, 50.63846669, 18.4], [3.0365188, 50.63842273, 18.4], [3.03644251, 50.63830429, 18.4], [3.03640438, 50.63827199, 18.4], [3.03642406, 50.63815981, 18.4], [3.03648007, 50.63755852, 18.5], [3.03652487, 50.63707121, 18.6], [3.03651764, 50.6368307, 18.7], [3.03651197, 50.63679301, 18.7], [3.03648936, 50.63675443, 18.8], [3.03643148, 50.63671496, 19], [3.036375, 50.63667459, 19.3], [3.03635946, 50.63664588, 19.3], [3.03633827, 50.63662255, 20.7], [3.03633119, 50.63658935, 20.3], [3.03631563, 50.63653102, 20.2], [3.036201, 50.63607157, 20], [3.0361529, 50.63590467, 19.9], [3.03604547, 50.63564714, 19.7], [3.03589707, 50.635325, 19.7], [3.03569504, 50.63498314, 20], [3.03561169, 50.63484496, 20.5], [3.0352487, 50.63436584, 20.3], [3.03499732, 50.63405989, 20.3], [3.03484903, 50.63387506, 19.9], [3.03478554, 50.63389034, 19.9], [3.03475025, 50.63387868, 19.9], [3.03472202, 50.63385894, 19.9], [3.03425184, 50.63342472, 19.4], [3.03378448, 50.63297434, 19.4], [3.03331149, 50.63253203, 19.5], [3.03292462, 50.63216419, 19.4], [3.03290909, 50.63214266, 20.4], [3.03302471, 50.63201968, 20.3], [3.03305431, 50.6319739, 20.2], [3.03306699, 50.6319398, 20.2], [3.03306556, 50.63190749, 20.2], [3.03303873, 50.63187609, 20.3], [3.03278035, 50.63163116, 20.1], [3.03274788, 50.63160424, 20.1], [3.03273658, 50.63158809, 20.1], [3.03257704, 50.63143737, 20], [3.03251917, 50.63140777, 20], [3.0324853, 50.63139521, 20], [3.03243309, 50.63138176, 20], [3.03209299, 50.63131454, 19.9], [3.0318926, 50.63125537, 19.8], [3.03168374, 50.63121234, 19.8], [3.03118962, 50.63077452, 19.8], [3.03071387, 50.63036362, 19.8], [3.03033694, 50.63002986, 19.8], [3.02987673, 50.62962793, 19.8], [3.02951394, 50.62932289, 19.8], [3.02934455, 50.62918652, 19.8], [3.02913283, 50.62903939, 19.8], [3.02845811, 50.62852711, 19.8], [3.02808832, 50.62829655, 19.8], [3.02775382, 50.62808663, 19.8], [3.0275407, 50.62794219, 17.1], [3.02683505, 50.62756363, 17.1], [3.02652457, 50.62741382, 17.1], [3.02616895, 50.62725774, 17.7], [3.02579641, 50.62711692, 18], [3.02567928, 50.62707297, 19.8], [3.02539987, 50.62696444, 20.1], [3.02503439, 50.62683259, 19.7], [3.02480156, 50.62675546, 19.7], [3.02449677, 50.62666308, 19.7], [3.02396198, 50.62651421, 19.6], [3.02341733, 50.62637701, 19.5], [3.02287269, 50.62626673, 19.9], [3.0224113, 50.62617886, 19.7], [3.02167479, 50.62606143, 19.5], [3.02086068, 50.62593054, 19.7], [3.02081412, 50.62592427, 19.7], [3.02075627, 50.62591889, 19.7], [3.02068291, 50.62592609, 19.7], [3.02062789, 50.62593597, 19.7], [3.020429, 50.62601587, 19.7], [3.01965176, 50.626366, 20], [3.01965459, 50.62637856, 23.8], [3.01949799, 50.62640371, 23.8], [3.01941617, 50.62641719, 23.8], [3.01936256, 50.62642527, 23.8], [3.01935268, 50.62640912, 19], [3.01932305, 50.62640374, 19.1], [3.01924826, 50.62638939, 19.2], [3.01916922, 50.62629966, 19.2], [3.0190309, 50.62615609, 19.2], [3.01886297, 50.62602958, 19.1], [3.01877688, 50.62597575, 19.1], [3.01874019, 50.62594434, 19.1], [3.0187162, 50.62592012, 19.1], [3.01869785, 50.6258923, 19], [3.01868229, 50.62580256, 19], [3.01864984, 50.62577743, 19], [3.0185934, 50.6257586, 19], [3.01856095, 50.62576129, 19], [3.01850028, 50.62574784, 19.2], [3.01843537, 50.62573439, 19.2], [3.01823503, 50.62573532, 19.2], [3.01778639, 50.62575153, 19.1], [3.01725169, 50.62576058, 19.5], [3.01695118, 50.62576242, 19.5], [3.01677624, 50.62576514, 19.5], [3.01668595, 50.62576425, 19.5], [3.01663233, 50.62575708, 19.5], [3.01658295, 50.62574003, 19.5], [3.0165392, 50.62571491, 19.5], [3.0164997, 50.62571492, 19.3], [3.01647713, 50.62572389, 19.2], [3.01645174, 50.62574274, 19], [3.01642776, 50.6257607, 18.9], [3.01616817, 50.62576432, 18.9], [3.01583099, 50.62578321, 18.9], [3.01558974, 50.62579042, 19.2], [3.01557421, 50.62575991, 19.1], [3.01551354, 50.62574915, 19.2], [3.01549098, 50.6258003, 19.4], [3.0142029, 50.62582469, 19.4], [3.01405332, 50.62572599, 19.4], [3.01397431, 50.62572869, 19.4], [3.01381489, 50.62572422, 19.1], [3.01366676, 50.62575206, 18.9], [3.01362867, 50.62577719, 18.9], [3.01344671, 50.62590375, 18.9], [3.01186655, 50.62584916, 18.9], [3.01107648, 50.62582052, 18.9], [3.0110031, 50.62573078, 18.9], [3.01087612, 50.62572361, 18.9], [3.01079431, 50.62581247, 18.9], [3.00970937, 50.62577487, 18.9], [3.0095471, 50.62564565, 18.9], [3.00920426, 50.62562952, 18.9], [3.00875844, 50.62560083, 18.9], [3.00826464, 50.62555689, 18.9], [3.00783997, 50.62550756, 18.9], [3.00730243, 50.62542593, 18.9], [3.00713173, 50.62548427, 18.9], [3.00637974, 50.62532008, 18.9], [3.00544293, 50.62507243, 18.9], [3.00507187, 50.62497463, 19.5], [3.00459078, 50.62487413, 18.9], [3.00369207, 50.62465608, 18.9], [3.00329986, 50.62454571, 18.9], [3.00296973, 50.62446585, 18.9], [3.00291894, 50.62446585, 19.5], [3.00287098, 50.62449187, 18.9], [3.00254085, 50.62440752, 19.7], [3.0021049, 50.62430253, 18.9], [3.00173104, 50.62420831, 18.9], [3.00122739, 50.62407818, 18.9], [3.0012288, 50.62404498, 19.6], [3.00119635, 50.62401985, 19.6], [3.00103693, 50.62397857, 19.6], [3.00081825, 50.62392293, 19.3], [3.00061933, 50.62386908, 19.1], [3.00034987, 50.62379819, 19.6], [3.00022149, 50.62376139, 19.4], [3.00016083, 50.62374973, 19.6], [3.00012415, 50.62376857, 19.2], [3.00010581, 50.62379908, 19.6], [2.99999436, 50.62377037, 19], [3.00004514, 50.62367883, 18.9], [2.99992805, 50.62364742, 18.9], [2.99987444, 50.62374883, 18.9], [2.99844815, 50.62337997, 18.9], [2.99841712, 50.62317625, 18.9], [2.99725185, 50.62291149, 19.5], [2.99693302, 50.62284058, 19.6], [2.99664947, 50.62277685, 19.6], [2.99629677, 50.62282979, 19.6], [2.99577199, 50.6226817, 19.6], [2.99456442, 50.6223496, 19.6], [2.9943881, 50.62214587, 19.6], [2.99390283, 50.62197623, 19.6], [2.99339217, 50.62179403, 19.6], [2.99292666, 50.62160733, 19.8], [2.99226226, 50.62130934, 19.8], [2.99150195, 50.62093685, 19.9], [2.9908545, 50.62059219, 26.2], [2.99074588, 50.62054013, 26.1], [2.99052443, 50.62042075, 26], [2.990279, 50.62028073, 25.9], [2.99008999, 50.62016674, 25.9], [2.98985161, 50.62001236, 25.8], [2.98962453, 50.6198517, 25.7], [2.9894313, 50.61970091, 25.7], [2.98923384, 50.61955102, 25.7], [2.98890239, 50.61927458, 25.7], [2.98844543, 50.61888953, 25.6], [2.98792924, 50.61845512, 25.5], [2.98745396, 50.61806109, 25.4], [2.98701535, 50.61769579, 25.4], [2.98656829, 50.61731881, 25.4], [2.98616072, 50.61697863, 25.4], [2.9857038, 50.61659268, 25.4], [2.9856079, 50.61651818, 25.4], [2.98555008, 50.61646881, 26.2], [2.98547251, 50.61641675, 27.3], [2.98542174, 50.61637098, 27.6], [2.98534418, 50.61630007, 27.6], [2.98525675, 50.61622826, 19.5], [2.98520034, 50.61617979, 27.3], [2.98515239, 50.61613761, 19.8], [2.98485061, 50.61588449, 19.6], [2.98463344, 50.61570228, 19.8], [2.98461511, 50.61568702, 19.8], [2.9845305, 50.61561611, 19.7], [2.98417655, 50.61530016, 19.8], [2.98392131, 50.6150641, 19.5], [2.98368019, 50.61481817, 19.8], [2.98359559, 50.61472931, 19.7], [2.98342357, 50.61454441, 19.7], [2.98327552, 50.61438195, 19.1], [2.98315285, 50.61423655, 19.1], [2.98305556, 50.61412076, 19.7], [2.98297661, 50.61402383, 19.7], [2.98283421, 50.61384522, 19.7], [2.98262132, 50.61355351, 19.7], [2.98256352, 50.61346735, 19.7], [2.98249445, 50.61336503, 19.1], [2.98235347, 50.61314962, 19.7], [2.982197, 50.61288306, 19.1], [2.98207719, 50.61267034, 19.7], [2.98202363, 50.6125761, 19.1], [2.98192919, 50.61238134, 19.5], [2.98184041, 50.61217491, 19.5], [2.98179532, 50.61204836, 19.5], [2.98176291, 50.61196131, 19.1], [2.98167415, 50.61168847, 19.5], [2.98160655, 50.61141832, 19.5], [2.98155727, 50.61118139, 19.5], [2.98150378, 50.61091483, 19.5], [2.98147564, 50.61071559, 19.5], [2.98145876, 50.61059174, 27.1], [2.981432, 50.61049392, 19.1], [2.98142637, 50.61044815, 19.1], [2.98138266, 50.61041762, 19.3], [2.98133902, 50.61019325, 19.3], [2.98133067, 50.60988991, 19.3], [2.98134063, 50.60965478, 19.3], [2.98135344, 50.60935862, 19.1], [2.98136762, 50.60913695, 19.1], [2.98137758, 50.60891079, 19.3], [2.98138466, 50.60882643, 25.1], [2.98138752, 50.60872861, 19.3], [2.98153592, 50.60788143, 19.3], [2.98167584, 50.60706835, 19.3], [2.98184655, 50.60689965, 19.3], [2.9818635, 50.60681439, 26.1], [2.98210746, 50.60688892, 26.5], [2.98234577, 50.60696344, 26], [2.98233022, 50.60706575, 19.1], [2.98203346, 50.60874486, 19.3], [2.98201931, 50.60887588, 25.1], [2.98201365, 50.60891268, 19.3], [2.98218988, 50.60911104, 19.3], [2.98220109, 50.60931028, 19.3], [2.98221229, 50.6095517, 19.3], [2.98224602, 50.60987569, 19.3], [2.982291, 50.61031365, 19.3], [2.98214003, 50.61048953, 19.3], [2.98214846, 50.61058018, 26.5], [2.98217238, 50.61072736, 19.5], [2.98235568, 50.61088534, 19.5], [2.98242326, 50.61122818, 19.5], [2.98249931, 50.61153871, 19.5], [2.98261063, 50.61185373, 19.5], [2.98271632, 50.6121185, 19.5], [2.98282766, 50.61236262, 19.5], [2.98292069, 50.61256366, 19.7], [2.98305741, 50.61281946, 19.7], [2.98319274, 50.6130582, 19.7], [2.98326604, 50.61318206, 19.7], [2.9833182, 50.61327181, 19.7], [2.98342818, 50.6133876, 19.7], [2.98355368, 50.61349531, 19.7], [2.98367495, 50.61358597, 19.7], [2.98377084, 50.6136497, 19.7], [2.98393302, 50.61374216, 19.7], [2.98406559, 50.61379961, 19.7], [2.98421227, 50.6138445, 19.7], [2.98436318, 50.61387593, 19.7], [2.98453385, 50.61389929, 19.7], [2.9846227, 50.61391455, 19.7], [2.98469745, 50.61394687, 19.7], [2.98478771, 50.61397381, 19.7], [2.98486388, 50.61398279, 19.7], [2.98497531, 50.6139855, 19.7], [2.98507687, 50.61397564, 19.7], [2.98515727, 50.61396847, 19.7], [2.98530254, 50.613999, 19.7], [2.98538857, 50.61402503, 19.7], [2.98550422, 50.61406902, 19.7], [2.98557333, 50.61410134, 19.7], [2.98564385, 50.61411481, 19.7], [2.98579195, 50.61411483, 19.7], [2.98589352, 50.61408881, 19.7], [2.98600213, 50.61405921, 19.7], [2.98613331, 50.61405025, 19.7], [2.98620384, 50.61406192, 19.7], [2.98626307, 50.61408167, 19.7], [2.98629692, 50.6141077, 19.7], [2.98632794, 50.6141436, 19.7], [2.98634062, 50.61417412, 19.7], [2.98634484, 50.6142172, 19.7], [2.98633637, 50.61427015, 19.7], [2.98631661, 50.61431143, 19.7], [2.98627287, 50.61435001, 19.7], [2.98622914, 50.61437603, 19.7], [2.98614168, 50.61439756, 19.7], [2.98607539, 50.61440025, 19.7], [2.98600486, 50.61439037, 19.7], [2.98594845, 50.61436882, 19.7], [2.98590896, 50.61433472, 19.7], [2.98587794, 50.6143024, 19.7], [2.98583704, 50.61427278, 19.7], [2.98578627, 50.61426111, 19.7], [2.98572139, 50.61425482, 19.7], [2.98565509, 50.6142584, 19.7], [2.98552531, 50.61430057, 19.7], [2.98545196, 50.61430774, 19.7], [2.98537298, 50.61430414, 19.7], [2.9852813, 50.61428887, 19.7], [2.98517128, 50.61427091, 19.7], [2.98508524, 50.61426372, 19.7], [2.9849583, 50.61424935, 19.7], [2.984837, 50.61423677, 19.7], [2.98475237, 50.61423047, 19.7], [2.98471147, 50.6142179, 19.7], [2.98462262, 50.61418559, 19.7], [2.98455069, 50.61416942, 19.7], [2.98448157, 50.61416582, 19.7], [2.98442374, 50.6141703, 19.7], [2.9843645, 50.61418376, 19.7], [2.98431794, 50.6142017, 19.7], [2.98425445, 50.6142681, 19.7], [2.98423892, 50.61430849, 19.7], [2.98423891, 50.61435157, 19.7], [2.98425582, 50.61440542, 19.7], [2.98434324, 50.61451222, 19.7], [2.98446168, 50.61463519, 19.8], [2.9848128, 50.61498973, 19.8], [2.98531904, 50.61546005, 19.8], [2.98563493, 50.61572035, 19.8], [2.98564479, 50.61574817, 19.8], [2.98569267, 50.61601831, 19.8], [2.985711, 50.61604523, 19.8], [2.98574626, 50.61608024, 19.8], [2.98580831, 50.61612063, 27.3], [2.98586895, 50.61617, 27.4], [2.98595921, 50.6162427, 27.6], [2.98604805, 50.61631361, 27.6], [2.98611011, 50.61636118, 27.4], [2.98618767, 50.61641683, 19.8], [2.98624831, 50.61647338, 25.6], [2.98640346, 50.61652904, 19.8], [2.98668133, 50.61659189, 19.8], [2.98674903, 50.61660805, 19.8], [2.98677865, 50.616626, 19.8], [2.9869366, 50.61675256, 19.8], [2.98749648, 50.6172157, 19.8], [2.98843999, 50.61801093, 19.8], [2.98934122, 50.61875948, 19.8], [2.98969805, 50.61905657, 19.8], [2.98996038, 50.61927646, 19.8], [2.99016349, 50.61942187, 19.8], [2.9904216, 50.61959958, 19.8], [2.99086309, 50.61990026, 19.8], [2.99091245, 50.61994065, 19.8], [2.99093361, 50.61997206, 19.8], [2.99104359, 50.62022604, 19.8], [2.99109295, 50.62031041, 19.8], [2.99114796, 50.62037054, 26.4], [2.9912326, 50.62039657, 19.9], [2.9913257, 50.62041363, 19.9], [2.99157116, 50.62042801, 19.9], [2.99182084, 50.62044597, 19.9], [2.99192523, 50.62049624, 19.9], [2.99260513, 50.6208409, 19.9], [2.99322721, 50.62111375, 19.9], [2.99380557, 50.62134712, 19.9], [2.99440368, 50.6215751, 19.9], [2.99475635, 50.62170076, 19.8], [2.99486074, 50.6217214, 19.8], [2.99542784, 50.62189104, 19.8], [2.99602879, 50.62205529, 19.8], [2.9965564, 50.62218275, 19.8], [2.99725611, 50.62235148, 19.8], [2.99745502, 50.62240085, 19.8], [2.99820271, 50.62258573, 19.8], [2.99916483, 50.62283433, 19.6], [3.000498, 50.62314934, 19.6], [3.00131907, 50.62335036, 19.6], [3.00139948, 50.62335574, 19.6], [3.00145591, 50.62335125, 19.6], [3.00151516, 50.6233351, 19.6], [3.00158006, 50.62331535, 19.6], [3.00167176, 50.62331984, 19.6], [3.00189325, 50.62336202, 19.6], [3.00196379, 50.62339702, 19.6], [3.00221633, 50.62360612, 19.6], [3.00234189, 50.62367252, 19.6], [3.00240537, 50.62368509, 19.6], [3.00250977, 50.62370034, 19.6], [3.00259019, 50.62373175, 19.6], [3.00265932, 50.62376585, 19.6], [3.00276795, 50.62380893, 19.6], [3.00281733, 50.62382687, 19.7], [3.00290057, 50.62384482, 20], [3.00427893, 50.62418401, 20], [3.00571656, 50.62453575, 20.1], [3.00666606, 50.62475647, 20], [3.00735033, 50.62492246, 20], [3.00770445, 50.62498616, 20], [3.00788786, 50.62500858, 19.9], [3.00867934, 50.62509917, 19.8], [3.00978685, 50.62518704, 19.7], [3.01072929, 50.62526324, 19.6], [3.01096208, 50.62527938, 19.6], [3.01119346, 50.62528115, 19.6], [3.01234045, 50.62526668, 19.6], [3.01352413, 50.6252513, 19.6], [3.01362994, 50.62525578, 19.6], [3.01381334, 50.62524319, 19.6], [3.01505486, 50.62522689, 19.6], [3.01552607, 50.62521158, 19.6], [3.01638808, 50.6252016, 19.6], [3.01702153, 50.62518985, 19.6], [3.01848736, 50.62516182, 19.6], [3.01891766, 50.62516714, 19.6], [3.01910672, 50.6251698, 19.6], [3.0193395, 50.62517245, 19.6], [3.01978956, 50.62519123, 19.6], [3.02021705, 50.62521719, 19.6], [3.02064877, 50.62525032, 19.6], [3.02102407, 50.62528705, 19.6], [3.0214812, 50.62534172, 19.6], [3.02190306, 50.62540088, 19.6], [3.02228118, 50.62545645, 19.6], [3.02272422, 50.62553624, 19.6], [3.02313481, 50.62561604, 19.6], [3.0234678, 50.62569226, 19.6], [3.0238911, 50.62579269, 19.6], [3.0242382, 50.62587967, 19.6], [3.02474759, 50.62602047, 19.6], [3.02530496, 50.62619985, 19.6], [3.02582001, 50.62637923, 19.6], [3.02612905, 50.6265057, 19.6], [3.02646349, 50.62662409, 19.6], [3.02685721, 50.62679811, 19.6], [3.02772653, 50.62720356, 19.6], [3.02802149, 50.62735516, 19.6], [3.02830375, 50.62751574, 19.6], [3.02881749, 50.62781895, 19.6], [3.02929174, 50.62814012, 19.6], [3.02970955, 50.62844874, 19.6], [3.0300215, 50.62869456, 19.6], [3.03053535, 50.62914226, 19.6], [3.03094333, 50.6295092, 19.6], [3.0309518, 50.62951638, 19.6], [3.03116779, 50.6297003, 19.6], [3.03117626, 50.62970838, 19.6], [3.03164637, 50.63011838, 19.6], [3.03165765, 50.630113, 19.6], [3.03221812, 50.63060285, 19.6], [3.03266988, 50.63098863, 19.6], [3.03309059, 50.63135197, 19.6], [3.033116, 50.6313762, 19.6], [3.03313436, 50.63139414, 19.6], [3.03316542, 50.63142106, 19.6], [3.03346614, 50.6316929, 19.6], [3.03445161, 50.63255057, 19.6], [3.0356856, 50.63361995, 19.6], [3.03675869, 50.63455207, 19.6], [3.03691542, 50.63469022, 19.6], [3.03717098, 50.63490104, 19.6], [3.03816928, 50.63575778, 19.6], [3.03812272, 50.63577215, 19.6], [3.03811144, 50.63578382, 19.6], [3.03811709, 50.63579639, 19.6], [3.03813687, 50.63582061, 19.6], [3.03814112, 50.63584125, 25.2], [3.03777571, 50.6359338, 25.5], [3.03773901, 50.63591855, 19.4], [3.03765573, 50.63589255, 19.5], [3.03759077, 50.63582437, 19.9], [3.03752723, 50.63576695, 19.9], [3.03743543, 50.63567095, 19.7], [3.03728434, 50.63552831, 19.7], [3.03703582, 50.63530403, 19.6], [3.03701322, 50.6352825, 19.6], [3.03697229, 50.63526456, 19.7], [3.03693842, 50.63526547, 19.7], [3.03691868, 50.63527893, 19.7], [3.03691164, 50.63529868, 19.6], [3.03691449, 50.63534624, 19.7], [3.03694562, 50.6354629, 20], [3.03705025, 50.63574107, 20.1], [3.03708701, 50.6358326, 20], [3.03712516, 50.63591066, 20.2], [3.03715062, 50.63598155, 20.2], [3.03716619, 50.63604885, 20.2], [3.03717611, 50.63610449, 20.1], [3.03716768, 50.63615923, 20], [3.0371409, 50.63620322, 20.1], [3.03707886, 50.63626336, 20.3], [3.03701964, 50.63633338, 20.7], [3.03703238, 50.63639081, 20.6], [3.03703384, 50.63644465, 19.8], [3.03709173, 50.63650297, 19.1], [3.03712704, 50.63653616, 19.1], [3.03728515, 50.63662586, 19.1], [3.03728941, 50.63666265, 19], [3.03728942, 50.63666624, 19], [3.03735473, 50.63721275, 18.6], [3.03734783, 50.63741198, 18.6], [3.03734094, 50.63763903, 18.6], [3.03729331, 50.63811199, 18.6], [3.03730604, 50.63815057, 18.6], [3.03729661, 50.63874736, 18.6], [3.03729382, 50.6388039, 18.6], [3.03729129, 50.63919428, 18.6], [3.03729003, 50.63938812, 18.6], [3.03725759, 50.63941326, 18.6], [3.0371758, 50.63949584, 18.6], [3.03701502, 50.63963051, 18.6], [3.03700519, 50.6397023, 18.6], [3.03699113, 50.63976602, 18.5], [3.03699259, 50.63983961, 18.5], [3.0371098, 50.63994457, 18.5], [3.03709297, 50.64008817, 18.5], [3.03705508, 50.64038074, 18.5], [3.03704402, 50.64068855, 18.5], [3.03703715, 50.64093265, 18.5], [3.0370458, 50.64118123, 18.5], [3.03707983, 50.64140917, 18.5], [3.03712375, 50.64162992, 18.5], [3.03718177, 50.64184079, 18.5], [3.03723694, 50.64202206, 18.5], [3.03731049, 50.64223831, 18.5], [3.03738965, 50.64241418, 18.5], [3.03746175, 50.64257749, 18.5], [3.03756774, 50.64276502, 18.5], [3.03766099, 50.64290678, 18.5], [3.03780368, 50.64310417, 18.5], [3.03792942, 50.64326836, 18.5], [3.03807917, 50.64346754, 18.5], [3.03820769, 50.64359044, 18.5], [3.0383574, 50.64373129, 18.5], [3.03849722, 50.64385778, 18.5], [3.03865116, 50.64398965, 18.5], [3.03879238, 50.64410538, 18.5], [3.03888842, 50.6441897, 18.5], [3.03889128, 50.64424175, 18.5], [3.03890118, 50.6442588, 18.5], [3.03893648, 50.64428661, 18.5], [3.03895202, 50.64430366, 18.7], [3.03902121, 50.64434312, 19.5], [3.03905226, 50.64435029, 19.5], [3.03914401, 50.64435744, 19.5], [3.03920614, 50.64439511, 19.5], [3.03981614, 50.64476734, 19.5], [3.04016632, 50.64496646, 19.7], [3.04068027, 50.64523282, 19.4], [3.04110526, 50.64543101, 20], [3.04169544, 50.64569375, 20.3], [3.04216841, 50.64587487, 19.8], [3.04218959, 50.64589281, 19.8], [3.04228993, 50.64603995, 19.6], [3.04233797, 50.64610006, 19.5], [3.04239727, 50.64613414, 19.4], [3.04292961, 50.64640857, 19.1], [3.04400135, 50.64694754, 18.5], [3.04449854, 50.64736735, 18.7], [3.04460304, 50.64742744, 18.7], [3.04589793, 50.64807759, 18.7], [3.04590076, 50.64808117, 18.7], [3.04613234, 50.64819596, 18.7], [3.04637241, 50.64831881, 18.7]], [[3.06395433, 50.66989152, 20.8], [3.06407436, 50.66989505, 20.8], [3.06407573, 50.66986094, 20.8], [3.06407712, 50.6698412, 20.8], [3.06396415, 50.66983946, 20.7], [3.06395433, 50.66989152, 20.8]]]]}, "geometry_name": "geometrie", "properties": {"cleabs": "SURF_EAU0000000056534384", "code_hydrographique": "01S0000000056534384", "code_du_pays": "FR", "nature": "Canal", "position_par_rapport_au_sol": "0", "etat_de_l_objet": "En service", "date_creation": "2007-02-05T10:37:42.757Z", "date_modification": "2025-09-15T09:44:05.521Z", "date_d_apparition": null, "date_de_confirmation": null, "sources": null, "identifiants_sources": null, "methode_d_acquisition_planimetrique": "BDTopo", "precision_planimetrique": 2.5, "methode_d_acquisition_altimetrique": "BDTopo", "precision_altimetrique": 1.5, "mode_d_obtention_des_coordonnees": "Imagerie satellite ou a\u00e9rienne", "mode_d_obtention_de_l_altitude": "Autres modes", "statut": "Valid\u00e9", "persistance": "Permanent", "salinite": false, "origine": "Artificielle", "commentaire_sur_l_objet_hydro": null, "liens_vers_plan_d_eau": null, "liens_vers_cours_d_eau": null, "lien_vers_entite_de_transition": null, "cpx_toponyme_de_plan_d_eau": null, "cpx_toponyme_de_cours_d_eau": null, "cpx_toponyme_d_entite_de_transition": null}}, {"type": "Feature", "id": "surface_hydrographique.237806", "geometry": {"type": "MultiPolygon", "coordinates": [[[[3.04684235, 50.63764837, 17.1], [3.04686073, 50.63768247, 17.1], [3.04691871, 50.63781706, 17.1], [3.04697661, 50.63786191, 17.1], [3.04702745, 50.63790407, 17.1], [3.04709521, 50.63792199, 17.1], [3.04717283, 50.63793722, 17.1], [3.04719967, 50.63796323, 17.1], [3.04719122, 50.63798388, 17.1], [3.04715172, 50.63799107, 17.1], [3.04703741, 50.63798842, 17.1], [3.04698377, 50.6379678, 17.1], [3.04690892, 50.63791668, 17.1], [3.04686089, 50.63786195, 17.1], [3.04683121, 50.63780991, 17.1], [3.04678884, 50.63776865, 17.1], [3.0467055, 50.63768791, 17.1], [3.04668712, 50.63764484, 17.1], [3.04663629, 50.63762243, 17.1], [3.04655302, 50.63760541, 17.1], [3.04647821, 50.63758838, 17.1], [3.0464006, 50.63759111, 17.1], [3.04634558, 50.63760279, 17.1], [3.04630185, 50.63762345, 17.1], [3.0462285, 50.63765578, 17.1], [3.04617489, 50.63767644, 17.1], [3.04592945, 50.63778871, 17.1], [3.04586033, 50.63782105, 17.1], [3.04583072, 50.63784529, 17.1], [3.04578699, 50.63786415, 17.1], [3.04574748, 50.63786147, 17.1], [3.04575169, 50.63784352, 17.1], [3.04575308, 50.63781839, 17.1], [3.04577846, 50.63778877, 17.1], [3.04580666, 50.63776722, 17.1], [3.04583909, 50.63774208, 17.1], [3.04586729, 50.63771694, 17.1], [3.04594346, 50.63768102, 17], [3.04606901, 50.63763072, 17.1], [3.0462933, 50.6375382, 17.1], [3.04634126, 50.63751754, 17.1], [3.04643298, 50.63751122, 17.1], [3.04652754, 50.63751837, 17.1], [3.04661929, 50.63754256, 17.1], [3.0467308, 50.63757393, 17.1], [3.04678586, 50.63760263, 17.1], [3.04684235, 50.63764837, 17.1]]]]}, "geometry_name": "geometrie", "properties": {"cleabs": "SURF_EAU0000000056534030", "code_hydrographique": "01S0000000056534030", "code_du_pays": "FR", "nature": "Retenue", "position_par_rapport_au_sol": "0", "etat_de_l_objet": "En service", "date_creation": "2007-02-05T10:37:42.757Z", "date_modification": "2023-02-03T14:45:35.874Z", "date_d_apparition": null, "date_de_confirmation": null, "sources": null, "identifiants_sources": null, "methode_d_acquisition_planimetrique": "BDTopo", "precision_planimetrique": 2.5, "methode_d_acquisition_altimetrique": "BDTopo", "precision_altimetrique": 1.5, "mode_d_obtention_des_coordonnees": "Imagerie satellite ou a\u00e9rienne", "mode_d_obtention_de_l_altitude": "Autres modes", "statut": "Valid\u00e9", "persistance": "Permanent", "salinite": false, "origine": "Artificielle", "commentaire_sur_l_objet_hydro": null, "liens_vers_plan_d_eau": null, "liens_vers_cours_d_eau": null, "lien_vers_entite_de_transition": null, "cpx_toponyme_de_plan_d_eau": null, "cpx_toponyme_de_cours_d_eau": null, "cpx_toponyme_d_entite_de_transition": null}}, {"type": "Feature", "id": "surface_hydrographique.355729", "geometry": {"type": "MultiPolygon", "coordinates": [[[[3.04802083, 50.63633141, 17.4], [3.04810546, 50.63629727, 17.4], [3.04815625, 50.6362793, 17.4], [3.04822395, 50.63624428, 17.4], [3.04829166, 50.63622002, 17.4], [3.04835091, 50.63620923, 17.4], [3.04841019, 50.63621818, 17.4], [3.04847088, 50.63623341, 17.4], [3.04854005, 50.63625313, 17.4], [3.0485965, 50.63626298, 17.4], [3.04863884, 50.63626924, 17.4], [3.04884628, 50.63626737, 17.4], [3.04907911, 50.63626458, 17.4], [3.04913274, 50.63626815, 17.4], [3.04919484, 50.636278, 17.4], [3.04924, 50.63628965, 17.4], [3.04934727, 50.63630666, 20], [3.049487, 50.6363407, 20], [3.04960699, 50.63638552, 20], [3.04973687, 50.63643483, 20], [3.04983708, 50.63646261, 20], [3.04987098, 50.63648593, 20], [3.04988933, 50.63649938, 20], [3.05000091, 50.63659177, 20], [3.05008992, 50.63670212, 20], [3.05020707, 50.63673169, 25.1], [3.05033129, 50.63677202, 25.1], [3.05035253, 50.63683842, 20], [3.05032151, 50.63687164, 20], [3.05028907, 50.63688422, 20], [3.05021004, 50.63687976, 20], [3.05011971, 50.63685826, 20], [3.05006323, 50.63682777, 20], [3.05002226, 50.63678471, 20], [3.05000953, 50.63675241, 20], [3.05000246, 50.63673536, 20], [3.04995865, 50.63667525, 20], [3.04992612, 50.6365945, 20], [3.04986114, 50.63652991, 20], [3.0498089, 50.63649852, 20], [3.0497736, 50.636477, 20], [3.04965362, 50.63644833, 20], [3.0495153, 50.63641877, 20], [3.04940519, 50.63637394, 20], [3.04934872, 50.63635242, 20], [3.04922311, 50.63633004, 19.4], [3.04898465, 50.63634718, 18.3], [3.04889576, 50.63636696, 17.4], [3.04884356, 50.63637865, 17.4], [3.04878995, 50.63639213, 17.4], [3.04873494, 50.6364101, 17.4], [3.04867286, 50.63642718, 17.4], [3.04862912, 50.63643348, 17.4], [3.04857409, 50.63643529, 17.5], [3.04853881, 50.63642902, 17.5], [3.04850492, 50.63641109, 17.5], [3.04845268, 50.6363806, 17.5], [3.04840045, 50.63635728, 17.5], [3.04832281, 50.63633488, 17.5], [3.04826777, 50.63632862, 17.5], [3.04820851, 50.63633761, 17.5], [3.04816337, 50.63635289, 17.5], [3.04805192, 50.63638524, 17.5], [3.04800536, 50.63639244, 17.5], [3.04793057, 50.63638977, 17.5], [3.04786566, 50.6363898, 17.5], [3.04778946, 50.63638803, 17.5], [3.04772454, 50.63638537, 17.5], [3.0476427, 50.6363854, 17.5], [3.04755237, 50.63637556, 17.5], [3.04746486, 50.63634957, 17.5], [3.0473717, 50.63632268, 17.5], [3.04728137, 50.63630836, 17.5], [3.04719104, 50.63629044, 17.5], [3.04714303, 50.63624918, 17.5], [3.0471458, 50.63619264, 17.5], [3.04718669, 50.63616211, 17.5], [3.04727557, 50.63613964, 17.5], [3.047356, 50.63613961, 17.5], [3.04742797, 50.63614138, 17.5], [3.04749289, 50.63615123, 17.5], [3.04756347, 50.63617453, 17.5], [3.04760301, 50.63619875, 17.5], [3.04762986, 50.63623912, 17.5], [3.04767221, 50.63626423, 17.5], [3.04772869, 50.63629203, 17.5], [3.04778656, 50.63631355, 17.5], [3.04786701, 50.63632698, 17.5], [3.04795168, 50.63633412, 17.5], [3.04802083, 50.63633141, 17.4]]]]}, "geometry_name": "geometrie", "properties": {"cleabs": "SURF_EAU0000000056534028", "code_hydrographique": "01S0000000056534028", "code_du_pays": "FR", "nature": "R\u00e9servoir-bassin d'orage", "position_par_rapport_au_sol": "0", "etat_de_l_objet": "En service", "date_creation": "2007-02-05T10:37:42.757Z", "date_modification": "2023-02-03T14:45:35.874Z", "date_d_apparition": null, "date_de_confirmation": null, "sources": null, "identifiants_sources": null, "methode_d_acquisition_planimetrique": "BDTopo", "precision_planimetrique": 2.5, "methode_d_acquisition_altimetrique": "BDTopo", "precision_altimetrique": 1.5, "mode_d_obtention_des_coordonnees": "Imagerie satellite ou a\u00e9rienne", "mode_d_obtention_de_l_altitude": "Autres modes", "statut": "Valid\u00e9", "persistance": "Permanent", "salinite": false, "origine": "Artificielle", "commentaire_sur_l_objet_hydro": null, "liens_vers_plan_d_eau": null, "liens_vers_cours_d_eau": null, "lien_vers_entite_de_transition": null, "cpx_toponyme_de_plan_d_eau": null, "cpx_toponyme_de_cours_d_eau": null, "cpx_toponyme_d_entite_de_transition": null}}, {"type": "Feature", "id": "surface_hydrographique.396346", "geometry": {"type": "MultiPolygon", "coordinates": [[[[3.0548939, 50.63711919, 16.3], [3.05502529, 50.63725643, 16.6], [3.05444032, 50.63786245, 16.8], [3.05370364, 50.63782598, 16.9], [3.05285589, 50.63817275, 16.9], [3.0527514, 50.63810638, 16.9], [3.05342706, 50.637827, 16.8], [3.05419686, 50.63717962, 16.1], [3.0548939, 50.63711919, 16.3]]]]}, "geometry_name": "geometrie", "properties": {"cleabs": "SURF_EAU0000000056534020", "code_hydrographique": "01S0000000056534020", "code_du_pays": "FR", "nature": "R\u00e9servoir-bassin d'orage", "position_par_rapport_au_sol": "0", "etat_de_l_objet": "En service", "date_creation": "2007-02-05T10:37:42.757Z", "date_modification": "2023-02-03T14:45:35.874Z", "date_d_apparition": null, "date_de_confirmation": null, "sources": null, "identifiants_sources": null, "methode_d_acquisition_planimetrique": "BDTopo", "precision_planimetrique": 2.5, "methode_d_acquisition_altimetrique": "BDTopo", "precision_altimetrique": 1.5, "mode_d_obtention_des_coordonnees": "Imagerie satellite ou a\u00e9rienne", "mode_d_obtention_de_l_altitude": "Autres modes", "statut": "Valid\u00e9", "persistance": "Intermittent", "salinite": false, "origine": "Artificielle", "commentaire_sur_l_objet_hydro": null, "liens_vers_plan_d_eau": null, "liens_vers_cours_d_eau": null, "lien_vers_entite_de_transition": null, "cpx_toponyme_de_plan_d_eau": null, "cpx_toponyme_de_cours_d_eau": null, "cpx_toponyme_d_entite_de_transition": null}}, {"type": "Feature", "id": "surface_hydrographique.458883", "geometry": {"type": "MultiPolygon", "coordinates": [[[[3.04085698, 50.63865022, 19.8], [3.04088814, 50.63878841, 19.7], [3.04087265, 50.6388279, 19.8], [3.04080634, 50.63884677, 20], [3.04061725, 50.6388585, 20], [3.04049025, 50.63887469, 20], [3.04047194, 50.6389088, 20], [3.0404875, 50.63895636, 20], [3.04065849, 50.63924527, 20], [3.04065428, 50.63927848, 20], [3.04060209, 50.6393108, 20], [3.04042292, 50.63937188, 20], [3.04032696, 50.6393755, 20], [3.04024934, 50.63938002, 20], [3.04019996, 50.63938631, 20], [3.04010824, 50.63939891, 20], [3.04001511, 50.63942137, 20], [3.03993893, 50.63944922, 30.5], [3.03982747, 50.63948336, 30.5], [3.03969906, 50.63949506, 30.5], [3.03953961, 50.63951934, 30.5], [3.0392955, 50.6395607, 30.5], [3.0391262, 50.63961729, 30.7], [3.03918835, 50.63969356, 31], [3.03921521, 50.63974739, 31.1], [3.03929288, 50.63981198, 20], [3.03947223, 50.63997705, 20], [3.03951744, 50.64003896, 20], [3.03954428, 50.64007126, 20], [3.03948361, 50.64009461, 20], [3.03944832, 50.64007847, 20], [3.03938903, 50.64005605, 20], [3.03936785, 50.64003452, 20], [3.03918424, 50.63984702, 20], [3.03906421, 50.63975282, 26.7], [3.03895547, 50.63965953, 26.7], [3.03892294, 50.63956262, 27.3], [3.03895962, 50.63954286, 27.6], [3.03900476, 50.63951951, 28], [3.03908094, 50.63949526, 30.4], [3.03985844, 50.63938553, 30.5], [3.03997274, 50.63937382, 20], [3.04010536, 50.6393325, 20], [3.04014204, 50.63932082, 20], [3.04015612, 50.63927864, 20], [3.03973094, 50.63876096, 21], [3.03962924, 50.63864523, 20.7], [3.03964191, 50.63860574, 20.8], [3.03967575, 50.63857342, 20.9], [3.04077643, 50.63850217, 20], [3.04083149, 50.63853894, 19.9], [3.04085698, 50.63865022, 19.8]], [[3.04030995, 50.63928577, 20], [3.04034947, 50.63928934, 20], [3.04047787, 50.63927135, 20], [3.04053149, 50.63925967, 20], [3.04053429, 50.63922646, 20], [3.04051591, 50.63918429, 20], [3.04047068, 50.63909726, 20], [3.04039864, 50.63901651, 20], [3.04037031, 50.63888729, 20.1], [3.04037451, 50.63883973, 20.1], [3.04044363, 50.6388083, 20], [3.04070046, 50.63879206, 20], [3.04076255, 50.63879204, 20], [3.04078368, 50.63874447, 20], [3.04076527, 50.63866281, 20], [3.04074969, 50.63860089, 20], [3.0407144, 50.63857847, 20], [3.04067065, 50.63857848, 20], [3.03984091, 50.63863439, 21], [3.03980564, 50.63864966, 21], [3.03980143, 50.63867748, 21], [3.03982544, 50.6387044, 21], [3.03999069, 50.63887754, 20.6], [3.0402789, 50.63928309, 20], [3.04030995, 50.63928577, 20]]]]}, "geometry_name": "geometrie", "properties": {"cleabs": "SURF_EAU0000000056534027", "code_hydrographique": "01S0000000056534027", "code_du_pays": "FR", "nature": "Retenue", "position_par_rapport_au_sol": "0", "etat_de_l_objet": "En service", "date_creation": "2007-02-05T10:37:42.757Z", "date_modification": "2023-02-03T14:45:35.874Z", "date_d_apparition": null, "date_de_confirmation": null, "sources": null, "identifiants_sources": null, "methode_d_acquisition_planimetrique": "BDTopo", "precision_planimetrique": 2.5, "methode_d_acquisition_altimetrique": "BDTopo", "precision_altimetrique": 1.5, "mode_d_obtention_des_coordonnees": "Imagerie satellite ou a\u00e9rienne", "mode_d_obtention_de_l_altitude": "Autres modes", "statut": "Valid\u00e9", "persistance": "Permanent", "salinite": false, "origine": "Artificielle", "commentaire_sur_l_objet_hydro": null, "liens_vers_plan_d_eau": null, "liens_vers_cours_d_eau": null, "lien_vers_entite_de_transition": null, "cpx_toponyme_de_plan_d_eau": null, "cpx_toponyme_de_cours_d_eau": null, "cpx_toponyme_d_entite_de_transition": null}}, {"type": "Feature", "id": "surface_hydrographique.489819", "geometry": {"type": "MultiPolygon", "coordinates": [[[[3.04698726, 50.64622493, 17.5], [3.04724426, 50.64635944, 18], [3.04737408, 50.64632529, 18], [3.04745175, 50.64637013, 18], [3.04752524, 50.64647689, 18], [3.04753943, 50.64655137, 18], [3.0474887, 50.64663754, 18], [3.0474055, 50.64671565, 17.2], [3.04726445, 50.6468198, 17.2], [3.04700903, 50.64687105, 17.2], [3.04690742, 50.64687917, 17.2], [3.0467804, 50.64688729, 17.2], [3.04649531, 50.64691073, 17.2], [3.04632313, 50.64692515, 17.2], [3.04602251, 50.64693873, 17.2], [3.04592794, 50.64693876, 17.2], [3.04587006, 50.64692801, 17.2], [3.04582204, 50.64688675, 17.2], [3.04580647, 50.64684548, 17.2], [3.0458163, 50.64678983, 17.2], [3.04581625, 50.6467315, 17.2], [3.0458387, 50.6465906, 17.2], [3.04587955, 50.64649456, 17.2], [3.04594709, 50.6462657, 17.2], [3.04597381, 50.64616787, 17.2], [3.04600477, 50.64606286, 17.2], [3.04600892, 50.64596953, 17.2], [3.04600743, 50.64588787, 17.2], [3.04601723, 50.64579902, 17.2], [3.04603549, 50.64570748, 17.2], [3.0460594, 50.64561234, 17.2], [3.0461045, 50.64554412, 17.2], [3.04615104, 50.64550552, 17.2], [3.04621874, 50.64545613, 17.2], [3.04626388, 50.6454265, 17.2], [3.04633443, 50.64540314, 17.2], [3.04639652, 50.64539863, 17.2], [3.04646851, 50.64540848, 17.2], [3.04656452, 50.64543716, 17.2], [3.04664077, 50.64547482, 17.2], [3.04672268, 50.64552774, 17.2], [3.04681304, 50.64557078, 17.2], [3.04688083, 50.64561383, 17.2], [3.04695852, 50.64567572, 17.2], [3.04700938, 50.64572955, 17.2], [3.04705035, 50.64577261, 17.2], [3.04705885, 50.6458094, 17.2], [3.0470617, 50.64583991, 17.2], [3.04702224, 50.64590005, 17.2], [3.04695881, 50.6459952, 17.2], [3.0469165, 50.64602932, 17.2], [3.0468742, 50.64606702, 17.2], [3.04680506, 50.64609128, 17.2], [3.04674579, 50.64609938, 17.2], [3.04698726, 50.64622493, 17.5]], [[3.0469111, 50.64628508, 18.5], [3.04662302, 50.64612724, 19], [3.04642958, 50.64604117, 17.2], [3.04622789, 50.6461956, 17.2], [3.04615223, 50.64679689, 17.2], [3.04721779, 50.646722, 17.2], [3.04740958, 50.64655501, 17.7], [3.0469111, 50.64628508, 18.5]]]]}, "geometry_name": "geometrie", "properties": {"cleabs": "SURF_EAU0000000056533846", "code_hydrographique": "01S0000000056533846", "code_du_pays": "FR", "nature": "Retenue", "position_par_rapport_au_sol": "0", "etat_de_l_objet": "En service", "date_creation": "2007-02-05T10:37:42.757Z", "date_modification": "2023-02-03T14:45:35.874Z", "date_d_apparition": null, "date_de_confirmation": null, "sources": null, "identifiants_sources": null, "methode_d_acquisition_planimetrique": "BDTopo", "precision_planimetrique": 2.5, "methode_d_acquisition_altimetrique": "BDTopo", "precision_altimetrique": 1.5, "mode_d_obtention_des_coordonnees": "Imagerie satellite ou a\u00e9rienne", "mode_d_obtention_de_l_altitude": "Autres modes", "statut": "Valid\u00e9", "persistance": "Permanent", "salinite": false, "origine": "Artificielle", "commentaire_sur_l_objet_hydro": null, "liens_vers_plan_d_eau": null, "liens_vers_cours_d_eau": null, "lien_vers_entite_de_transition": null, "cpx_toponyme_de_plan_d_eau": null, "cpx_toponyme_de_cours_d_eau": null, "cpx_toponyme_d_entite_de_transition": null}}, {"type": "Feature", "id": "surface_hydrographique.804344", "geometry": {"type": "MultiPolygon", "coordinates": [[[[3.04589465, 50.64448346, 18.4], [3.04587777, 50.64454539, 18.4], [3.04589476, 50.6446091, 18.4], [3.04596818, 50.64464138, 18.4], [3.04600068, 50.64467726, 18.4], [3.04602752, 50.64471135, 18.4], [3.0460445, 50.64475083, 18.4], [3.04606147, 50.64478762, 18.4], [3.04610386, 50.64484414, 18.4], [3.04614764, 50.64487464, 18.4], [3.04618155, 50.6449159, 18.4], [3.04624511, 50.64496344, 18.4], [3.04630724, 50.6450047, 18.4], [3.04633548, 50.64501725, 18.4], [3.04639053, 50.64502082, 18.4], [3.04644556, 50.64500644, 18.4], [3.04649776, 50.64497861, 18.4], [3.04654147, 50.64494, 18.4], [3.04656261, 50.6449014, 18.4], [3.04656822, 50.64486999, 18.4], [3.04654841, 50.64481526, 18.4], [3.04650884, 50.64475784, 18.4], [3.04645655, 50.64467799, 18.4], [3.04641982, 50.64464569, 18.4], [3.04637602, 50.64459635, 18.4], [3.04632657, 50.64453983, 18.4], [3.04627998, 50.64451562, 18.4], [3.04620939, 50.6444977, 18.4], [3.04615434, 50.64449054, 18.4], [3.0461247, 50.64448158, 18.4], [3.04606399, 50.64446545, 18.4], [3.046016, 50.6444538, 18.4], [3.04595389, 50.64445113, 18.4], [3.0459045, 50.64445922, 18.4], [3.04589465, 50.64448346, 18.4]]]]}, "geometry_name": "geometrie", "properties": {"cleabs": "SURF_EAU0000000358143367", "code_hydrographique": "01S0000000358143367", "code_du_pays": "FR", "nature": "Retenue", "position_par_rapport_au_sol": "0", "etat_de_l_objet": "En service", "date_creation": "2016-08-03T12:59:40.518Z", "date_modification": "2023-02-03T14:45:35.874Z", "date_d_apparition": null, "date_de_confirmation": "2015-07-01Z", "sources": null, "identifiants_sources": "", "methode_d_acquisition_planimetrique": "Photogramm\u00e9trie", "precision_planimetrique": 2.5, "methode_d_acquisition_altimetrique": "Photogramm\u00e9trie", "precision_altimetrique": 1.5, "mode_d_obtention_des_coordonnees": "Imagerie satellite ou a\u00e9rienne", "mode_d_obtention_de_l_altitude": "Autres modes", "statut": "Valid\u00e9", "persistance": "Intermittent", "salinite": false, "origine": "Artificielle", "commentaire_sur_l_objet_hydro": null, "liens_vers_plan_d_eau": null, "liens_vers_cours_d_eau": null, "lien_vers_entite_de_transition": null, "cpx_toponyme_de_plan_d_eau": null, "cpx_toponyme_de_cours_d_eau": null, "cpx_toponyme_d_entite_de_transition": null}}, {"type": "Feature", "id": "surface_hydrographique.804922", "geometry": {"type": "MultiPolygon", "coordinates": [[[[3.0381561, 50.6406954, 20], [3.03816598, 50.64070526, 20], [3.03825492, 50.64074383, 19.7], [3.03860079, 50.64089179, 19], [3.03906244, 50.64110972, 19], [3.03910199, 50.64115458, 19], [3.03911188, 50.64116624, 19], [3.0390752, 50.64117792, 19], [3.03906109, 50.64118241, 19], [3.03891992, 50.64112951, 19], [3.03859803, 50.64097436, 19.3], [3.03824793, 50.6408246, 20], [3.03804463, 50.64072774, 20], [3.03798533, 50.64069455, 20], [3.03797684, 50.64065776, 20], [3.03802479, 50.64061736, 20], [3.03827453, 50.64055446, 20], [3.03857367, 50.64048527, 20], [3.0389885, 50.64039271, 19.9], [3.03920438, 50.64033879, 19.9], [3.03932572, 50.64031004, 20], [3.03955995, 50.6402642, 20], [3.03963475, 50.64026417, 20], [3.03968559, 50.64030274, 20], [3.03987913, 50.64055486, 19.5], [3.03988904, 50.64060152, 19.4], [3.03986932, 50.64064101, 19.3], [3.03947995, 50.64082421, 19], [3.03943201, 50.64087179, 19], [3.03948991, 50.64092472, 19], [3.03954641, 50.64098662, 19], [3.03941948, 50.64109256, 19], [3.03935736, 50.64106476, 19], [3.03942222, 50.64099025, 19], [3.03927678, 50.6408862, 19], [3.0392584, 50.64084582, 19], [3.03932894, 50.6408081, 19], [3.03972394, 50.64061683, 19], [3.03976343, 50.6405872, 19], [3.03961084, 50.64037097, 20], [3.03956426, 50.64034945, 20], [3.03949088, 50.64036114, 20], [3.03917201, 50.64044739, 19.6], [3.03856668, 50.64057681, 20], [3.03816736, 50.64065591, 20], [3.0381335, 50.64067476, 20], [3.0381561, 50.6406954, 20]]]]}, "geometry_name": "geometrie", "properties": {"cleabs": "SURF_EAU0000000056534024", "code_hydrographique": "01S0000000056534024", "code_du_pays": "FR", "nature": "Retenue", "position_par_rapport_au_sol": "0", "etat_de_l_objet": "En service", "date_creation": "2007-02-05T10:37:42.757Z", "date_modification": "2023-02-03T14:45:35.874Z", "date_d_apparition": null, "date_de_confirmation": null, "sources": null, "identifiants_sources": null, "methode_d_acquisition_planimetrique": "BDTopo", "precision_planimetrique": 2.5, "methode_d_acquisition_altimetrique": "BDTopo", "precision_altimetrique": 1.5, "mode_d_obtention_des_coordonnees": "Imagerie satellite ou a\u00e9rienne", "mode_d_obtention_de_l_altitude": "Autres modes", "statut": "Valid\u00e9", "persistance": "Permanent", "salinite": false, "origine": "Artificielle", "commentaire_sur_l_objet_hydro": null, "liens_vers_plan_d_eau": null, "liens_vers_cours_d_eau": null, "lien_vers_entite_de_transition": null, "cpx_toponyme_de_plan_d_eau": null, "cpx_toponyme_de_cours_d_eau": null, "cpx_toponyme_d_entite_de_transition": null}}, {"type": "Feature", "id": "surface_hydrographique.804923", "geometry": {"type": "MultiPolygon", "coordinates": [[[[3.04164413, 50.63828111, 19.4], [3.04151393, 50.63954921, 19.9], [3.04150694, 50.63962908, 20], [3.04149432, 50.63972691, 20], [3.04042339, 50.63995431, 17.8], [3.04079487, 50.64036251, 17.6], [3.04097993, 50.64058591, 17.5], [3.04094184, 50.64060566, 17.5], [3.04088824, 50.64063799, 17.5], [3.04083181, 50.64066852, 17.5], [3.04076269, 50.64069995, 17.5], [3.04029164, 50.64109138, 17.5], [3.03977546, 50.64151782, 17.5], [3.03934388, 50.64186615, 17.5], [3.03945116, 50.64189573, 17.5], [3.04013153, 50.64205526, 17.6], [3.0411041, 50.64228827, 17.5], [3.04124243, 50.64231604, 17.9], [3.04135816, 50.64232139, 17.5], [3.04144849, 50.64232764, 17.5], [3.04155294, 50.64234465, 17.5], [3.04174209, 50.64238677, 17.9], [3.04175627, 50.64247292, 17.8], [3.04175778, 50.64258509, 17.5], [3.04176069, 50.64269278, 17.5], [3.04179212, 50.64315135, 18], [3.04231284, 50.64308387, 18], [3.04274889, 50.64302449, 18], [3.04292105, 50.6430011, 18], [3.04294091, 50.64311865, 17.5], [3.04427283, 50.64429918, 17.5], [3.04555066, 50.64335464, 17.5], [3.04564939, 50.6432846, 17.5], [3.04573266, 50.64328457, 17.5], [3.04580325, 50.64330788, 17.5], [3.04585549, 50.64333299, 17.5], [3.04590775, 50.64337515, 17.5], [3.04588802, 50.64341105, 17.5], [3.04583443, 50.64345774, 17.5], [3.04576251, 50.6435161, 17.5], [3.0456807, 50.64357356, 17.5], [3.04560877, 50.64362743, 17.5], [3.04553544, 50.64368938, 17.5], [3.04544094, 50.64375852, 17.5], [3.0453676, 50.64381598, 17.5], [3.04527171, 50.64389588, 17.5], [3.04519836, 50.64394437, 17.5], [3.04511937, 50.64399286, 17.5], [3.04502768, 50.64404943, 17.5], [3.04496704, 50.6441006, 17.5], [3.044905, 50.64416614, 17.5], [3.04482037, 50.64422988, 17.5], [3.04479358, 50.64424964, 17.5], [3.04473716, 50.64429094, 17.5], [3.04464406, 50.6443502, 17.5], [3.04445219, 50.64443193, 17.5], [3.04432239, 50.64448852, 17.5], [3.0442349, 50.64450111, 17.5], [3.04412339, 50.64448231, 17.5], [3.04403444, 50.64444375, 17.5], [3.04393558, 50.6443684, 17.5], [3.04382399, 50.64426524, 17.5], [3.04297512, 50.6435135, 17.5], [3.04288328, 50.64339059, 17.5], [3.04277594, 50.64330537, 17.5], [3.04271097, 50.64324168, 17.5], [3.04266577, 50.64319862, 17.5], [3.0425839, 50.6431798, 17.5], [3.04248511, 50.64318881, 17.5], [3.04240045, 50.64320409, 17.5], [3.04226921, 50.64322657, 17.5], [3.0421408, 50.64325443, 17.5], [3.04200252, 50.64328051, 17.5], [3.04184165, 50.64331377, 17.5], [3.04173865, 50.64334072, 17.5], [3.04161587, 50.64335422, 17.5], [3.04156224, 50.64334886, 17.5], [3.04152694, 50.64332643, 17.5], [3.04150431, 50.64326901, 17.5], [3.04150142, 50.64319452, 17.5], [3.04151123, 50.64310119, 17.5], [3.04151116, 50.6430276, 17.5], [3.04151392, 50.64294773, 17.5], [3.04151386, 50.64287145, 17.5], [3.04151238, 50.6427862, 17.5], [3.04149538, 50.64270992, 17.5], [3.04148683, 50.64261211, 17.5], [3.04147973, 50.64255737, 17.5], [3.0414444, 50.64250443, 17.5], [3.04139216, 50.64248201, 17.5], [3.0413343, 50.64247844, 17.5], [3.04118329, 50.6424767, 17.5], [3.0410478, 50.64247136, 17.5], [3.04064407, 50.64235931, 17.5], [3.04039281, 50.64229119, 17.5], [3.0400385, 50.64219977, 17.5], [3.03989733, 50.64215495, 17.5], [3.03973359, 50.6421209, 17.5], [3.03962208, 50.6420958, 17.5], [3.03950351, 50.64206982, 17.5], [3.03940612, 50.64204562, 17.5], [3.03930306, 50.64200975, 17.5], [3.03919576, 50.64194876, 17.5], [3.03912232, 50.64189045, 17.5], [3.03907711, 50.64182585, 17.5], [3.03905307, 50.64176125, 17.5], [3.0390488, 50.6417074, 17.5], [3.0390798, 50.64165534, 17.5], [3.03912776, 50.64161584, 17.5], [3.03920111, 50.64157723, 17.5], [3.0392787, 50.64153413, 17.5], [3.03937605, 50.64149461, 17.5], [3.03946776, 50.64146766, 17.5], [3.03955099, 50.64142546, 17.5], [3.03962715, 50.64136261, 17.5], [3.03967791, 50.64130247, 17.5], [3.03970749, 50.64123156, 17.5], [3.03974555, 50.64117412, 17.5], [3.0397794, 50.64115167, 17.5], [3.03981325, 50.64112564, 17.5], [3.03989647, 50.64107535, 17.5], [3.03998395, 50.6410493, 17.5], [3.04007706, 50.6410035, 17.5], [3.04016167, 50.64092809, 17.5], [3.04023642, 50.64086884, 17.5], [3.04031681, 50.64079971, 17.5], [3.04040708, 50.64073866, 17.5], [3.0404776, 50.64068569, 17.5], [3.04055095, 50.64064079, 17.5], [3.04059889, 50.64058514, 17.5], [3.04062284, 50.64053308, 17.5], [3.04062986, 50.64048551, 17.4], [3.04060017, 50.64043078, 17.2], [3.04054932, 50.64037157, 17], [3.04050979, 50.64034466, 17], [3.04044344, 50.64032314, 17], [3.04037145, 50.64029983, 17], [3.04033898, 50.64028369, 17], [3.04030647, 50.64022896, 17], [3.04024712, 50.64013385, 17], [3.04021178, 50.64006027, 17], [3.04017079, 50.63997054, 17], [3.04014251, 50.63990863, 17], [3.04013822, 50.63983684, 17], [3.04014381, 50.63976145, 17], [3.04026231, 50.63971475, 17], [3.04033993, 50.63971472, 16.9], [3.04038368, 50.63971471, 16.6], [3.04043872, 50.63971379, 16.2], [3.04058267, 50.63972182, 16], [3.04068991, 50.63971461, 16], [3.04077881, 50.63969843, 16], [3.04087475, 50.63967327, 16], [3.04096928, 50.63964093, 16], [3.04104686, 50.63960411, 16], [3.04109905, 50.63956191, 16], [3.0411272, 50.63947665, 16], [3.04115112, 50.63939228, 16], [3.04118212, 50.63932856, 16], [3.0412145, 50.63924329, 16], [3.04124123, 50.63914098, 16], [3.04124116, 50.63905483, 16], [3.04124107, 50.63893996, 16], [3.041241, 50.63885201, 16], [3.04123529, 50.63877752, 16], [3.04122955, 50.63866535, 16], [3.04123654, 50.63858368, 16], [3.04123788, 50.63850022, 16], [3.04125193, 50.63842304, 16], [3.04125327, 50.63833599, 16], [3.0412871, 50.63828034, 16], [3.04136046, 50.63825698, 16], [3.04142961, 50.63825696, 16], [3.04148888, 50.63826322, 16], [3.04154816, 50.63827756, 16], [3.04164413, 50.63828111, 19.4]]]]}, "geometry_name": "geometrie", "properties": {"cleabs": "SURF_EAU0000000056534025", "code_hydrographique": "01S0000000056534025", "code_du_pays": "FR", "nature": "Retenue", "position_par_rapport_au_sol": "0", "etat_de_l_objet": "En service", "date_creation": "2007-02-05T10:37:42.757Z", "date_modification": "2023-02-03T14:45:35.874Z", "date_d_apparition": null, "date_de_confirmation": null, "sources": null, "identifiants_sources": null, "methode_d_acquisition_planimetrique": "BDTopo", "precision_planimetrique": 2.5, "methode_d_acquisition_altimetrique": "BDTopo", "precision_altimetrique": 1.5, "mode_d_obtention_des_coordonnees": "Imagerie satellite ou a\u00e9rienne", "mode_d_obtention_de_l_altitude": "Autres modes", "statut": "Valid\u00e9", "persistance": "Permanent", "salinite": false, "origine": "Artificielle", "commentaire_sur_l_objet_hydro": null, "liens_vers_plan_d_eau": null, "liens_vers_cours_d_eau": null, "lien_vers_entite_de_transition": null, "cpx_toponyme_de_plan_d_eau": null, "cpx_toponyme_de_cours_d_eau": null, "cpx_toponyme_d_entite_de_transition": null}}, {"type": "Feature", "id": "surface_hydrographique.804924", "geometry": {"type": "MultiPolygon", "coordinates": [[[[3.04532939, 50.63744702, 17.6], [3.04540986, 50.63747929, 17.6], [3.04542963, 50.63749813, 17.6], [3.04544236, 50.63752236, 17.6], [3.04545085, 50.63754928, 17.6], [3.04546498, 50.63756902, 17.6], [3.04548756, 50.63757708, 17.6], [3.04551579, 50.63758336, 17.6], [3.04554544, 50.63760309, 17.6], [3.04557228, 50.63762821, 17.6], [3.04559346, 50.63764884, 17.6], [3.04561747, 50.63766498, 17.6], [3.04564712, 50.63767933, 17.6], [3.04567677, 50.63770086, 17.6], [3.04569232, 50.63772508, 17.6], [3.04569234, 50.63774842, 17.6], [3.04568954, 50.63777355, 17.6], [3.04566839, 50.63779868, 17.6], [3.04564442, 50.63781305, 17.6], [3.04562326, 50.63782113, 17.6], [3.04560773, 50.63781845, 17.6], [3.0455936, 50.6378014, 17.6], [3.04561335, 50.63778614, 17.6], [3.04564014, 50.6377628, 17.6], [3.04563306, 50.63774395, 17.6], [3.04561188, 50.63772691, 17.6], [3.04558224, 50.63771974, 17.6], [3.0455272, 50.63771976, 17.6], [3.04548204, 50.63771529, 17.6], [3.04544392, 50.63769377, 17.6], [3.04542698, 50.63768569, 17.6], [3.04538324, 50.63769469, 17.6], [3.04534092, 50.63771444, 17.6], [3.04529295, 50.63771536, 17.6], [3.04525766, 50.63770729, 17.6], [3.04521672, 50.63768846, 17.6], [3.04517719, 50.63766694, 17.6], [3.04514471, 50.63764721, 17.6], [3.04511647, 50.63762568, 17.6], [3.04506848, 50.63761942, 17.6], [3.04503462, 50.63762571, 17.6], [3.04498098, 50.63761047, 17.6], [3.04493862, 50.63757998, 17.6], [3.0449132, 50.63755576, 17.6], [3.04487507, 50.63752615, 17.6], [3.0448299, 50.63750643, 17.6], [3.04477344, 50.63749747, 17.6], [3.04472829, 50.63750108, 17.6], [3.04468879, 50.63751456, 17.6], [3.04464366, 50.63754957, 17.6], [3.04460699, 50.63757561, 17.6], [3.04455338, 50.63759447, 17.6], [3.04449131, 50.63760886, 17.6], [3.04444194, 50.6376331, 17.6], [3.0443968, 50.63765914, 17.6], [3.04435732, 50.63769416, 17.6], [3.04431501, 50.63772289, 17.6], [3.0442501, 50.63773009, 17.6], [3.04417531, 50.63772563, 17.6], [3.04411603, 50.63771309, 17.6], [3.04407367, 50.63768439, 17.6], [3.04405106, 50.6376485, 17.6], [3.04405103, 50.63761529, 17.6], [3.04406935, 50.63758567, 17.6], [3.04411024, 50.63755604, 17.6], [3.04432042, 50.63746174, 17.6], [3.04447983, 50.63739438, 17.6], [3.0445546, 50.63737012, 17.6], [3.04462937, 50.63735394, 17.6], [3.04469145, 50.63734225, 17.6], [3.044762, 50.63733056, 17.6], [3.04482691, 50.63732246, 17.6], [3.04488054, 50.63733051, 17.6], [3.044937, 50.63734485, 17.6], [3.04501322, 50.63736457, 17.6], [3.04507815, 50.63738698, 17.6], [3.04514873, 50.63741029, 17.6], [3.04520801, 50.63742283, 17.6], [3.04526729, 50.63743806, 17.6], [3.04532939, 50.63744702, 17.6]], [[3.04452363, 50.63745359, 17.6], [3.04446859, 50.63745002, 17.6], [3.04442485, 50.6374617, 17.6], [3.04435573, 50.63749224, 17.6], [3.04428378, 50.63751829, 17.6], [3.04422031, 50.63754883, 17.6], [3.04417095, 50.63758025, 17.6], [3.04415403, 50.63760269, 17.6], [3.04417663, 50.63762333, 17.6], [3.04421616, 50.63764036, 17.6], [3.0442599, 50.63763766, 17.6], [3.04431775, 50.63762956, 17.6], [3.04436854, 50.63761698, 17.6], [3.04440238, 50.63758825, 17.6], [3.04443624, 50.63757029, 17.6], [3.04448137, 50.63754514, 17.6], [3.0445265, 50.63751372, 17.6], [3.04455188, 50.63749307, 17.6], [3.04455751, 50.63747601, 17.6], [3.04452363, 50.63745359, 17.6]], [[3.04534218, 50.63754393, 17.6], [3.04527441, 50.63750896, 17.6], [3.04522784, 50.63750449, 17.6], [3.04519539, 50.63750719, 17.6], [3.04516435, 50.63751887, 17.6], [3.04514884, 50.63753503, 17.6], [3.04515875, 50.63756554, 17.6], [3.04518982, 50.63759065, 17.6], [3.04521806, 50.63761577, 17.6], [3.04525759, 50.6376355, 17.6], [3.045307, 50.63765074, 17.6], [3.04533664, 50.63765432, 17.6], [3.04536627, 50.63764982, 17.6], [3.04538177, 50.63763187, 17.6], [3.04538176, 50.63761302, 17.6], [3.0453775, 50.63758969, 17.6], [3.04535914, 50.63756636, 17.6], [3.04534218, 50.63754393, 17.6]]]]}, "geometry_name": "geometrie", "properties": {"cleabs": "SURF_EAU0000000056534026", "code_hydrographique": "01S0000000056534026", "code_du_pays": "FR", "nature": "Retenue", "position_par_rapport_au_sol": "0", "etat_de_l_objet": "En service", "date_creation": "2007-02-05T10:37:42.757Z", "date_modification": "2023-02-03T14:45:35.874Z", "date_d_apparition": null, "date_de_confirmation": null, "sources": null, "identifiants_sources": null, "methode_d_acquisition_planimetrique": "BDTopo", "precision_planimetrique": 2.5, "methode_d_acquisition_altimetrique": "BDTopo", "precision_altimetrique": 1.5, "mode_d_obtention_des_coordonnees": "Imagerie satellite ou a\u00e9rienne", "mode_d_obtention_de_l_altitude": "Autres modes", "statut": "Valid\u00e9", "persistance": "Permanent", "salinite": false, "origine": "Artificielle", "commentaire_sur_l_objet_hydro": null, "liens_vers_plan_d_eau": null, "liens_vers_cours_d_eau": null, "lien_vers_entite_de_transition": null, "cpx_toponyme_de_plan_d_eau": null, "cpx_toponyme_de_cours_d_eau": null, "cpx_toponyme_d_entite_de_transition": null}}, {"type": "Feature", "id": "surface_hydrographique.946584", "geometry": {"type": "MultiPolygon", "coordinates": [[[[3.02033887, 50.62990626, 19.4], [3.02035863, 50.62993318, 19.5], [3.02042352, 50.62990625, 19.5], [3.02048137, 50.62989547, 19.5], [3.0205505, 50.62988649, 18.6], [3.02067046, 50.62995018, 18.6], [3.02083276, 50.63005785, 18.6], [3.02104588, 50.6302014, 18.6], [3.02109387, 50.63025344, 18.5], [3.02116021, 50.63031266, 18.5], [3.02127595, 50.63040867, 18.5], [3.02145238, 50.63053697, 18.5], [3.02156106, 50.63061593, 18.5], [3.02208605, 50.63087788, 18.5], [3.02294836, 50.63131029, 18.5], [3.02391088, 50.63178485, 18.5], [3.02421009, 50.63193825, 18.5], [3.02434982, 50.63202079, 18.5], [3.02458694, 50.63217151, 18.5], [3.02484101, 50.63234376, 18.5], [3.02503862, 50.63248552, 18.5], [3.02522496, 50.63264702, 18.2], [3.02543251, 50.63290633, 18.2], [3.02566689, 50.63319795, 18.2], [3.02591396, 50.63346443, 18.8], [3.02593796, 50.63348955, 18.9], [3.0259789, 50.63352903, 19.1], [3.02616808, 50.63370938, 18.2], [3.0261822, 50.63373989, 19.1], [3.02620339, 50.63378386, 19.1], [3.02627116, 50.63385025, 19], [3.02633045, 50.63390678, 19], [3.02655775, 50.63412121, 18.8], [3.02663398, 50.63418761, 18.8], [3.02668763, 50.63424144, 18.8], [3.02673987, 50.63429527, 18.8], [3.0268048, 50.63434103, 18.8], [3.02689091, 50.63439127, 18.8], [3.02709981, 50.63450968, 18.6], [3.02745408, 50.63467742, 18.6], [3.02805819, 50.63496715, 18.6], [3.02861289, 50.63522279, 18.6], [3.02865242, 50.63524343, 18.6], [3.0287004, 50.63526226, 18.6], [3.02873147, 50.63529546, 18.6], [3.0287456, 50.63533315, 18.6], [3.02877243, 50.63536635, 18.6], [3.02879643, 50.6353789, 18.6], [3.02886982, 50.6354103, 18.6], [3.02891358, 50.63542823, 18.6], [3.02897004, 50.63546232, 18.6], [3.02900956, 50.63547937, 18.6], [3.0290646, 50.63549192, 18.6], [3.02911964, 50.63549998, 18.6], [3.02917326, 50.63550176, 18.6], [3.02921136, 50.63549906, 18.6], [3.02923254, 50.63551431, 18.6], [3.02926078, 50.63555379, 18.6], [3.02930454, 50.63557981, 18.6], [3.02933277, 50.63559326, 18.6], [3.029361, 50.63560582, 18.6], [3.02942593, 50.63563093, 18.6], [3.02945274, 50.635639, 18.6], [3.02950213, 50.63564258, 18.6], [3.02955717, 50.63564347, 18.6], [3.02963762, 50.63567306, 18.6], [3.02976748, 50.63574482, 18.6], [3.03001873, 50.63586412, 18.6], [3.03023188, 50.63597355, 18.6], [3.03083883, 50.63624712, 18.6], [3.03088679, 50.63622377, 18.6], [3.03098841, 50.63625516, 18.6], [3.03103076, 50.63626771, 18.6], [3.03109427, 50.63628565, 18.6], [3.03125377, 50.6363565, 18.6], [3.03148386, 50.63647849, 18.6], [3.03176196, 50.63665073, 18.6], [3.032105, 50.63685256, 18.6], [3.03214876, 50.63687947, 18.6], [3.0322377, 50.63693599, 18.6], [3.0324156, 50.63707504, 18.6], [3.03261326, 50.63722845, 18.6], [3.03284904, 50.63740966, 18.6], [3.03301284, 50.63756846, 18.6], [3.03315265, 50.63772817, 18.6], [3.03325714, 50.63782327, 18.6], [3.03337997, 50.63791657, 18.6], [3.0335155, 50.63800537, 18.6], [3.03363267, 50.6380547, 18.6], [3.0337964, 50.6381094, 18.6], [3.0340434, 50.63817664, 18.6], [3.03405328, 50.63818292, 18.6], [3.03419302, 50.63821878, 18.6], [3.03436944, 50.6382618, 18.6], [3.03459244, 50.63830571, 18.6], [3.03504972, 50.63838905, 18.6], [3.03504269, 50.63841597, 18.5], [3.03593328, 50.6385952, 18.4], [3.0359629, 50.63858083, 18.4], [3.03631576, 50.6386615, 18.4], [3.03632422, 50.63864714, 18.4], [3.03633408, 50.63863008, 18.4], [3.0363637, 50.63860674, 18.4], [3.03639898, 50.63861212, 18.4], [3.03641734, 50.63863275, 18.4], [3.03647944, 50.6386435, 18.4], [3.03647533, 50.63881312, 18.4], [3.03647395, 50.63885081, 18.5], [3.03646842, 50.63900696, 18.6], [3.03643594, 50.63897287, 18.6], [3.03636254, 50.63894866, 18.6], [3.03623551, 50.63891818, 18.6], [3.035805, 50.63879716, 18.6], [3.03555799, 50.63872543, 18.6], [3.03533217, 50.63868601, 18.6], [3.03514446, 50.63865825, 18.6], [3.03499345, 50.63863675, 18.6], [3.03488478, 50.63861883, 18.6], [3.03478034, 50.6386054, 18.6], [3.03460251, 50.63858212, 18.6], [3.03426519, 50.63851849, 18.6], [3.0339561, 50.63845666, 18.6], [3.03384459, 50.63842797, 18.6], [3.03376273, 50.63840735, 18.6], [3.03363005, 50.6383679, 18.6], [3.0335016, 50.6383096, 18.6], [3.03330959, 50.6381894, 18.6], [3.0331797, 50.63809431, 18.6], [3.03296931, 50.63790591, 18.6], [3.03276315, 50.63770763, 18.6], [3.03253158, 50.637495, 18.6], [3.03232686, 50.63733532, 18.6], [3.03208967, 50.63714692, 18.6], [3.03191461, 50.6370294, 18.6], [3.03173673, 50.63691547, 18.6], [3.03149675, 50.6367872, 18.6], [3.03076135, 50.63645624, 18.6], [3.02978739, 50.63599341, 18.7], [3.0295206, 50.63585616, 18.7], [3.02944437, 50.63580323, 18.7], [3.0293399, 50.63571082, 18.7], [3.02918464, 50.63564804, 18.8], [3.02901247, 50.63562026, 18.8], [3.02896307, 50.63560143, 18.8], [3.02893906, 50.63557092, 18.8], [3.02890375, 50.63552336, 18.8], [3.02885576, 50.63548927, 18.8], [3.02881624, 50.63547672, 18.8], [3.02877108, 50.63546686, 19], [3.02872167, 50.63543725, 18.8], [3.02869061, 50.63541572, 18.8], [3.02863981, 50.63540497, 18.8], [3.0285876, 50.63540049, 18.8], [3.02853257, 50.63540678, 18.8], [3.02849164, 50.63540231, 18.8], [3.02793694, 50.63515115, 18.8], [3.02783531, 50.63510541, 18.8], [3.02755161, 50.63497534, 18.8], [3.02717757, 50.63479594, 18.8], [3.02682188, 50.63462012, 18.8], [3.02666098, 50.63454119, 18.8], [3.02654665, 50.6344739, 18.8], [3.02629113, 50.63426665, 18.8], [3.02579845, 50.63383958, 18.2], [3.02564173, 50.63366372, 18.8], [3.02560361, 50.63362155, 18.7], [3.0255669, 50.63358207, 18.7], [3.02541301, 50.63341159, 18.2], [3.02479185, 50.63279518, 18.8], [3.02450951, 50.63252691, 18.8], [3.02430625, 50.63237707, 18.8], [3.02405078, 50.63222636, 18.8], [3.02363302, 50.63200836, 18.8], [3.02287937, 50.63163338, 18.8], [3.02197048, 50.63116867, 18.8], [3.02161483, 50.63097489, 18.8], [3.02160918, 50.6309722, 18.8], [3.02082591, 50.63053798, 18.8], [3.02031501, 50.63021409, 18.8], [3.02014847, 50.63011629, 18.8], [3.02015834, 50.63009206, 18.6], [3.02016679, 50.63005437, 18.6], [3.02020487, 50.63002026, 18.6], [3.02024155, 50.6300041, 18.5], [3.02021473, 50.62997987, 19.4], [3.02018086, 50.62996103, 19.3], [3.02011738, 50.62999335, 19.2], [3.02006659, 50.63000413, 19.2], [3.0199777, 50.63000504, 19.2], [3.01958254, 50.62975382, 19.2], [3.01944847, 50.62967218, 19.2], [3.01841966, 50.62904682, 19.2], [3.01737675, 50.62837031, 19.2], [3.01687435, 50.62804371, 19.2], [3.01673041, 50.62794771, 19.2], [3.01606293, 50.62754485, 19.2], [3.01543919, 50.6271357, 19.2], [3.01551676, 50.62703248, 19.2], [3.01556472, 50.62699478, 19.2], [3.01559575, 50.62697055, 19.1], [3.01567051, 50.62691579, 19.1], [3.01646357, 50.62740838, 19.1], [3.01710848, 50.62780586, 19.2], [3.01772377, 50.62818359, 19.2], [3.01831083, 50.62854338, 19.3], [3.01860424, 50.62837103, 19.4], [3.01891739, 50.62818252, 19.1], [3.01926298, 50.62796798, 19.2], [3.01950559, 50.62779833, 19.1], [3.01959444, 50.62771216, 19.1], [3.01963391, 50.62761882, 19.1], [3.01964796, 50.62747254, 19.1], [3.01967051, 50.62740074, 19.2], [3.01977066, 50.62734508, 19.1], [3.01977629, 50.62731995, 19.1], [3.01976781, 50.62729572, 19.1], [3.01963082, 50.62694126, 19.2], [3.01946279, 50.62657603, 19.7], [3.0194063, 50.62645219, 19.8], [3.01938937, 50.62644232, 20], [3.01936256, 50.62642527, 23.8], [3.01941617, 50.62641719, 23.8], [3.01949799, 50.62640371, 23.8], [3.01965459, 50.62637856, 23.8], [3.01965177, 50.62639741, 19.8], [3.01989183, 50.62694481, 19.8], [3.02011355, 50.62746349, 19.1], [3.0201799, 50.62756937, 19.2], [3.02030129, 50.6276941, 19.2], [3.02054969, 50.62790226, 19.2], [3.02034957, 50.62846588, 19.2], [3.02089998, 50.62882477, 19.2], [3.02095224, 50.62897912, 19.2], [3.02101574, 50.6289791, 19.2], [3.02103269, 50.62903654, 19.2], [3.0210327, 50.62906346, 19.2], [3.02102566, 50.62908769, 19.2], [3.0207817, 50.6294144, 19.3], [3.02068158, 50.62954903, 19.3], [3.02066183, 50.62956519, 19.3], [3.02044319, 50.62970343, 19.3], [3.02051517, 50.6297438, 19.3], [3.0203995, 50.6298192, 19.3], [3.02030358, 50.62988114, 19.4], [3.02033887, 50.62990626, 19.4]]]]}, "geometry_name": "geometrie", "properties": {"cleabs": "SURF_EAU0000000056534255", "code_hydrographique": "01S0000000056534255", "code_du_pays": "FR", "nature": "Ecoulement naturel", "position_par_rapport_au_sol": "0", "etat_de_l_objet": "En service", "date_creation": "2007-02-05T10:37:42.757Z", "date_modification": "2026-04-27T08:54:44.834Z", "date_d_apparition": null, "date_de_confirmation": null, "sources": null, "identifiants_sources": null, "methode_d_acquisition_planimetrique": "BDTopo", "precision_planimetrique": 2.5, "methode_d_acquisition_altimetrique": "BDTopo", "precision_altimetrique": 1.5, "mode_d_obtention_des_coordonnees": "Imagerie satellite ou a\u00e9rienne", "mode_d_obtention_de_l_altitude": "Autres modes", "statut": "Valid\u00e9", "persistance": "Permanent", "salinite": false, "origine": "Naturelle non am\u00e9nag\u00e9e", "commentaire_sur_l_objet_hydro": null, "liens_vers_plan_d_eau": null, "liens_vers_cours_d_eau": null, "lien_vers_entite_de_transition": null, "cpx_toponyme_de_plan_d_eau": null, "cpx_toponyme_de_cours_d_eau": null, "cpx_toponyme_d_entite_de_transition": null}}], "totalFeatures": 12, "numberMatched": 12, "numberReturned": 12, "timeStamp": "2026-09-21T10:18:19.380Z", "crs": {"type": "name", "properties": {"name": "urn:ogc:def:crs:EPSG::4326"}}}