{"type": "FeatureCollection", "features": [{"type": "Feature", "id": "b_3_troncon_de_cours_d_eau.509", "geometry": {"type": "MultiLineString", "coordinates": [[[3.05495553, 50.63688216], [3.05404123, 50.63677617]]]}, "geometry_name": "geom", "properties": {"cleabs": "OCSHIST059AHYD0000046325", "fictif": "f", "incertain": "f", "double": "t", "type": "3", "code_insee": "59"}}, {"type": "Feature", "id": "b_3_troncon_de_cours_d_eau.929", "geometry": {"type": "MultiLineString", "coordinates": [[[3.04694947, 50.64427611], [3.04700528, 50.6444343], [3.04671614, 50.64492498]]]}, "geometry_name": "geom", "properties": {"cleabs": "OCSHIST059AHYD0000046752", "fictif": "f", "incertain": "f", "double": "t", "type": "3", "code_insee": "59"}}, {"type": "Feature", "id": "b_3_troncon_de_cours_d_eau.1042", "geometry": {"type": "MultiLineString", "coordinates": [[[3.04607617, 50.64329667], [3.04590241, 50.64268911], [3.04634909, 50.64244775], [3.04712009, 50.64217124], [3.0475051, 50.64240663]]]}, "geometry_name": "geom", "properties": {"cleabs": "OCSHIST059AHYD0000046866", "fictif": "f", "incertain": "f", "double": "t", "type": "3", "code_insee": "59"}}, {"type": "Feature", "id": "b_3_troncon_de_cours_d_eau.1173", "geometry": {"type": "MultiLineString", "coordinates": [[[3.05552509, 50.63682728], [3.05495553, 50.63688216]]]}, "geometry_name": "geom", "properties": {"cleabs": "OCSHIST059AHYD0000047002", "fictif": "f", "incertain": "f", "double": "t", "type": "3", "code_insee": "59"}}, {"type": "Feature", "id": "b_3_troncon_de_cours_d_eau.1403", "geometry": {"type": "MultiLineString", "coordinates": [[[3.04827733, 50.64145873], [3.04881384, 50.64131711], [3.04924382, 50.64061543], [3.04909415, 50.64048241], [3.04848184, 50.6402918]]]}, "geometry_name": "geom", "properties": {"cleabs": "OCSHIST059AHYD0000047232", "fictif": "f", "incertain": "f", "double": "t", "type": "3", "code_insee": "59"}}, {"type": "Feature", "id": "b_3_troncon_de_cours_d_eau.1588", "geometry": {"type": "MultiLineString", "coordinates": [[[3.04934969, 50.64566853], [3.05005942, 50.64631605], [3.05123898, 50.64664786], [3.05124275, 50.64664883]]]}, "geometry_name": "geom", "properties": {"cleabs": "OCSHIST059AHYD0000047409", "fictif": "f", "incertain": "f", "double": "t", "type": "3", "code_insee": "59"}}, {"type": "Feature", "id": "b_3_troncon_de_cours_d_eau.1895", "geometry": {"type": "MultiLineString", "coordinates": [[[3.05404128, 50.63620873], [3.05400112, 50.63651161], [3.05404123, 50.63677617]]]}, "geometry_name": "geom", "properties": {"cleabs": "OCSHIST059AHYD0000047724", "fictif": "f", "incertain": "f", "double": "t", "type": "3", "code_insee": "59"}}, {"type": "Feature", "id": "b_3_troncon_de_cours_d_eau.2121", "geometry": {"type": "MultiLineString", "coordinates": [[[3.04210359, 50.63991773], [3.040725, 50.64027164], [3.04139882, 50.64101985]]]}, "geometry_name": "geom", "properties": {"cleabs": "OCSHIST059AHYD0000047950", "fictif": "f", "incertain": "f", "double": "t", "type": "3", "code_insee": "59"}}, {"type": "Feature", "id": "b_3_troncon_de_cours_d_eau.2219", "geometry": {"type": "MultiLineString", "coordinates": [[[3.05404123, 50.63677617], [3.05306105, 50.63704942]]]}, "geometry_name": "geom", "properties": {"cleabs": "OCSHIST059AHYD0000048052", "fictif": "f", "incertain": "f", "double": "t", "type": "3", "code_insee": "59"}}, {"type": "Feature", "id": "b_3_troncon_de_cours_d_eau.2226", "geometry": {"type": "MultiLineString", "coordinates": [[[3.04255201, 50.64233335], [3.04238836, 50.64229022]]]}, "geometry_name": "geom", "properties": {"cleabs": "OCSHIST059AHYD0000048059", "fictif": "f", "incertain": "f", "double": "t", "type": "3", "code_insee": "59"}}, {"type": "Feature", "id": "b_3_troncon_de_cours_d_eau.2247", "geometry": {"type": "MultiLineString", "coordinates": [[[3.04446876, 50.63911441], [3.04435815, 50.63947011]]]}, "geometry_name": "geom", "properties": {"cleabs": "OCSHIST059AHYD0000048126", "fictif": "f", "incertain": "f", "double": "t", "type": "3", "code_insee": "59"}}, {"type": "Feature", "id": "b_3_troncon_de_cours_d_eau.2442", "geometry": {"type": "MultiLineString", "coordinates": [[[3.04393762, 50.64293548], [3.04343311, 50.64260028], [3.04308274, 50.64249413]]]}, "geometry_name": "geom", "properties": {"cleabs": "OCSHIST059AHYD0000048275", "fictif": "f", "incertain": "f", "double": "t", "type": "3", "code_insee": "59"}}, {"type": "Feature", "id": "b_3_troncon_de_cours_d_eau.2518", "geometry": {"type": "MultiLineString", "coordinates": [[[3.04597351, 50.63957036], [3.04615092, 50.63956376]]]}, "geometry_name": "geom", "properties": {"cleabs": "OCSHIST059AHYD0000048338", "fictif": "f", "incertain": "f", "double": "t", "type": "3", "code_insee": "59"}}, {"type": "Feature", "id": "b_3_troncon_de_cours_d_eau.2571", "geometry": {"type": "MultiLineString", "coordinates": [[[3.0512564, 50.63755244], [3.05158546, 50.63695032], [3.05203099, 50.63637098], [3.05283729, 50.63652213], [3.05306105, 50.63704942]]]}, "geometry_name": "geom", "properties": {"cleabs": "OCSHIST059AHYD0000048403", "fictif": "f", "incertain": "f", "double": "t", "type": "3", "code_insee": "59"}}, {"type": "Feature", "id": "b_3_troncon_de_cours_d_eau.2647", "geometry": {"type": "MultiLineString", "coordinates": [[[3.04864143, 50.64509844], [3.04896682, 50.64533375], [3.04907156, 50.64541455]]]}, "geometry_name": "geom", "properties": {"cleabs": "OCSHIST059AHYD0000048475", "fictif": "f", "incertain": "f", "double": "t", "type": "3", "code_insee": "59"}}, {"type": "Feature", "id": "b_3_troncon_de_cours_d_eau.2832", "geometry": {"type": "MultiLineString", "coordinates": [[[3.04770375, 50.64050644], [3.04781258, 50.6408318], [3.04801239, 50.64110134]]]}, "geometry_name": "geom", "properties": {"cleabs": "OCSHIST059AHYD0000048665", "fictif": "f", "incertain": "f", "double": "t", "type": "3", "code_insee": "59"}}, {"type": "Feature", "id": "b_3_troncon_de_cours_d_eau.2833", "geometry": {"type": "MultiLineString", "coordinates": [[[3.04238836, 50.64229022], [3.04135748, 50.64201853], [3.04190695, 50.6413921]]]}, "geometry_name": "geom", "properties": {"cleabs": "OCSHIST059AHYD0000048666", "fictif": "f", "incertain": "f", "double": "t", "type": "3", "code_insee": "59"}}, {"type": "Feature", "id": "b_3_troncon_de_cours_d_eau.3236", "geometry": {"type": "MultiLineString", "coordinates": [[[3.04781086, 50.64441406], [3.04707193, 50.64429917], [3.04694947, 50.64427611]]]}, "geometry_name": "geom", "properties": {"cleabs": "OCSHIST059AHYD0000049063", "fictif": "f", "incertain": "f", "double": "t", "type": "3", "code_insee": "59"}}, {"type": "Feature", "id": "b_3_troncon_de_cours_d_eau.3306", "geometry": {"type": "MultiLineString", "coordinates": [[[3.03626886, 50.64603998], [3.03720654, 50.64638934], [3.03698916, 50.64691006], [3.03590076, 50.64654701]]]}, "geometry_name": "geom", "properties": {"cleabs": "OCSHIST059AHYD0000049138", "fictif": "f", "incertain": "f", "double": "f", "type": "1", "code_insee": "59"}}, {"type": "Feature", "id": "b_3_troncon_de_cours_d_eau.3368", "geometry": {"type": "MultiLineString", "coordinates": [[[3.04801239, 50.64110134], [3.04827733, 50.64145873]]]}, "geometry_name": "geom", "properties": {"cleabs": "OCSHIST059AHYD0000049199", "fictif": "f", "incertain": "f", "double": "t", "type": "3", "code_insee": "59"}}, {"type": "Feature", "id": "b_3_troncon_de_cours_d_eau.3460", "geometry": {"type": "MultiLineString", "coordinates": [[[3.04615092, 50.63956376], [3.04613566, 50.63912143]]]}, "geometry_name": "geom", "properties": {"cleabs": "OCSHIST059AHYD0000049332", "fictif": "f", "incertain": "f", "double": "t", "type": "3", "code_insee": "59"}}, {"type": "Feature", "id": "b_3_troncon_de_cours_d_eau.3568", "geometry": {"type": "MultiLineString", "coordinates": [[[3.04597351, 50.63957036], [3.0459888, 50.63975702], [3.04587008, 50.63992766], [3.04451259, 50.63990683], [3.04439299, 50.63983075], [3.0443478, 50.63970732], [3.04435815, 50.63947011]]]}, "geometry_name": "geom", "properties": {"cleabs": "OCSHIST059AHYD0000049401", "fictif": "f", "incertain": "f", "double": "t", "type": "3", "code_insee": "59"}}, {"type": "Feature", "id": "b_3_troncon_de_cours_d_eau.3572", "geometry": {"type": "MultiLineString", "coordinates": [[[3.04934969, 50.64566853], [3.04969032, 50.64541567], [3.05238499, 50.64295885], [3.0523846, 50.64285207], [3.05289574, 50.63980263], [3.05309205, 50.638592], [3.05315129, 50.63826004], [3.05318829, 50.63817696], [3.05339319, 50.63810561], [3.05365413, 50.63805794], [3.05400807, 50.637939], [3.05437994, 50.63761833], [3.05469646, 50.63746381], [3.05486365, 50.63727381], [3.0549189, 50.63707204], [3.05495553, 50.63688216]]]}, "geometry_name": "geom", "properties": {"cleabs": "OCSHIST059AHYD0000049405", "fictif": "f", "incertain": "f", "double": "t", "type": "3", "code_insee": "59"}}, {"type": "Feature", "id": "b_3_troncon_de_cours_d_eau.3863", "geometry": {"type": "MultiLineString", "coordinates": [[[3.0437572, 50.64354966], [3.04521528, 50.64452434], [3.04661041, 50.64354176]]]}, "geometry_name": "geom", "properties": {"cleabs": "OCSHIST059AHYD0000049695", "fictif": "f", "incertain": "f", "double": "t", "type": "3", "code_insee": "59"}}, {"type": "Feature", "id": "b_3_troncon_de_cours_d_eau.3868", "geometry": {"type": "MultiLineString", "coordinates": [[[3.04238836, 50.64229022], [3.04239346, 50.64285978]]]}, "geometry_name": "geom", "properties": {"cleabs": "OCSHIST059AHYD0000049700", "fictif": "f", "incertain": "f", "double": "t", "type": "3", "code_insee": "59"}}, {"type": "Feature", "id": "b_3_troncon_de_cours_d_eau.4087", "geometry": {"type": "MultiLineString", "coordinates": [[[3.04827733, 50.64145873], [3.04862273, 50.64207602], [3.0475051, 50.64240663]]]}, "geometry_name": "geom", "properties": {"cleabs": "OCSHIST059AHYD0000049910", "fictif": "f", "incertain": "f", "double": "t", "type": "3", "code_insee": "59"}}, {"type": "Feature", "id": "b_3_troncon_de_cours_d_eau.4329", "geometry": {"type": "MultiLineString", "coordinates": [[[3.04117517, 50.63886551], [3.04051895, 50.63889306], [3.04034221, 50.63955704], [3.03934426, 50.63999213], [3.03954027, 50.64061869], [3.03900505, 50.6411588], [3.03957306, 50.64150122]]]}, "geometry_name": "geom", "properties": {"cleabs": "OCSHIST059AHYD0000050159", "fictif": "f", "incertain": "f", "double": "t", "type": "3", "code_insee": "59"}}, {"type": "Feature", "id": "b_3_troncon_de_cours_d_eau.4513", "geometry": {"type": "MultiLineString", "coordinates": [[[3.044435, 50.64326593], [3.04393762, 50.64293548]]]}, "geometry_name": "geom", "properties": {"cleabs": "OCSHIST059AHYD0000050344", "fictif": "f", "incertain": "f", "double": "t", "type": "3", "code_insee": "59"}}, {"type": "Feature", "id": "b_3_troncon_de_cours_d_eau.4559", "geometry": {"type": "MultiLineString", "coordinates": [[[3.04327624, 50.6382706], [3.04363232, 50.63773019], [3.04464744, 50.6379783], [3.04531732, 50.63760913], [3.04612394, 50.63794235], [3.04688449, 50.63790542], [3.04716973, 50.63840874]]]}, "geometry_name": "geom", "properties": {"cleabs": "OCSHIST059AHYD0000050390", "fictif": "f", "incertain": "f", "double": "t", "type": "3", "code_insee": "59"}}, {"type": "Feature", "id": "b_3_troncon_de_cours_d_eau.4642", "geometry": {"type": "MultiLineString", "coordinates": [[[3.04768958, 50.64287898], [3.04762877, 50.64358349], [3.04661041, 50.64354176]]]}, "geometry_name": "geom", "properties": {"cleabs": "OCSHIST059AHYD0000050471", "fictif": "f", "incertain": "f", "double": "t", "type": "3", "code_insee": "59"}}, {"type": "Feature", "id": "b_3_troncon_de_cours_d_eau.4881", "geometry": {"type": "MultiLineString", "coordinates": [[[3.04671614, 50.64492498], [3.0477922, 50.64542466], [3.04864143, 50.64509844]]]}, "geometry_name": "geom", "properties": {"cleabs": "OCSHIST059AHYD0000050712", "fictif": "f", "incertain": "f", "double": "t", "type": "3", "code_insee": "59"}}, {"type": "Feature", "id": "b_3_troncon_de_cours_d_eau.4983", "geometry": {"type": "MultiLineString", "coordinates": [[[3.04308274, 50.64249413], [3.04255201, 50.64233335]]]}, "geometry_name": "geom", "properties": {"cleabs": "OCSHIST059AHYD0000050816", "fictif": "f", "incertain": "f", "double": "t", "type": "3", "code_insee": "59"}}, {"type": "Feature", "id": "b_3_troncon_de_cours_d_eau.5116", "geometry": {"type": "MultiLineString", "coordinates": [[[3.0475051, 50.64240663], [3.04631391, 50.6430313], [3.04607617, 50.64329667]]]}, "geometry_name": "geom", "properties": {"cleabs": "OCSHIST059AHYD0000050945", "fictif": "f", "incertain": "f", "double": "t", "type": "3", "code_insee": "59"}}, {"type": "Feature", "id": "b_3_troncon_de_cours_d_eau.5464", "geometry": {"type": "MultiLineString", "coordinates": [[[3.04613566, 50.63912143], [3.04538774, 50.63853207], [3.04446876, 50.63911441]]]}, "geometry_name": "geom", "properties": {"cleabs": "OCSHIST059AHYD0000051294", "fictif": "f", "incertain": "f", "double": "t", "type": "3", "code_insee": "59"}}, {"type": "Feature", "id": "b_3_troncon_de_cours_d_eau.5514", "geometry": {"type": "MultiLineString", "coordinates": [[[3.04262637, 50.6401201], [3.04210359, 50.63991773]]]}, "geometry_name": "geom", "properties": {"cleabs": "OCSHIST059AHYD0000051346", "fictif": "f", "incertain": "f", "double": "t", "type": "3", "code_insee": "59"}}, {"type": "Feature", "id": "b_3_troncon_de_cours_d_eau.5628", "geometry": {"type": "MultiLineString", "coordinates": [[[3.04907156, 50.64541455], [3.04934969, 50.64566853]]]}, "geometry_name": "geom", "properties": {"cleabs": "OCSHIST059AHYD0000051660", "fictif": "f", "incertain": "f", "double": "t", "type": "3", "code_insee": "59"}}, {"type": "Feature", "id": "b_3_troncon_de_cours_d_eau.5695", "geometry": {"type": "MultiLineString", "coordinates": [[[3.04262637, 50.6401201], [3.04287258, 50.64014179], [3.04330596, 50.64037014], [3.0430836, 50.64076837], [3.04271238, 50.6412613], [3.04206643, 50.64121028]]]}, "geometry_name": "geom", "properties": {"cleabs": "OCSHIST059AHYD0000051518", "fictif": "f", "incertain": "f", "double": "t", "type": "3", "code_insee": "59"}}, {"type": "Feature", "id": "b_3_troncon_de_cours_d_eau.6017", "geometry": {"type": "MultiLineString", "coordinates": [[[3.04919808, 50.63844097], [3.04856486, 50.63862992]]]}, "geometry_name": "geom", "properties": {"cleabs": "OCSHIST059AHYD0000051850", "fictif": "f", "incertain": "f", "double": "t", "type": "3", "code_insee": "59"}}, {"type": "Feature", "id": "b_3_troncon_de_cours_d_eau.6443", "geometry": {"type": "MultiLineString", "coordinates": [[[3.04446876, 50.63911441], [3.04234135, 50.63857771], [3.04210359, 50.63991773]]]}, "geometry_name": "geom", "properties": {"cleabs": "OCSHIST059AHYD0000052276", "fictif": "f", "incertain": "f", "double": "t", "type": "3", "code_insee": "59"}}, {"type": "Feature", "id": "b_3_troncon_de_cours_d_eau.6604", "geometry": {"type": "MultiLineString", "coordinates": [[[3.04756765, 50.64015772], [3.04763158, 50.64029065]]]}, "geometry_name": "geom", "properties": {"cleabs": "OCSHIST059AHYD0000052437", "fictif": "f", "incertain": "f", "double": "t", "type": "3", "code_insee": "59"}}, {"type": "Feature", "id": "b_3_troncon_de_cours_d_eau.7128", "geometry": {"type": "MultiLineString", "coordinates": [[[3.04756765, 50.64015772], [3.04708445, 50.64044759], [3.04749055, 50.64135913], [3.04827733, 50.64145873]]]}, "geometry_name": "geom", "properties": {"cleabs": "OCSHIST059AHYD0000052958", "fictif": "f", "incertain": "f", "double": "t", "type": "3", "code_insee": "59"}}, {"type": "Feature", "id": "b_3_troncon_de_cours_d_eau.7161", "geometry": {"type": "MultiLineString", "coordinates": [[[3.03836328, 50.64204384], [3.0382969, 50.64227148], [3.03829741, 50.64242804], [3.0383652, 50.64262741], [3.0385445, 50.64271307], [3.03876852, 50.64278456], [3.03910437, 50.64284197]]]}, "geometry_name": "geom", "properties": {"cleabs": "OCSHIST059AHYD0000052994", "fictif": "f", "incertain": "f", "double": "t", "type": "3", "code_insee": "59"}}, {"type": "Feature", "id": "b_3_troncon_de_cours_d_eau.7349", "geometry": {"type": "MultiLineString", "coordinates": [[[3.04763158, 50.64029065], [3.04825792, 50.64024405], [3.04808983, 50.63916202], [3.04804456, 50.63901962], [3.04786514, 50.6389055], [3.04613566, 50.63912143]]]}, "geometry_name": "geom", "properties": {"cleabs": "OCSHIST059AHYD0000053182", "fictif": "f", "incertain": "f", "double": "t", "type": "3", "code_insee": "59"}}, {"type": "Feature", "id": "b_3_troncon_de_cours_d_eau.7404", "geometry": {"type": "MultiLineString", "coordinates": [[[3.04694947, 50.64427611], [3.04669122, 50.64422748], [3.04622286, 50.64466808], [3.04671614, 50.64492498]]]}, "geometry_name": "geom", "properties": {"cleabs": "OCSHIST059AHYD0000053228", "fictif": "f", "incertain": "f", "double": "t", "type": "3", "code_insee": "59"}}, {"type": "Feature", "id": "b_3_troncon_de_cours_d_eau.7781", "geometry": {"type": "MultiLineString", "coordinates": [[[3.04239346, 50.64285978], [3.04249651, 50.6435384], [3.04266085, 50.64360505], [3.0437572, 50.64354966]]]}, "geometry_name": "geom", "properties": {"cleabs": "OCSHIST059AHYD0000053606", "fictif": "f", "incertain": "f", "double": "t", "type": "3", "code_insee": "59"}}, {"type": "Feature", "id": "b_3_troncon_de_cours_d_eau.8061", "geometry": {"type": "MultiLineString", "coordinates": [[[3.04919808, 50.63844097], [3.04950775, 50.6374918], [3.04958731, 50.63729364], [3.0512564, 50.63755244]]]}, "geometry_name": "geom", "properties": {"cleabs": "OCSHIST059AHYD0000053892", "fictif": "f", "incertain": "f", "double": "t", "type": "3", "code_insee": "59"}}, {"type": "Feature", "id": "b_3_troncon_de_cours_d_eau.8082", "geometry": {"type": "MultiLineString", "coordinates": [[[3.0437572, 50.64354966], [3.04403313, 50.64353106], [3.044435, 50.64326593]]]}, "geometry_name": "geom", "properties": {"cleabs": "OCSHIST059AHYD0000053913", "fictif": "f", "incertain": "f", "double": "t", "type": "3", "code_insee": "59"}}, {"type": "Feature", "id": "b_3_troncon_de_cours_d_eau.8091", "geometry": {"type": "MultiLineString", "coordinates": [[[3.04962707, 50.6423708], [3.04768958, 50.64287898]]]}, "geometry_name": "geom", "properties": {"cleabs": "OCSHIST059AHYD0000053922", "fictif": "f", "incertain": "f", "double": "t", "type": "3", "code_insee": "59"}}, {"type": "Feature", "id": "b_3_troncon_de_cours_d_eau.8268", "geometry": {"type": "MultiLineString", "coordinates": [[[3.03024115, 50.63636779], [3.03051179, 50.63647493], [3.0307172, 50.63658791], [3.03093194, 50.6367009], [3.03107201, 50.63678413], [3.03131481, 50.63692682], [3.0315483, 50.63707542], [3.03187528, 50.63731312], [3.03284735, 50.63815666], [3.03315568, 50.63838247], [3.03345468, 50.63860233], [3.0336695, 50.63873311], [3.03384696, 50.63884012], [3.03401497, 50.6389056], [3.03419224, 50.6389533], [3.03447203, 50.63898929], [3.0347331, 50.63900153], [3.03499415, 50.63900784], [3.03522731, 50.63903783], [3.03541388, 50.63907368], [3.0355818, 50.6391095], [3.03601104, 50.63923466], [3.03626288, 50.63927654], [3.03648667, 50.63928872], [3.0366638, 50.63928898], [3.0368595, 50.63926554], [3.03707369, 50.63919467], [3.03749267, 50.63902922], [3.03799533, 50.63879864], [3.03820504, 50.63866525], [3.03838606, 50.63855011], [3.03867458, 50.63840818], [3.03907483, 50.63822489], [3.03970799, 50.63800042], [3.04001612, 50.63789182], [3.04113257, 50.6374983], [3.04133734, 50.63740369], [3.04162589, 50.63727954], [3.04207271, 50.63709631], [3.04255675, 50.63689533], [3.04286393, 50.6367712], [3.04342228, 50.63649915], [3.0437946, 50.63634545], [3.0442227, 50.63615032]]]}, "geometry_name": "geom", "properties": {"cleabs": "OCSHIST059AHYD0000054100", "fictif": "f", "incertain": "f", "double": "t", "type": "3", "code_insee": "59"}}, {"type": "Feature", "id": "b_3_troncon_de_cours_d_eau.8315", "geometry": {"type": "MultiLineString", "coordinates": [[[3.04435815, 50.63947011], [3.04531697, 50.63959478], [3.04597351, 50.63957036]]]}, "geometry_name": "geom", "properties": {"cleabs": "OCSHIST059AHYD0000054148", "fictif": "f", "incertain": "f", "double": "t", "type": "3", "code_insee": "59"}}, {"type": "Feature", "id": "b_3_troncon_de_cours_d_eau.8538", "geometry": {"type": "MultiLineString", "coordinates": [[[3.04770375, 50.64050644], [3.0482888, 50.64052878], [3.04866201, 50.64060519], [3.04851418, 50.6409656], [3.04841004, 50.64104137], [3.04801239, 50.64110134]]]}, "geometry_name": "geom", "properties": {"cleabs": "OCSHIST059AHYD0000054369", "fictif": "f", "incertain": "f", "double": "t", "type": "3", "code_insee": "59"}}, {"type": "Feature", "id": "b_3_troncon_de_cours_d_eau.8561", "geometry": {"type": "MultiLineString", "coordinates": [[[3.04139882, 50.64101985], [3.04004164, 50.64221593], [3.04039662, 50.64241808], [3.04239346, 50.64285978]]]}, "geometry_name": "geom", "properties": {"cleabs": "OCSHIST059AHYD0000054390", "fictif": "f", "incertain": "f", "double": "t", "type": "3", "code_insee": "59"}}, {"type": "Feature", "id": "b_3_troncon_de_cours_d_eau.8566", "geometry": {"type": "MultiLineString", "coordinates": [[[3.04607617, 50.64329667], [3.04528717, 50.64377004], [3.044435, 50.64326593]]]}, "geometry_name": "geom", "properties": {"cleabs": "OCSHIST059AHYD0000054395", "fictif": "f", "incertain": "f", "double": "t", "type": "3", "code_insee": "59"}}, {"type": "Feature", "id": "b_3_troncon_de_cours_d_eau.8597", "geometry": {"type": "MultiLineString", "coordinates": [[[3.05750649, 50.63557799], [3.05602301, 50.63659072]]]}, "geometry_name": "geom", "properties": {"cleabs": "OCSHIST059AHYD0000054430", "fictif": "f", "incertain": "f", "double": "t", "type": "3", "code_insee": "59"}}, {"type": "Feature", "id": "b_3_troncon_de_cours_d_eau.8624", "geometry": {"type": "MultiLineString", "coordinates": [[[3.04190695, 50.6413921], [3.04206643, 50.64121028]]]}, "geometry_name": "geom", "properties": {"cleabs": "OCSHIST059AHYD0000054456", "fictif": "f", "incertain": "f", "double": "t", "type": "3", "code_insee": "59"}}, {"type": "Feature", "id": "b_3_troncon_de_cours_d_eau.8710", "geometry": {"type": "MultiLineString", "coordinates": [[[3.044435, 50.64326593], [3.04431759, 50.6426216], [3.04384686, 50.6423932], [3.04315222, 50.64212179], [3.04255201, 50.64233335]]]}, "geometry_name": "geom", "properties": {"cleabs": "OCSHIST059AHYD0000054542", "fictif": "f", "incertain": "f", "double": "t", "type": "3", "code_insee": "59"}}, {"type": "Feature", "id": "b_3_troncon_de_cours_d_eau.9091", "geometry": {"type": "MultiLineString", "coordinates": [[[3.05552509, 50.63682728], [3.05538834, 50.63637746], [3.05536979, 50.63534273], [3.05696624, 50.63528421]]]}, "geometry_name": "geom", "properties": {"cleabs": "OCSHIST059AHYD0000054914", "fictif": "f", "incertain": "f", "double": "t", "type": "3", "code_insee": "59"}}, {"type": "Feature", "id": "b_3_troncon_de_cours_d_eau.9251", "geometry": {"type": "MultiLineString", "coordinates": [[[3.04615092, 50.63956376], [3.04630132, 50.63955816], [3.04727083, 50.6395405], [3.04756765, 50.64015772]]]}, "geometry_name": "geom", "properties": {"cleabs": "OCSHIST059AHYD0000055084", "fictif": "f", "incertain": "f", "double": "t", "type": "3", "code_insee": "59"}}, {"type": "Feature", "id": "b_3_troncon_de_cours_d_eau.9533", "geometry": {"type": "MultiLineString", "coordinates": [[[3.04206643, 50.64121028], [3.04254622, 50.64066324], [3.04262637, 50.6401201]]]}, "geometry_name": "geom", "properties": {"cleabs": "OCSHIST059AHYD0000055363", "fictif": "f", "incertain": "f", "double": "t", "type": "3", "code_insee": "59"}}, {"type": "Feature", "id": "b_3_troncon_de_cours_d_eau.9543", "geometry": {"type": "MultiLineString", "coordinates": [[[3.04661041, 50.64354176], [3.04607617, 50.64329667]]]}, "geometry_name": "geom", "properties": {"cleabs": "OCSHIST059AHYD0000055372", "fictif": "f", "incertain": "f", "double": "t", "type": "3", "code_insee": "59"}}, {"type": "Feature", "id": "b_3_troncon_de_cours_d_eau.9969", "geometry": {"type": "MultiLineString", "coordinates": [[[3.0512564, 50.63755244], [3.05020297, 50.63784602], [3.04919808, 50.63844097]]]}, "geometry_name": "geom", "properties": {"cleabs": "OCSHIST059AHYD0000055796", "fictif": "f", "incertain": "f", "double": "t", "type": "3", "code_insee": "59"}}, {"type": "Feature", "id": "b_3_troncon_de_cours_d_eau.9991", "geometry": {"type": "MultiLineString", "coordinates": [[[3.04435815, 50.63947011], [3.04307098, 50.63929041], [3.04262637, 50.6401201]]]}, "geometry_name": "geom", "properties": {"cleabs": "OCSHIST059AHYD0000055811", "fictif": "f", "incertain": "f", "double": "t", "type": "3", "code_insee": "59"}}, {"type": "Feature", "id": "b_3_troncon_de_cours_d_eau.9995", "geometry": {"type": "MultiLineString", "coordinates": [[[3.05306105, 50.63704942], [3.0512564, 50.63755244]]]}, "geometry_name": "geom", "properties": {"cleabs": "OCSHIST059AHYD0000055815", "fictif": "f", "incertain": "f", "double": "t", "type": "3", "code_insee": "59"}}, {"type": "Feature", "id": "b_3_troncon_de_cours_d_eau.10114", "geometry": {"type": "MultiLineString", "coordinates": [[[3.05101675, 50.64705602], [3.0496433, 50.64672423], [3.04846103, 50.64573636], [3.04907156, 50.64541455]]]}, "geometry_name": "geom", "properties": {"cleabs": "OCSHIST059AHYD0000055946", "fictif": "f", "incertain": "f", "double": "t", "type": "3", "code_insee": "59"}}, {"type": "Feature", "id": "b_3_troncon_de_cours_d_eau.10143", "geometry": {"type": "MultiLineString", "coordinates": [[[3.05602301, 50.63659072], [3.05570133, 50.6368103], [3.05552509, 50.63682728]]]}, "geometry_name": "geom", "properties": {"cleabs": "OCSHIST059AHYD0000055974", "fictif": "f", "incertain": "f", "double": "t", "type": "3", "code_insee": "59"}}, {"type": "Feature", "id": "b_3_troncon_de_cours_d_eau.10165", "geometry": {"type": "MultiLineString", "coordinates": [[[3.04763158, 50.64029065], [3.04770375, 50.64050644]]]}, "geometry_name": "geom", "properties": {"cleabs": "OCSHIST059AHYD0000055997", "fictif": "f", "incertain": "f", "double": "t", "type": "3", "code_insee": "59"}}, {"type": "Feature", "id": "b_3_troncon_de_cours_d_eau.10420", "geometry": {"type": "MultiLineString", "coordinates": [[[3.04697696, 50.6458719], [3.04662317, 50.64705284], [3.0481674, 50.64702651]]]}, "geometry_name": "geom", "properties": {"cleabs": "OCSHIST059AHYD0000056299", "fictif": "f", "incertain": "f", "double": "t", "type": "3", "code_insee": "59"}}, {"type": "Feature", "id": "b_3_troncon_de_cours_d_eau.10492", "geometry": {"type": "MultiLineString", "coordinates": [[[3.04037994, 50.64299926], [3.04026957, 50.64344983], [3.04137049, 50.64364118], [3.04163377, 50.64428207], [3.0428645, 50.64424823], [3.04312745, 50.64478237], [3.04413419, 50.64468889]]]}, "geometry_name": "geom", "properties": {"cleabs": "OCSHIST059AHYD0000056323", "fictif": "f", "incertain": "f", "double": "t", "type": "3", "code_insee": "59"}}, {"type": "Feature", "id": "b_3_troncon_de_cours_d_eau.10501", "geometry": {"type": "MultiLineString", "coordinates": [[[3.04830241, 50.64420122], [3.04781086, 50.64441406]]]}, "geometry_name": "geom", "properties": {"cleabs": "OCSHIST059AHYD0000056419", "fictif": "f", "incertain": "f", "double": "t", "type": "3", "code_insee": "59"}}, {"type": "Feature", "id": "b_3_troncon_de_cours_d_eau.11333", "geometry": {"type": "MultiLineString", "coordinates": [[[3.04139882, 50.64101985], [3.04190695, 50.6413921]]]}, "geometry_name": "geom", "properties": {"cleabs": "OCSHIST059AHYD0000057163", "fictif": "f", "incertain": "f", "double": "t", "type": "3", "code_insee": "59"}}, {"type": "Feature", "id": "b_3_troncon_de_cours_d_eau.11366", "geometry": {"type": "MultiLineString", "coordinates": [[[3.0442227, 50.63615032], [3.04441902, 50.63631072], [3.04462456, 50.63644147], [3.04482989, 50.63651292], [3.0451564, 50.63658453], [3.04543627, 50.63664422], [3.04562283, 50.63668006], [3.04578125, 50.63666841], [3.04595832, 50.63665678], [3.04614241, 50.6365804], [3.0462186, 50.63645548], [3.04631154, 50.6363785], [3.04652555, 50.63627204], [3.04674885, 50.63615965], [3.04714909, 50.63600004], [3.04740979, 50.63591736], [3.04757744, 50.63588199], [3.04783811, 50.63579338], [3.04807104, 50.63576403], [3.04827602, 50.63574058], [3.04848107, 50.63573492], [3.04866749, 50.63573516], [3.04927352, 50.63576548]]]}, "geometry_name": "geom", "properties": {"cleabs": "OCSHIST059AHYD0000057197", "fictif": "f", "incertain": "f", "double": "t", "type": "3", "code_insee": "59"}}, {"type": "Feature", "id": "b_3_troncon_de_cours_d_eau.11483", "geometry": {"type": "MultiLineString", "coordinates": [[[3.05602301, 50.63659072], [3.05639521, 50.63682155], [3.05688879, 50.63716288], [3.05749474, 50.63764655], [3.05765209, 50.6378458], [3.05808909, 50.63810318], [3.05852562, 50.63804445], [3.05910929, 50.63857093], [3.05973503, 50.6382998], [3.06029327, 50.63791475], [3.06109696, 50.63730156], [3.06154352, 50.63697353], [3.06183373, 50.63674534], [3.06216849, 50.63644588]]]}, "geometry_name": "geom", "properties": {"cleabs": "OCSHIST059AHYD0000057333", "fictif": "f", "incertain": "f", "double": "t", "type": "1", "code_insee": "59"}}, {"type": "Feature", "id": "b_3_troncon_de_cours_d_eau.11657", "geometry": {"type": "MultiLineString", "coordinates": [[[3.0475051, 50.64240663], [3.04768958, 50.64287898]]]}, "geometry_name": "geom", "properties": {"cleabs": "OCSHIST059AHYD0000057488", "fictif": "f", "incertain": "f", "double": "t", "type": "3", "code_insee": "59"}}, {"type": "Feature", "id": "b_3_troncon_de_cours_d_eau.11912", "geometry": {"type": "MultiLineString", "coordinates": [[[3.04781086, 50.64441406], [3.04813604, 50.64459955], [3.04864143, 50.64509844]]]}, "geometry_name": "geom", "properties": {"cleabs": "OCSHIST059AHYD0000057738", "fictif": "f", "incertain": "f", "double": "t", "type": "3", "code_insee": "59"}}, {"type": "Feature", "id": "b_3_troncon_de_cours_d_eau.11921", "geometry": {"type": "MultiLineString", "coordinates": [[[3.05153793, 50.63588768], [3.0507079, 50.6366388], [3.05037218, 50.63663908], [3.0503054, 50.63673879], [3.05017169, 50.63689549], [3.04914168, 50.63676808], [3.04888788, 50.63675497]]]}, "geometry_name": "geom", "properties": {"cleabs": "OCSHIST059AHYD0000057747", "fictif": "f", "incertain": "t", "double": "f", "type": "3", "code_insee": "59"}}, {"type": "Feature", "id": "b_3_troncon_de_cours_d_eau.12140", "geometry": {"type": "MultiLineString", "coordinates": [[[3.04308274, 50.64249413], [3.04289675, 50.6427988], [3.04307722, 50.64321658], [3.04356921, 50.64312238], [3.04393762, 50.64293548]]]}, "geometry_name": "geom", "properties": {"cleabs": "OCSHIST059AHYD0000057971", "fictif": "f", "incertain": "f", "double": "t", "type": "3", "code_insee": "59"}}], "totalFeatures": 76, "numberMatched": 76, "numberReturned": 76, "timeStamp": "2026-09-21T09:53:10.027Z", "crs": {"type": "name", "properties": {"name": "urn:ogc:def:crs:EPSG::4326"}}}